{"type":"FeatureCollection","features":[{"type": "Feature", "id": "X8HtgSQjgCsTDqKR6x-d_cXcFU8=", "properties": {"ref": "1deb7b845bde4cd9b6655d861f82b858", "@spider": "oxxo_gas_irl_dpa", "addr:full": "Killowen Road Kenmare,  V93 K529", "addr:city": "Kenmare", "addr:postcode": "V93 K529", "phones": {"Store": [""]}, "email": {"Customer Service": []}, "website": "https://texaco.ie/station-locator", "operatingHours": {"Store": []}, "chain_id": "30670", "chain_name": "OXXO GAS"}, "geometry": {"type": "Point", "coordinates": [-9.5757, 51.8799]}},
{"type": "Feature", "id": "CPSsOH7cVeP34TjqP6Natw55Gxw=", "properties": {"ref": "9dac662f7f814e19b702de538be5100f", "@spider": "oxxo_gas_irl_dpa", "addr:full": "Convent Road Clonakilty, IE P85 H772", "addr:city": "Clonakilty", "addr:state": "IE", "addr:postcode": "P85 H772", "phones": {"Store": [""]}, "email": {"Customer Service": []}, "website": "https://texaco.ie/station-locator", "operatingHours": {"Store": []}, "chain_id": "30670", "chain_name": "OXXO GAS"}, "geometry": {"type": "Point", "coordinates": [-8.8795, 51.6245]}},
{"type": "Feature", "id": "ND8ZMDb8ajpNsGk_csSRgsE9y7Q=", "properties": {"ref": "c02559ffcb2f400787320a3df97b2ec9", "@spider": "oxxo_gas_irl_dpa", "addr:full": "The Bypass Bandon, CR P72 XP22", "addr:city": "Bandon", "addr:state": "CR", "addr:postcode": "P72 XP22", "phones": {"Store": [""]}, "email": {"Customer Service": []}, "website": "https://texaco.ie/station-locator", "operatingHours": {"Store": []}, "chain_id": "30670", "chain_name": "OXXO GAS"}, "geometry": {"type": "Point", "coordinates": [-8.7293, 51.7414]}},
{"type": "Feature", "id": "JYSHyV2M6qKBeE351ocrZGOfD74=", "properties": {"ref": "b8eb3e87691f4a078c15af0b9f0d3961", "@spider": "oxxo_gas_irl_dpa", "addr:full": "Irishtown Bandon, IE P72 C650", "addr:city": "Bandon", "addr:state": "IE", "addr:postcode": "P72 C650", "phones": {"Store": [""]}, "email": {"Customer Service": []}, "website": "https://texaco.ie/station-locator", "operatingHours": {"Store": []}, "chain_id": "30670", "chain_name": "OXXO GAS"}, "geometry": {"type": "Point", "coordinates": [-8.7259, 51.7457]}},
{"type": "Feature", "id": "RwuekQ_TF5EgrrFDPZmjv0WgcYc=", "properties": {"ref": "6c6a796b012d4e6590da1cd7d6da04da", "@spider": "oxxo_gas_irl_dpa", "addr:full": "Park Road Killarney, IE V93 RFN2", "addr:city": "Killarney", "addr:state": "IE", "addr:postcode": "V93 RFN2", "phones": {"Store": [""]}, "email": {"Customer Service": []}, "website": "https://texaco.ie/station-locator", "operatingHours": {"Store": []}, "chain_id": "30670", "chain_name": "OXXO GAS"}, "geometry": {"type": "Point", "coordinates": [-9.4824, 52.0604]}},
{"type": "Feature", "id": "ljrrEYcQG-oO6EbsheRGB48h2cs=", "properties": {"ref": "23867349c16a4d659d0689f5270dd17c", "@spider": "oxxo_gas_irl_dpa", "addr:full": "Mail Road Dingle, IE V92 Wk2K", "addr:city": "Dingle", "addr:state": "IE", "addr:postcode": "V92 Wk2K", "phones": {"Store": [""]}, "email": {"Customer Service": []}, "website": "https://texaco.ie/station-locator", "operatingHours": {"Store": []}, "chain_id": "30670", "chain_name": "OXXO GAS"}, "geometry": {"type": "Point", "coordinates": [-10.27, 52.1382]}},
{"type": "Feature", "id": "VkNTQoN18aNDPIGd2b0_qv6y1oU=", "properties": {"ref": "26b78ca47f234bdeab815924b42a39b2", "@spider": "oxxo_gas_irl_dpa", "addr:full": "Garravagh Inniscarra, CR P31 C928", "addr:city": "Inniscarra", "addr:state": "CR", "addr:postcode": "P31 C928", "phones": {"Store": [""]}, "email": {"Customer Service": []}, "website": "https://texaco.ie/station-locator", "operatingHours": {"Store": []}, "chain_id": "30670", "chain_name": "OXXO GAS"}, "geometry": {"type": "Point", "coordinates": [-8.6225, 51.8932]}},
{"type": "Feature", "id": "bR6lTz3On1Me2TkRcOKMQKNjfRo=", "properties": {"ref": "69eed9dd1cce4a3ba0fbd54876d84080", "@spider": "oxxo_gas_irl_dpa", "addr:full": "Blennerville Tralee, IE V92 YE04", "addr:city": "Tralee", "addr:state": "IE", "addr:postcode": "V92 YE04", "phones": {"Store": [""]}, "email": {"Customer Service": []}, "website": "https://texaco.ie/station-locator", "operatingHours": {"Store": []}, "chain_id": "30670", "chain_name": "OXXO GAS"}, "geometry": {"type": "Point", "coordinates": [-9.7381, 52.2543]}},
{"type": "Feature", "id": "LgVaqbTGHmZtVJu74jiyLA2MDZw=", "properties": {"ref": "32d43781065a4047806263b6868da6b6", "@spider": "oxxo_gas_irl_dpa", "addr:full": "Model Farm Road Cork, IE T12 VXT1", "addr:city": "Cork", "addr:state": "IE", "addr:postcode": "T12 VXT1", "phones": {"Store": [""]}, "email": {"Customer Service": []}, "website": "https://texaco.ie/station-locator", "operatingHours": {"Store": []}, "chain_id": "30670", "chain_name": "OXXO GAS"}, "geometry": {"type": "Point", "coordinates": [-8.5356, 51.889]}},
{"type": "Feature", "id": "47y3mnvaH4X9QYGqnHwAZIkJylI=", "properties": {"ref": "01093262a14b420797702e32d5659ccf", "@spider": "oxxo_gas_irl_dpa", "addr:full": "Firgrove , IE T12 P268", "addr:state": "IE", "addr:postcode": "T12 P268", "phones": {"Store": [""]}, "email": {"Customer Service": []}, "website": "https://texaco.ie/station-locator", "operatingHours": {"Store": []}, "chain_id": "30670", "chain_name": "OXXO GAS"}, "geometry": {"type": "Point", "coordinates": [-8.5179, 51.8792]}},
{"type": "Feature", "id": "bZm_N3M-kbFcuq9iYnBdvFuP8BE=", "properties": {"ref": "b1960dae68a94c0b8f02173a19181b26", "@spider": "oxxo_gas_irl_dpa", "addr:full": "Boherbee Tralee, IE 0", "addr:city": "Tralee", "addr:state": "IE", "addr:postcode": "0", "phones": {"Store": [""]}, "email": {"Customer Service": []}, "website": "https://texaco.ie/station-locator", "operatingHours": {"Store": []}, "chain_id": "30670", "chain_name": "OXXO GAS"}, "geometry": {"type": "Point", "coordinates": [-9.6954, 52.27]}},
{"type": "Feature", "id": "abvmPSn-LNlsw1ccIi8SDgdY8oc=", "properties": {"ref": "fe6cac1d4a114dde88a70c8b4270aab8", "@spider": "oxxo_gas_irl_dpa", "addr:full": "Carrigrohane Cork, IE T12 KV6K", "addr:city": "Cork", "addr:state": "IE", "addr:postcode": "T12 KV6K", "phones": {"Store": [""]}, "email": {"Customer Service": []}, "website": "https://texaco.ie/station-locator", "operatingHours": {"Store": []}, "chain_id": "30670", "chain_name": "OXXO GAS"}, "geometry": {"type": "Point", "coordinates": [-8.5118, 51.8933]}},
{"type": "Feature", "id": "ueZRGoQSPnQ4nSe30pu72xQX654=", "properties": {"ref": "10d358f80fe247b8ace8164e0c6492b2", "@spider": "oxxo_gas_irl_dpa", "addr:full": "Oakpark Tralee, IE V92 Ak6W", "addr:city": "Tralee", "addr:state": "IE", "addr:postcode": "V92 Ak6W", "phones": {"Store": [""]}, "email": {"Customer Service": []}, "website": "https://texaco.ie/station-locator", "operatingHours": {"Store": []}, "chain_id": "30670", "chain_name": "OXXO GAS"}, "geometry": {"type": "Point", "coordinates": [-9.6877, 52.2792]}},
{"type": "Feature", "id": "7XEvWUWd6AI5cpfNASa9cqWKuRY=", "properties": {"ref": "8631d28e34ab4a0f8b6f4f49dc80f6c9", "@spider": "oxxo_gas_irl_dpa", "addr:full": "South Douglas Road Cork, IE T12 TX93", "addr:city": "Cork", "addr:state": "IE", "addr:postcode": "T12 TX93", "phones": {"Store": [""]}, "email": {"Customer Service": []}, "website": "https://texaco.ie/station-locator", "operatingHours": {"Store": []}, "chain_id": "30670", "chain_name": "OXXO GAS"}, "geometry": {"type": "Point", "coordinates": [-8.4491, 51.8807]}},
{"type": "Feature", "id": "XJYktV64KFyzTSWorRlG0smj8r4=", "properties": {"ref": "d5c781b4d25745f7a106211fe55c28ad", "@spider": "oxxo_gas_irl_dpa", "addr:full": "LEITRIM STREET CORK, IE ", "addr:city": "CORK", "addr:state": "IE", "phones": {"Store": [""]}, "email": {"Customer Service": []}, "website": "https://texaco.ie/station-locator", "operatingHours": {"Store": []}, "chain_id": "30670", "chain_name": "OXXO GAS"}, "geometry": {"type": "Point", "coordinates": [-8.4722, 51.9039]}},
{"type": "Feature", "id": "5_OAtss8WQuIwSu9jphBs9OJ49I=", "properties": {"ref": "be13323af4ea4a118cd4c6eeb0f4d07e", "@spider": "oxxo_gas_irl_dpa", "addr:full": "61/62 Watercourse Road Cork, IE T23 DPA9", "addr:city": "Cork", "addr:state": "IE", "addr:postcode": "T23 DPA9", "phones": {"Store": [""]}, "email": {"Customer Service": []}, "website": "https://texaco.ie/station-locator", "operatingHours": {"Store": []}, "chain_id": "30670", "chain_name": "OXXO GAS"}, "geometry": {"type": "Point", "coordinates": [-8.4744, 51.9083]}},
{"type": "Feature", "id": "ykxjywTu0BSv7Oq55DCDR3PxU2A=", "properties": {"ref": "42233105b9f74b5b91e030b1598bf24d", "@spider": "oxxo_gas_irl_dpa", "addr:full": "Glanmire , IE T45 RD78", "addr:state": "IE", "addr:postcode": "T45 RD78", "phones": {"Store": [""]}, "email": {"Customer Service": []}, "website": "https://texaco.ie/station-locator", "operatingHours": {"Store": []}, "chain_id": "30670", "chain_name": "OXXO GAS"}, "geometry": {"type": "Point", "coordinates": [-8.3985, 51.9173]}},
{"type": "Feature", "id": "tj2c_PktT613PyyFumrXnO-oGPA=", "properties": {"ref": "cedbea52de1d4cb9a38ca3f599c5dd18", "@spider": "oxxo_gas_irl_dpa", "addr:full": "Newtown Cobh, IE P24 RK09", "addr:city": "Cobh", "addr:state": "IE", "addr:postcode": "P24 RK09", "phones": {"Store": [""]}, "email": {"Customer Service": []}, "website": "https://texaco.ie/station-locator", "operatingHours": {"Store": []}, "chain_id": "30670", "chain_name": "OXXO GAS"}, "geometry": {"type": "Point", "coordinates": [-8.3106, 51.8534]}},
{"type": "Feature", "id": "meKs2WuxH2o-l1kdZ_TTO3rj200=", "properties": {"ref": "8183f3c95ff448fda6540ea73ed1dcd7", "@spider": "oxxo_gas_irl_dpa", "addr:full": "Sallybrook Glanmire, IE T45 AX94", "addr:city": "Glanmire", "addr:state": "IE", "addr:postcode": "T45 AX94", "phones": {"Store": [""]}, "email": {"Customer Service": []}, "website": "https://texaco.ie/station-locator", "operatingHours": {"Store": []}, "chain_id": "30670", "chain_name": "OXXO GAS"}, "geometry": {"type": "Point", "coordinates": [-8.3972, 51.9407]}},
{"type": "Feature", "id": "papjAK-r7qOBYusLowHorUGs4-A=", "properties": {"ref": "077d9ada77d94d419d0501d87d8344a7", "@spider": "oxxo_gas_irl_dpa", "addr:full": "Carrigtwohill , IE T45 KH36", "addr:state": "IE", "addr:postcode": "T45 KH36", "phones": {"Store": [""]}, "email": {"Customer Service": []}, "website": "https://texaco.ie/station-locator", "operatingHours": {"Store": []}, "chain_id": "30670", "chain_name": "OXXO GAS"}, "geometry": {"type": "Point", "coordinates": [-8.2542, 51.91]}},
{"type": "Feature", "id": "qbTO5EL3_eEXmDql3uNJJE7WpHc=", "properties": {"ref": "33898de4653d446fbb79a62c7203788c", "@spider": "oxxo_gas_irl_dpa", "addr:full": "Cork Road Midleton, IE P25 KX78", "addr:city": "Midleton", "addr:state": "IE", "addr:postcode": "P25 KX78", "phones": {"Store": [""]}, "email": {"Customer Service": []}, "website": "https://texaco.ie/station-locator", "operatingHours": {"Store": []}, "chain_id": "30670", "chain_name": "OXXO GAS"}, "geometry": {"type": "Point", "coordinates": [-8.1881, 51.9141]}},
{"type": "Feature", "id": "Sfv6OV7QDIw6bYGlRQVXDBolchI=", "properties": {"ref": "3f168e4bcd3b410492e7980573f4728d", "@spider": "oxxo_gas_irl_dpa", "addr:full": "Bridge Road Listowel, IE V31 KC83", "addr:city": "Listowel", "addr:state": "IE", "addr:postcode": "V31 KC83", "phones": {"Store": [""]}, "email": {"Customer Service": []}, "website": "https://texaco.ie/station-locator", "operatingHours": {"Store": []}, "chain_id": "30670", "chain_name": "OXXO GAS"}, "geometry": {"type": "Point", "coordinates": [-9.4818, 52.4435]}},
{"type": "Feature", "id": "7SO8ymuwcH7hSykn2KGGrqs-f6Q=", "properties": {"ref": "e69c84cf14d94ee18e2ccce4035c3014", "@spider": "oxxo_gas_irl_dpa", "addr:full": "Cork Road Fermoy, IE P61 YD71", "addr:city": "Fermoy", "addr:state": "IE", "addr:postcode": "P61 YD71", "phones": {"Store": [""]}, "email": {"Customer Service": []}, "website": "https://texaco.ie/station-locator", "operatingHours": {"Store": []}, "chain_id": "30670", "chain_name": "OXXO GAS"}, "geometry": {"type": "Point", "coordinates": [-8.279, 52.1303]}},
{"type": "Feature", "id": "R3_N3uOzqtDc_pl0ndw2RMpLjeY=", "properties": {"ref": "f41e339843304c47a183110fd6e29c36", "@spider": "oxxo_gas_irl_dpa", "addr:full": "Churchtown Newcastlewest, IE V42 YH61", "addr:city": "Newcastlewest", "addr:state": "IE", "addr:postcode": "V42 YH61", "phones": {"Store": [""]}, "email": {"Customer Service": []}, "website": "https://texaco.ie/station-locator", "operatingHours": {"Store": []}, "chain_id": "30670", "chain_name": "OXXO GAS"}, "geometry": {"type": "Point", "coordinates": [-9.0657, 52.4577]}},
{"type": "Feature", "id": "praN-uPI39MlgIsGcerfwj2qSx0=", "properties": {"ref": "615cfdc116b6489280d9fefd61519225", "@spider": "oxxo_gas_irl_dpa", "addr:full": "O'Rourkes Cross Bruree, IE V35 YY24", "addr:city": "Bruree", "addr:state": "IE", "addr:postcode": "V35 YY24", "phones": {"Store": [""]}, "email": {"Customer Service": []}, "website": "https://texaco.ie/station-locator", "operatingHours": {"Store": []}, "chain_id": "30670", "chain_name": "OXXO GAS"}, "geometry": {"type": "Point", "coordinates": [-8.6906, 52.4277]}},
{"type": "Feature", "id": "oYO-POA9gDtMUD09yuLYrel4sDg=", "properties": {"ref": "d831e2b8549e41b385126217f5943100", "@spider": "oxxo_gas_irl_dpa", "addr:full": "New Line Rathkeale, IE V94 EDE9", "addr:city": "Rathkeale", "addr:state": "IE", "addr:postcode": "V94 EDE9", "phones": {"Store": [""]}, "email": {"Customer Service": []}, "website": "https://texaco.ie/station-locator", "operatingHours": {"Store": []}, "chain_id": "30670", "chain_name": "OXXO GAS"}, "geometry": {"type": "Point", "coordinates": [-8.9351, 52.5216]}},
{"type": "Feature", "id": "tXj1lSnpuRxQA_nDRTP9wJa8mZc=", "properties": {"ref": "6d0b86adb06a42acbe83e7f86266462d", "@spider": "oxxo_gas_irl_dpa", "addr:full": "Kilmallock , IE V35 KX50", "addr:state": "IE", "addr:postcode": "V35 KX50", "phones": {"Store": [""]}, "email": {"Customer Service": []}, "website": "https://texaco.ie/station-locator", "operatingHours": {"Store": []}, "chain_id": "30670", "chain_name": "OXXO GAS"}, "geometry": {"type": "Point", "coordinates": [-8.5793, 52.407]}},
{"type": "Feature", "id": "uLmi52emxKqL4V_WIx92bJfGoX8=", "properties": {"ref": "e6de229b667e49b0852902a41bd52573", "@spider": "oxxo_gas_irl_dpa", "addr:full": "Connolly's Cross Caherline,  V35", "addr:city": "Caherline", "addr:postcode": "V35", "phones": {"Store": [""]}, "email": {"Customer Service": []}, "website": "https://texaco.ie/station-locator", "operatingHours": {"Store": []}, "chain_id": "30670", "chain_name": "OXXO GAS"}, "geometry": {"type": "Point", "coordinates": [-8.4596, 52.5643]}},
{"type": "Feature", "id": "BPpC2ht3CaZOz44rZAhYWGF4jJQ=", "properties": {"ref": "c0f2d7f356af41f0885ec5729a9ba9e8", "@spider": "oxxo_gas_irl_dpa", "addr:full": "Shannon Town Centre Shannon, IE V14 WF70", "addr:city": "Shannon", "addr:state": "IE", "addr:postcode": "V14 WF70", "phones": {"Store": [""]}, "email": {"Customer Service": []}, "website": "https://texaco.ie/station-locator", "operatingHours": {"Store": []}, "chain_id": "30670", "chain_name": "OXXO GAS"}, "geometry": {"type": "Point", "coordinates": [-8.8775, 52.7099]}},
{"type": "Feature", "id": "g87emYtIja-t_DtP_4zN1C_6ZJM=", "properties": {"ref": "9770afed76284d7eb19d6a0f66ed7a8a", "@spider": "oxxo_gas_irl_dpa", "addr:full": "Roxboro Road R511 Limerick, LI V94 ND3A", "addr:city": "Limerick", "addr:state": "LI", "addr:postcode": "V94 ND3A", "phones": {"Store": [""]}, "email": {"Customer Service": []}, "website": "https://texaco.ie/station-locator", "operatingHours": {"Store": []}, "chain_id": "30670", "chain_name": "OXXO GAS"}, "geometry": {"type": "Point", "coordinates": [-8.6159, 52.6509]}},
{"type": "Feature", "id": "4v2f2fUxcIh39ON6J1hJVq6IY1Y=", "properties": {"ref": "52c24e3378f84fe9a7edbd512a2a3eb5", "@spider": "oxxo_gas_irl_dpa", "addr:full": "DUBLIN ROAD LIMERICK, IE ", "addr:city": "LIMERICK", "addr:state": "IE", "phones": {"Store": [""]}, "email": {"Customer Service": []}, "website": "https://texaco.ie/station-locator", "operatingHours": {"Store": []}, "chain_id": "30670", "chain_name": "OXXO GAS"}, "geometry": {"type": "Point", "coordinates": [-8.5934, 52.663]}},
{"type": "Feature", "id": "TS4xhXfYQHBRAFrR6xK-dG1OZA4=", "properties": {"ref": "79448fc7e8e04ca5baee74e9004ae34b", "@spider": "oxxo_gas_irl_dpa", "addr:full": "Mitchelstown Road Cahir, IE E21 KF60", "addr:city": "Cahir", "addr:state": "IE", "addr:postcode": "E21 KF60", "phones": {"Store": [""]}, "email": {"Customer Service": []}, "website": "https://texaco.ie/station-locator", "operatingHours": {"Store": []}, "chain_id": "30670", "chain_name": "OXXO GAS"}, "geometry": {"type": "Point", "coordinates": [-7.935, 52.3743]}},
{"type": "Feature", "id": "f6lqyZviJg0UpxaN8pdyZ0trQjk=", "properties": {"ref": "feea52fd9aed4608b459944c63cc66a7", "@spider": "oxxo_gas_irl_dpa", "addr:full": "Turagh Cappamore,  V35", "addr:city": "Cappamore", "addr:postcode": "V35", "phones": {"Store": [""]}, "email": {"Customer Service": []}, "website": "https://texaco.ie/station-locator", "operatingHours": {"Store": []}, "chain_id": "30670", "chain_name": "OXXO GAS"}, "geometry": {"type": "Point", "coordinates": [-8.3449, 52.6132]}},
{"type": "Feature", "id": "_zdos1tvMatrSosldY8QdbumEl8=", "properties": {"ref": "76af63d75479473da778bcc7a908dad5", "@spider": "oxxo_gas_irl_dpa", "addr:full": "Lemybrien , IE X42 X343", "addr:state": "IE", "addr:postcode": "X42 X343", "phones": {"Store": [""]}, "email": {"Customer Service": []}, "website": "https://texaco.ie/station-locator", "operatingHours": {"Store": []}, "chain_id": "30670", "chain_name": "OXXO GAS"}, "geometry": {"type": "Point", "coordinates": [-7.5224, 52.1672]}},
{"type": "Feature", "id": "kHYaRkyF8PjLAXs_9REkKhuP2O0=", "properties": {"ref": "27dad7c2461f4421816bca12d61298db", "@spider": "oxxo_gas_irl_dpa", "addr:full": "Ennistymon Road Ennis, IE V95 Y52W", "addr:city": "Ennis", "addr:state": "IE", "addr:postcode": "V95 Y52W", "phones": {"Store": [""]}, "email": {"Customer Service": []}, "website": "https://texaco.ie/station-locator", "operatingHours": {"Store": []}, "chain_id": "30670", "chain_name": "OXXO GAS"}, "geometry": {"type": "Point", "coordinates": [-9.0155, 52.8572]}},
{"type": "Feature", "id": "-Bm22l4fe7AygisSVn71OjxDaNM=", "properties": {"ref": "3d221edd769749809ed5858aab7f6b29", "@spider": "oxxo_gas_irl_dpa", "addr:full": "Jackson's Cross Clonmel, IE E91 H9X2", "addr:city": "Clonmel", "addr:state": "IE", "addr:postcode": "E91 H9X2", "phones": {"Store": [""]}, "email": {"Customer Service": []}, "website": "https://texaco.ie/station-locator", "operatingHours": {"Store": []}, "chain_id": "30670", "chain_name": "OXXO GAS"}, "geometry": {"type": "Point", "coordinates": [-7.7307, 52.3541]}},
{"type": "Feature", "id": "Nn6qMCJlDEmOZgeKP0gUezBLt1A=", "properties": {"ref": "3ab6add95f1e44faa2ee0bb71c61e3cc", "@spider": "oxxo_gas_irl_dpa", "addr:full": "Clonmel , IE E91 W2N7", "addr:state": "IE", "addr:postcode": "E91 W2N7", "phones": {"Store": [""]}, "email": {"Customer Service": []}, "website": "https://texaco.ie/station-locator", "operatingHours": {"Store": []}, "chain_id": "30670", "chain_name": "OXXO GAS"}, "geometry": {"type": "Point", "coordinates": [-7.682, 52.3573]}},
{"type": "Feature", "id": "ne6vA0010IwPpyy2CTxhpF4Vy0k=", "properties": {"ref": "6da4ac71a43e4d94bddc0b006121ddcb", "@spider": "oxxo_gas_irl_dpa", "addr:full": "Dublin Road Cashel, IE E25 CP26", "addr:city": "Cashel", "addr:state": "IE", "addr:postcode": "E25 CP26", "phones": {"Store": [""]}, "email": {"Customer Service": []}, "website": "https://texaco.ie/station-locator", "operatingHours": {"Store": []}, "chain_id": "30670", "chain_name": "OXXO GAS"}, "geometry": {"type": "Point", "coordinates": [-7.8868, 52.5206]}},
{"type": "Feature", "id": "CUNzzGNA6gEf2bn8d2ZP_5dzGWM=", "properties": {"ref": "38ab3d2f9c2548be8b8ee6fe47e05973", "@spider": "oxxo_gas_irl_dpa", "addr:full": "John Street Carrick-on-Suir, IE E32 XN59", "addr:city": "Carrick-on-Suir", "addr:state": "IE", "addr:postcode": "E32 XN59", "phones": {"Store": [""]}, "email": {"Customer Service": []}, "website": "https://texaco.ie/station-locator", "operatingHours": {"Store": []}, "chain_id": "30670", "chain_name": "OXXO GAS"}, "geometry": {"type": "Point", "coordinates": [-7.414, 52.3489]}},
{"type": "Feature", "id": "AC_F3IiN49WqruBrdPttF8RyvTI=", "properties": {"ref": "b3d0f149f4ad4cdda5851e4642993358", "@spider": "oxxo_gas_irl_dpa", "addr:full": "Cork Road Waterford, IE X91 AKV7", "addr:city": "Waterford", "addr:state": "IE", "addr:postcode": "X91 AKV7", "phones": {"Store": [""]}, "email": {"Customer Service": []}, "website": "https://texaco.ie/station-locator", "operatingHours": {"Store": []}, "chain_id": "30670", "chain_name": "OXXO GAS"}, "geometry": {"type": "Point", "coordinates": [-7.1558, 52.2429]}},
{"type": "Feature", "id": "fIGeHpEGe8aex14FO9kfcuvcbjA=", "properties": {"ref": "af9cc989e7564c0b8094d84049b2ab36", "@spider": "oxxo_gas_irl_dpa", "addr:full": "DUBLIN ROAD NENAGH, IE ", "addr:city": "NENAGH", "addr:state": "IE", "phones": {"Store": [""]}, "email": {"Customer Service": []}, "website": "https://texaco.ie/station-locator", "operatingHours": {"Store": []}, "chain_id": "30670", "chain_name": "OXXO GAS"}, "geometry": {"type": "Point", "coordinates": [-8.0377, 52.8493]}},
{"type": "Feature", "id": "aGQO-hdwwnKVGj4OTAh78tKXPdI=", "properties": {"ref": "0906492adb83492c8ef97c364a864c40", "@spider": "oxxo_gas_irl_dpa", "addr:full": "Ferrybank , IE X91 HTW5", "addr:state": "IE", "addr:postcode": "X91 HTW5", "phones": {"Store": [""]}, "email": {"Customer Service": []}, "website": "https://texaco.ie/station-locator", "operatingHours": {"Store": []}, "chain_id": "30670", "chain_name": "OXXO GAS"}, "geometry": {"type": "Point", "coordinates": [-7.1088, 52.2653]}},
{"type": "Feature", "id": "fcddD8rmZ4P-vwtUcFwvBdbDn4s=", "properties": {"ref": "6006c74da04e43d7be75840ab623f1d2", "@spider": "oxxo_gas_irl_dpa", "addr:full": "West Street Callan, KK R95 FK68", "addr:city": "Callan", "addr:state": "KK", "addr:postcode": "R95 FK68", "phones": {"Store": [""]}, "email": {"Customer Service": []}, "website": "https://texaco.ie/station-locator", "operatingHours": {"Store": []}, "chain_id": "30670", "chain_name": "OXXO GAS"}, "geometry": {"type": "Point", "coordinates": [-7.3919, 52.545]}},
{"type": "Feature", "id": "Xsgv_Jk1k2tp4dIoY4_eXbd9HM0=", "properties": {"ref": "23b2eac09b354ab4905fce6b65e85812", "@spider": "oxxo_gas_irl_dpa", "addr:full": "Park Spiddal, IE H91 HR5P", "addr:city": "Spiddal", "addr:state": "IE", "addr:postcode": "H91 HR5P", "phones": {"Store": [""]}, "email": {"Customer Service": []}, "website": "https://texaco.ie/station-locator", "operatingHours": {"Store": []}, "chain_id": "30670", "chain_name": "OXXO GAS"}, "geometry": {"type": "Point", "coordinates": [-9.3021, 53.2441]}},
{"type": "Feature", "id": "krk6-jt7aPvQ9isr3RbPNosp8mc=", "properties": {"ref": "719e13cd5ef34519bee248d12ac51660", "@spider": "oxxo_gas_irl_dpa", "addr:full": "Costello , IE H91 XRC3", "addr:state": "IE", "addr:postcode": "H91 XRC3", "phones": {"Store": [""]}, "email": {"Customer Service": []}, "website": "https://texaco.ie/station-locator", "operatingHours": {"Store": []}, "chain_id": "30670", "chain_name": "OXXO GAS"}, "geometry": {"type": "Point", "coordinates": [-9.5538, 53.2887]}},
{"type": "Feature", "id": "o2b5MjUc3Xk6HsQvvfirXdR12ZM=", "properties": {"ref": "574cbbcad1c64ce098f11d46c40cc89d", "@spider": "oxxo_gas_irl_dpa", "addr:full": "Barna Road Barna, IE H91 FYY4", "addr:city": "Barna", "addr:state": "IE", "addr:postcode": "H91 FYY4", "phones": {"Store": [""]}, "email": {"Customer Service": []}, "website": "https://texaco.ie/station-locator", "operatingHours": {"Store": []}, "chain_id": "30670", "chain_name": "OXXO GAS"}, "geometry": {"type": "Point", "coordinates": [-9.1294, 53.2591]}},
{"type": "Feature", "id": "JigcqHDxhkQr_s4lewvlzgt1vAQ=", "properties": {"ref": "d55b256abbe14be2ab95e24851f3681a", "@spider": "oxxo_gas_irl_dpa", "addr:full": "101 Lower Salthill Galway, IE H91 CP3X", "addr:city": "Galway", "addr:state": "IE", "addr:postcode": "H91 CP3X", "phones": {"Store": [""]}, "email": {"Customer Service": []}, "website": "https://texaco.ie/station-locator", "operatingHours": {"Store": []}, "chain_id": "30670", "chain_name": "OXXO GAS"}, "geometry": {"type": "Point", "coordinates": [-9.0718, 53.2632]}},
{"type": "Feature", "id": "gcbGxflM9PB7vsP_Eh5wQp-MISw=", "properties": {"ref": "fe1d6cbc630f450eabdd7f1a047c6c21", "@spider": "oxxo_gas_irl_dpa", "addr:full": "Lough Atalia Road Galway, IE H91 KN7F", "addr:city": "Galway", "addr:state": "IE", "addr:postcode": "H91 KN7F", "phones": {"Store": [""]}, "email": {"Customer Service": []}, "website": "https://texaco.ie/station-locator", "operatingHours": {"Store": []}, "chain_id": "30670", "chain_name": "OXXO GAS"}, "geometry": {"type": "Point", "coordinates": [-9.0452, 53.2713]}},
{"type": "Feature", "id": "7jCinA12dMgo5nAnoROLZPw9Nl4=", "properties": {"ref": "2943fb50a0c8445087fea02fdbf2ac68", "@spider": "oxxo_gas_irl_dpa", "addr:full": "Ladywell Thomastown, IE R95 HNP3", "addr:city": "Thomastown", "addr:state": "IE", "addr:postcode": "R95 HNP3", "phones": {"Store": [""]}, "email": {"Customer Service": []}, "website": "https://texaco.ie/station-locator", "operatingHours": {"Store": []}, "chain_id": "30670", "chain_name": "OXXO GAS"}, "geometry": {"type": "Point", "coordinates": [-7.1421, 52.5293]}},
{"type": "Feature", "id": "olFsfnQ2mJMWIvhuRBOqanCY5QQ=", "properties": {"ref": "b7b2ea15f8b346be9c9929f273678966", "@spider": "oxxo_gas_irl_dpa", "addr:full": "Oranmore , IE H91 D8KC", "addr:state": "IE", "addr:postcode": "H91 D8KC", "phones": {"Store": [""]}, "email": {"Customer Service": []}, "website": "https://texaco.ie/station-locator", "operatingHours": {"Store": []}, "chain_id": "30670", "chain_name": "OXXO GAS"}, "geometry": {"type": "Point", "coordinates": [-8.9298, 53.2679]}},
{"type": "Feature", "id": "DCtJRRIICcVXS7Lxfq7lV2OabJQ=", "properties": {"ref": "02ed74515b674a6dba0106cba3c0e435", "@spider": "oxxo_gas_irl_dpa", "addr:full": "College Road Kilkenny, KK R95 X2NF", "addr:city": "Kilkenny", "addr:state": "KK", "addr:postcode": "R95 X2NF", "phones": {"Store": [""]}, "email": {"Customer Service": []}, "website": "https://texaco.ie/station-locator", "operatingHours": {"Store": []}, "chain_id": "30670", "chain_name": "OXXO GAS"}, "geometry": {"type": "Point", "coordinates": [-7.2588, 52.6449]}},
{"type": "Feature", "id": "02swXS7Tfc4E1hkv99eBcYS3Vk4=", "properties": {"ref": "f84ae4f6e7c047d1bed3e2dd97a6a5b9", "@spider": "oxxo_gas_irl_dpa", "addr:full": "Birr Road Roscrea, IE E53 XA43", "addr:city": "Roscrea", "addr:state": "IE", "addr:postcode": "E53 XA43", "phones": {"Store": [""]}, "email": {"Customer Service": []}, "website": "https://texaco.ie/station-locator", "operatingHours": {"Store": []}, "chain_id": "30670", "chain_name": "OXXO GAS"}, "geometry": {"type": "Point", "coordinates": [-7.802, 52.9584]}},
{"type": "Feature", "id": "a6nR8KeDWmX2fDPfEXRCUh5X_9s=", "properties": {"ref": "85ab13c66b6348108ae6846dcf3720b8", "@spider": "oxxo_gas_irl_dpa", "addr:full": "Freshford Road Kilkenny, IE R95 A32Y", "addr:city": "Kilkenny", "addr:state": "IE", "addr:postcode": "R95 A32Y", "phones": {"Store": [""]}, "email": {"Customer Service": []}, "website": "https://texaco.ie/station-locator", "operatingHours": {"Store": []}, "chain_id": "30670", "chain_name": "OXXO GAS"}, "geometry": {"type": "Point", "coordinates": [-7.2701, 52.6738]}},
{"type": "Feature", "id": "gqnlkxrWnJL3F-gX3eBTkBcJtWo=", "properties": {"ref": "6a9c58cdab7d489398d33f0e3465d55b", "@spider": "oxxo_gas_irl_dpa", "addr:full": "Junction 16, M6 Motorway Kiltullagh, IE H65 EK28", "addr:city": "Kiltullagh", "addr:state": "IE", "addr:postcode": "H65 EK28", "phones": {"Store": [""]}, "email": {"Customer Service": []}, "website": "https://texaco.ie/station-locator", "operatingHours": {"Store": []}, "chain_id": "30670", "chain_name": "OXXO GAS"}, "geometry": {"type": "Point", "coordinates": [-8.6085, 53.2643]}},
{"type": "Feature", "id": "vfDJr5Ca02mHtPMaMqJtYoYIP6s=", "properties": {"ref": "e40b9ad0e0c94507a8825fbde321b598", "@spider": "oxxo_gas_irl_dpa", "addr:full": "Durrow , IE R32 AYW0", "addr:state": "IE", "addr:postcode": "R32 AYW0", "phones": {"Store": [""]}, "email": {"Customer Service": []}, "website": "https://texaco.ie/station-locator", "operatingHours": {"Store": []}, "chain_id": "30670", "chain_name": "OXXO GAS"}, "geometry": {"type": "Point", "coordinates": [-7.4003, 52.8421]}},
{"type": "Feature", "id": "p9rWsXpHLcgWMjHGIry0TmZCox8=", "properties": {"ref": "bba7955d4c9e4b8f9d13065b752d08d2", "@spider": "oxxo_gas_irl_dpa", "addr:full": "Clonboo Corrandulla, IE H91 AWV8", "addr:city": "Corrandulla", "addr:state": "IE", "addr:postcode": "H91 AWV8", "phones": {"Store": [""]}, "email": {"Customer Service": []}, "website": "https://texaco.ie/station-locator", "operatingHours": {"Store": []}, "chain_id": "30670", "chain_name": "OXXO GAS"}, "geometry": {"type": "Point", "coordinates": [-9.0165, 53.3743]}},
{"type": "Feature", "id": "W9OLsmvKM41kohFcyyHOv6czWXg=", "properties": {"ref": "f5707821f1e14d8188e2209b4c610e93", "@spider": "oxxo_gas_irl_dpa", "addr:full": "Kilkenny Road Castlecomer, IE R95PVF3", "addr:city": "Castlecomer", "addr:state": "IE", "addr:postcode": "R95PVF3", "phones": {"Store": [""]}, "email": {"Customer Service": []}, "website": "https://texaco.ie/station-locator", "operatingHours": {"Store": []}, "chain_id": "30670", "chain_name": "OXXO GAS"}, "geometry": {"type": "Point", "coordinates": [-7.2101, 52.7999]}},
{"type": "Feature", "id": "GZezlu_-8Two1EhWQSNbP0ewKLU=", "properties": {"ref": "54bbf8effe9d489ca6c49f843542d994", "@spider": "oxxo_gas_irl_dpa", "addr:full": "Abbeyknockmoy Tuam, IE H54D577", "addr:city": "Tuam", "addr:state": "IE", "addr:postcode": "H54D577", "phones": {"Store": [""]}, "email": {"Customer Service": []}, "website": "https://texaco.ie/station-locator", "operatingHours": {"Store": []}, "chain_id": "30670", "chain_name": "OXXO GAS"}, "geometry": {"type": "Point", "coordinates": [-8.7498, 53.4373]}},
{"type": "Feature", "id": "9VDmjz77SAXJgYdPB3O67Py_Nf8=", "properties": {"ref": "0e90e6c83b524c1c82a33a53cac60527", "@spider": "oxxo_gas_irl_dpa", "addr:full": "Newtown Road Wexford, IE Y35 CRX7", "addr:city": "Wexford", "addr:state": "IE", "addr:postcode": "Y35 CRX7", "phones": {"Store": [""]}, "email": {"Customer Service": []}, "website": "https://texaco.ie/station-locator", "operatingHours": {"Store": []}, "chain_id": "30670", "chain_name": "OXXO GAS"}, "geometry": {"type": "Point", "coordinates": [-6.4863, 52.3425]}},
{"type": "Feature", "id": "pUNzL4j4zZlQQ-mybNBEIHLqSiI=", "properties": {"ref": "9d5f626326a24b2fbc29a0a7d9b36bb5", "@spider": "oxxo_gas_irl_dpa", "addr:full": "M7 Motorway Portlaoise, LS tbc", "addr:city": "Portlaoise", "addr:state": "LS", "addr:postcode": "tbc", "phones": {"Store": [""]}, "email": {"Customer Service": []}, "website": "https://texaco.ie/station-locator", "operatingHours": {"Store": []}, "chain_id": "30670", "chain_name": "OXXO GAS"}, "geometry": {"type": "Point", "coordinates": [-7.3076, 53.0148]}},
{"type": "Feature", "id": "Bqq1G75KU9jB7QPkpRcvrrQIqjk=", "properties": {"ref": "79c0c82a8f2d492c8240a853aaf760c3", "@spider": "oxxo_gas_irl_dpa", "addr:full": "Clonaslee , IE R32 V6YK", "addr:state": "IE", "addr:postcode": "R32 V6YK", "phones": {"Store": [""]}, "email": {"Customer Service": []}, "website": "https://texaco.ie/station-locator", "operatingHours": {"Store": []}, "chain_id": "30670", "chain_name": "OXXO GAS"}, "geometry": {"type": "Point", "coordinates": [-7.5556, 53.1524]}},
{"type": "Feature", "id": "Pa2CeDkaIPa7SGKL94kCspy-odE=", "properties": {"ref": "5ad48ec079cd4bf693103ba70d7d7ab5", "@spider": "oxxo_gas_irl_dpa", "addr:full": "Rosslare Harbour Rosslare, WX Y35 REH3", "addr:city": "Rosslare", "addr:state": "WX", "addr:postcode": "Y35 REH3", "phones": {"Store": [""]}, "email": {"Customer Service": []}, "website": "https://texaco.ie/station-locator", "operatingHours": {"Store": []}, "chain_id": "30670", "chain_name": "OXXO GAS"}, "geometry": {"type": "Point", "coordinates": [-6.3426, 52.2509]}},
{"type": "Feature", "id": "YhQQpP6ZMNuGsd2WnHgBZ8N4cfs=", "properties": {"ref": "f246d2fa8a434334a40f9670e8e1f13f", "@spider": "oxxo_gas_irl_dpa", "addr:full": "Athlone Road Ferbane, IE R42 Y671", "addr:city": "Ferbane", "addr:state": "IE", "addr:postcode": "R42 Y671", "phones": {"Store": [""]}, "email": {"Customer Service": []}, "website": "https://texaco.ie/station-locator", "operatingHours": {"Store": []}, "chain_id": "30670", "chain_name": "OXXO GAS"}, "geometry": {"type": "Point", "coordinates": [-7.8273, 53.2736]}},
{"type": "Feature", "id": "6wl681-_t_rQtsi9cGfrPTa5dfs=", "properties": {"ref": "f61b3dd82e774ab3a83b274d0c1a8857", "@spider": "oxxo_gas_irl_dpa", "addr:full": "Tuam Road Mountbellew, GL H53 D3C9", "addr:city": "Mountbellew", "addr:state": "GL", "addr:postcode": "H53 D3C9", "phones": {"Store": [""]}, "email": {"Customer Service": []}, "website": "https://texaco.ie/station-locator", "operatingHours": {"Store": []}, "chain_id": "30670", "chain_name": "OXXO GAS"}, "geometry": {"type": "Point", "coordinates": [-8.5179, 53.4742]}},
{"type": "Feature", "id": "S5ArLELskBWGjhTrjuqtG00XtGk=", "properties": {"ref": "9f51bac740334d6aa3afeb39471e6e9e", "@spider": "oxxo_gas_irl_dpa", "addr:full": "Dublin Road Portlaoise, IE R32 HX3X", "addr:city": "Portlaoise", "addr:state": "IE", "addr:postcode": "R32 HX3X", "phones": {"Store": [""]}, "email": {"Customer Service": []}, "website": "https://texaco.ie/station-locator", "operatingHours": {"Store": []}, "chain_id": "30670", "chain_name": "OXXO GAS"}, "geometry": {"type": "Point", "coordinates": [-7.2677, 53.0414]}},
{"type": "Feature", "id": "V-i6_-DYQGApWRETQ8_zCPe4FEk=", "properties": {"ref": "86c60643d2994f9da5f095e90ad842e6", "@spider": "oxxo_gas_irl_dpa", "addr:full": "Ballon Carlow, IE R93N2P7", "addr:city": "Carlow", "addr:state": "IE", "addr:postcode": "R93N2P7", "phones": {"Store": [""]}, "email": {"Customer Service": []}, "website": "https://texaco.ie/station-locator", "operatingHours": {"Store": []}, "chain_id": "30670", "chain_name": "OXXO GAS"}, "geometry": {"type": "Point", "coordinates": [-6.7716, 52.7424]}},
{"type": "Feature", "id": "qcN8PiAw11m9RCV3sjheEMKMth4=", "properties": {"ref": "dea420eab67c44b899aa1506225e235f", "@spider": "oxxo_gas_irl_dpa", "addr:full": "Ryland Bunclody, IE Y21 N5N8", "addr:city": "Bunclody", "addr:state": "IE", "addr:postcode": "Y21 N5N8", "phones": {"Store": [""]}, "email": {"Customer Service": []}, "website": "https://texaco.ie/station-locator", "operatingHours": {"Store": []}, "chain_id": "30670", "chain_name": "OXXO GAS"}, "geometry": {"type": "Point", "coordinates": [-6.6484, 52.651]}},
{"type": "Feature", "id": "vZpY9VpZcFzqODwTMD20RPFstZs=", "properties": {"ref": "22a4bf3912cd46fb8139327ed8728960", "@spider": "oxxo_gas_irl_dpa", "addr:full": "Pallas Tullamore, IE R35 C9P5", "addr:city": "Tullamore", "addr:state": "IE", "addr:postcode": "R35 C9P5", "phones": {"Store": [""]}, "email": {"Customer Service": []}, "website": "https://texaco.ie/station-locator", "operatingHours": {"Store": []}, "chain_id": "30670", "chain_name": "OXXO GAS"}, "geometry": {"type": "Point", "coordinates": [-7.6138, 53.2287]}},
{"type": "Feature", "id": "cBuvmadPz9-9Uwc8iGCA_DjrWas=", "properties": {"ref": "66e5af4b4b9c4025af31165d3d91025e", "@spider": "oxxo_gas_irl_dpa", "addr:full": "Dublin Road Athy, IE R14 E006", "addr:city": "Athy", "addr:state": "IE", "addr:postcode": "R14 E006", "phones": {"Store": [""]}, "email": {"Customer Service": []}, "website": "https://texaco.ie/station-locator", "operatingHours": {"Store": []}, "chain_id": "30670", "chain_name": "OXXO GAS"}, "geometry": {"type": "Point", "coordinates": [-6.5765, 52.5976]}},
{"type": "Feature", "id": "WogAA1RlJaTka2G_DLYcfEkt0yc=", "properties": {"ref": "d66bf1cdc33f43a790c1577647bf0057", "@spider": "oxxo_gas_irl_dpa", "addr:full": "Tullamore Road Mountmellick, LS R32 W86Y", "addr:city": "Mountmellick", "addr:state": "LS", "addr:postcode": "R32 W86Y", "phones": {"Store": [""]}, "email": {"Customer Service": []}, "website": "https://texaco.ie/station-locator", "operatingHours": {"Store": []}, "chain_id": "30670", "chain_name": "OXXO GAS"}, "geometry": {"type": "Point", "coordinates": [-7.3325, 53.1235]}},
{"type": "Feature", "id": "cc4hp4SuJsFbZNqDmg04c-YiBy8=", "properties": {"ref": "0f99fb35fc884c2f9a462f3959adbf0f", "@spider": "oxxo_gas_irl_dpa", "addr:full": "Bealnamulla Athlone, IE N37 E9K4", "addr:city": "Athlone", "addr:state": "IE", "addr:postcode": "N37 E9K4", "phones": {"Store": [""]}, "email": {"Customer Service": []}, "website": "https://texaco.ie/station-locator", "operatingHours": {"Store": []}, "chain_id": "30670", "chain_name": "OXXO GAS"}, "geometry": {"type": "Point", "coordinates": [-8.0205, 53.4271]}},
{"type": "Feature", "id": "0Tdgd8uRgAYqvkX2VD41R_SuyZA=", "properties": {"ref": "c8e841c37d134fc2b4beb1626d6d3ffd", "@spider": "oxxo_gas_irl_dpa", "addr:full": "Dublin Road Tullow, CW R93 A2F2", "addr:city": "Tullow", "addr:state": "CW", "addr:postcode": "R93 A2F2", "phones": {"Store": [""]}, "email": {"Customer Service": []}, "website": "https://texaco.ie/station-locator", "operatingHours": {"Store": []}, "chain_id": "30670", "chain_name": "OXXO GAS"}, "geometry": {"type": "Point", "coordinates": [-6.7333, 52.8043]}},
{"type": "Feature", "id": "ue6E8CsuHoh3UvNo3dn4Aop_9AU=", "properties": {"ref": "02c803723d1a4caba33f6704e85604b4", "@spider": "oxxo_gas_irl_dpa", "addr:full": "Baylough Athlone, IE N37 W0C8", "addr:city": "Athlone", "addr:state": "IE", "addr:postcode": "N37 W0C8", "phones": {"Store": [""]}, "email": {"Customer Service": []}, "website": "https://texaco.ie/station-locator", "operatingHours": {"Store": []}, "chain_id": "30670", "chain_name": "OXXO GAS"}, "geometry": {"type": "Point", "coordinates": [-7.963, 53.4244]}},
{"type": "Feature", "id": "S_ix8W65jC2RBh1qdCl4kQGVfdM=", "properties": {"ref": "c755f4526a1846b4aba47b05f5e9880d", "@spider": "oxxo_gas_irl_dpa", "addr:full": "Dublin Road Athlone, IE N37 E5C8", "addr:city": "Athlone", "addr:state": "IE", "addr:postcode": "N37 E5C8", "phones": {"Store": [""]}, "email": {"Customer Service": []}, "website": "https://texaco.ie/station-locator", "operatingHours": {"Store": []}, "chain_id": "30670", "chain_name": "OXXO GAS"}, "geometry": {"type": "Point", "coordinates": [-7.893, 53.411]}},
{"type": "Feature", "id": "Q8Xrv3QbJuuS6OY70XqSThCYwSs=", "properties": {"ref": "c018241ceacc48c8b9a254f04af7a4da", "@spider": "oxxo_gas_irl_dpa", "addr:full": "Ballymahon Road Athlone, WS 0", "addr:city": "Athlone", "addr:state": "WS", "addr:postcode": "0", "phones": {"Store": [""]}, "email": {"Customer Service": []}, "website": "https://texaco.ie/station-locator", "operatingHours": {"Store": []}, "chain_id": "30670", "chain_name": "OXXO GAS"}, "geometry": {"type": "Point", "coordinates": [-7.9149, 53.4337]}},
{"type": "Feature", "id": "bmy26eTZsE4DK5dxWyVc1jqJ_HQ=", "properties": {"ref": "7ba5c5fe3afd4c629c181fd2dda18251", "@spider": "oxxo_gas_irl_dpa", "addr:full": "Main Street Ballindine, IE F12 P8H1", "addr:city": "Ballindine", "addr:state": "IE", "addr:postcode": "F12 P8H1", "phones": {"Store": [""]}, "email": {"Customer Service": []}, "website": "https://texaco.ie/station-locator", "operatingHours": {"Store": []}, "chain_id": "30670", "chain_name": "OXXO GAS"}, "geometry": {"type": "Point", "coordinates": [-8.9558, 53.6677]}},
{"type": "Feature", "id": "KBmtUDoT1psVCemZ3HupXYQ516g=", "properties": {"ref": "8911cd605606421fa8c4e3e7bc42d2d4", "@spider": "oxxo_gas_irl_dpa", "addr:full": "Portarlington Road Tullamore, OF R35 F9C9", "addr:city": "Tullamore", "addr:state": "OF", "addr:postcode": "R35 F9C9", "phones": {"Store": [""]}, "email": {"Customer Service": []}, "website": "https://texaco.ie/station-locator", "operatingHours": {"Store": []}, "chain_id": "30670", "chain_name": "OXXO GAS"}, "geometry": {"type": "Point", "coordinates": [-7.4633, 53.2666]}},
{"type": "Feature", "id": "9FszYYCyaXVm6E3EuuXrm6k3oMo=", "properties": {"ref": "df3a624767aa4dfa9d07f285f7982e4b", "@spider": "oxxo_gas_irl_dpa", "addr:full": "Main Street Camolin,  Y21 Y1X4", "addr:city": "Camolin", "addr:postcode": "Y21 Y1X4", "phones": {"Store": [""]}, "email": {"Customer Service": []}, "website": "https://texaco.ie/station-locator", "operatingHours": {"Store": []}, "chain_id": "30670", "chain_name": "OXXO GAS"}, "geometry": {"type": "Point", "coordinates": [-6.4197, 52.6191]}},
{"type": "Feature", "id": "DbPNL27tnwVVwsBPlOZ4OI4OFU4=", "properties": {"ref": "8605f94ab7f44be5a8f322fd78d35906", "@spider": "oxxo_gas_irl_dpa", "addr:full": "Lower Main Street Carnew, WK Y14 DW95", "addr:city": "Carnew", "addr:state": "WK", "addr:postcode": "Y14 DW95", "phones": {"Store": [""]}, "email": {"Customer Service": []}, "website": "https://texaco.ie/station-locator", "operatingHours": {"Store": []}, "chain_id": "30670", "chain_name": "OXXO GAS"}, "geometry": {"type": "Point", "coordinates": [-6.5054, 52.7121]}},
{"type": "Feature", "id": "6-tdhw3zQ5bg6N93sHgpLifK4V0=", "properties": {"ref": "18f4f178201e40d7970d2bdf977bd881", "@spider": "oxxo_gas_irl_dpa", "addr:full": "Roscommon Road Athleague, IE F42 EN82", "addr:city": "Athleague", "addr:state": "IE", "addr:postcode": "F42 EN82", "phones": {"Store": [""]}, "email": {"Customer Service": []}, "website": "https://texaco.ie/station-locator", "operatingHours": {"Store": []}, "chain_id": "30670", "chain_name": "OXXO GAS"}, "geometry": {"type": "Point", "coordinates": [-8.2516, 53.569]}},
{"type": "Feature", "id": "RyJMG06qw0h8RTeJfw5BB08GhnM=", "properties": {"ref": "bee7b3e675204a9cae35de7a827c1868", "@spider": "oxxo_gas_irl_dpa", "addr:full": "Kildare Road Monasterevin, IE W34 HW66", "addr:city": "Monasterevin", "addr:state": "IE", "addr:postcode": "W34 HW66", "phones": {"Store": [""]}, "email": {"Customer Service": []}, "website": "https://texaco.ie/station-locator", "operatingHours": {"Store": []}, "chain_id": "30670", "chain_name": "OXXO GAS"}, "geometry": {"type": "Point", "coordinates": [-7.0531, 53.1376]}},
{"type": "Feature", "id": "O87Bqvzl4oxV0rP0OBxR7Au0IYY=", "properties": {"ref": "3331a702e8b94e7493d9d562f9e52351", "@spider": "oxxo_gas_irl_dpa", "addr:full": "Mayfield Monasterevin, IE W34 E789", "addr:city": "Monasterevin", "addr:state": "IE", "addr:postcode": "W34 E789", "phones": {"Store": [""]}, "email": {"Customer Service": []}, "website": "https://texaco.ie/station-locator", "operatingHours": {"Store": []}, "chain_id": "30670", "chain_name": "OXXO GAS"}, "geometry": {"type": "Point", "coordinates": [-7.0145, 53.1453]}},
{"type": "Feature", "id": "Gdr7KCiXak2Si0EDTz8EkRWhAGc=", "properties": {"ref": "924e21d8bf2d4cf4b172f937990a256e", "@spider": "oxxo_gas_irl_dpa", "addr:full": "Ballytore Athy, IE R14 P656", "addr:city": "Athy", "addr:state": "IE", "addr:postcode": "R14 P656", "phones": {"Store": [""]}, "email": {"Customer Service": []}, "website": "https://texaco.ie/station-locator", "operatingHours": {"Store": []}, "chain_id": "30670", "chain_name": "OXXO GAS"}, "geometry": {"type": "Point", "coordinates": [-6.8014, 53.0184]}},
{"type": "Feature", "id": "CGONBGIo-QT1E0zS32psmXV2Gv0=", "properties": {"ref": "695eee499d094cfdab3eb251d0d9800f", "@spider": "oxxo_gas_irl_dpa", "addr:full": "Castlebar Road Westport, IE F28 C3C6", "addr:city": "Westport", "addr:state": "IE", "addr:postcode": "F28 C3C6", "phones": {"Store": [""]}, "email": {"Customer Service": []}, "website": "https://texaco.ie/station-locator", "operatingHours": {"Store": []}, "chain_id": "30670", "chain_name": "OXXO GAS"}, "geometry": {"type": "Point", "coordinates": [-9.4736, 53.8034]}},
{"type": "Feature", "id": "urkgsa1LNQnHGbxOboz7JIgCLrU=", "properties": {"ref": "3bcb7018fdc94e29bb17ecee89c6c6c6", "@spider": "oxxo_gas_irl_dpa", "addr:full": "Lower Castle Street Roscommon, IE F42 CD63", "addr:city": "Roscommon", "addr:state": "IE", "addr:postcode": "F42 CD63", "phones": {"Store": [""]}, "email": {"Customer Service": []}, "website": "https://texaco.ie/station-locator", "operatingHours": {"Store": []}, "chain_id": "30670", "chain_name": "OXXO GAS"}, "geometry": {"type": "Point", "coordinates": [-8.1911, 53.6367]}},
{"type": "Feature", "id": "tB3ZqgUMl3pup6hBJ9mtBdDhy2s=", "properties": {"ref": "c6cb0a99920449438543a98e446d3cc4", "@spider": "oxxo_gas_irl_dpa", "addr:full": "Turlough Road Castlebar, MY TBC", "addr:city": "Castlebar", "addr:state": "MY", "addr:postcode": "TBC", "phones": {"Store": [""]}, "email": {"Customer Service": []}, "website": "https://texaco.ie/station-locator", "operatingHours": {"Store": []}, "chain_id": "30670", "chain_name": "OXXO GAS"}, "geometry": {"type": "Point", "coordinates": [-9.2962, 53.8631]}},
{"type": "Feature", "id": "EbhPFq_1UQ6UEox-j634msQm6rU=", "properties": {"ref": "8edd12beab9c48c0b68f831effcaecd6", "@spider": "oxxo_gas_irl_dpa", "addr:full": "Dublin Road Edenderry, IE R45 Y956", "addr:city": "Edenderry", "addr:state": "IE", "addr:postcode": "R45 Y956", "phones": {"Store": [""]}, "email": {"Customer Service": []}, "website": "https://texaco.ie/station-locator", "operatingHours": {"Store": []}, "chain_id": "30670", "chain_name": "OXXO GAS"}, "geometry": {"type": "Point", "coordinates": [-7.0448, 53.3441]}},
{"type": "Feature", "id": "orCRSv4iE3l538l4pwCmeaEGm4E=", "properties": {"ref": "dd1d3ce47f0c43ec870992ccae8d8871", "@spider": "oxxo_gas_irl_dpa", "addr:full": "Allenwood Cross Allenwood, IE W91 RHC5", "addr:city": "Allenwood", "addr:state": "IE", "addr:postcode": "W91 RHC5", "phones": {"Store": [""]}, "email": {"Customer Service": []}, "website": "https://texaco.ie/station-locator", "operatingHours": {"Store": []}, "chain_id": "30670", "chain_name": "OXXO GAS"}, "geometry": {"type": "Point", "coordinates": [-6.8603, 53.2838]}},
{"type": "Feature", "id": "q0Ak-zh2Cq6f883PpMAxBN5Zhag=", "properties": {"ref": "ab47b6244cb244199d7b4c4bb2b8539a", "@spider": "oxxo_gas_irl_dpa", "addr:full": "Patrick Street Mullingar, WS N91 X07E", "addr:city": "Mullingar", "addr:state": "WS", "addr:postcode": "N91 X07E", "phones": {"Store": [""]}, "email": {"Customer Service": []}, "website": "https://texaco.ie/station-locator", "operatingHours": {"Store": []}, "chain_id": "30670", "chain_name": "OXXO GAS"}, "geometry": {"type": "Point", "coordinates": [-7.3576, 53.5219]}},
{"type": "Feature", "id": "s6fh738iv5o314C4c1hp9W3KbGg=", "properties": {"ref": "941d4050fbea48429a55d84779555a82", "@spider": "oxxo_gas_irl_dpa", "addr:full": "Strokestown , IE F42 Y294", "addr:state": "IE", "addr:postcode": "F42 Y294", "phones": {"Store": [""]}, "email": {"Customer Service": []}, "website": "https://texaco.ie/station-locator", "operatingHours": {"Store": []}, "chain_id": "30670", "chain_name": "OXXO GAS"}, "geometry": {"type": "Point", "coordinates": [-8.1031, 53.7741]}},
{"type": "Feature", "id": "gVhEUq6NkKuWhCvYzVZY0l4_UPc=", "properties": {"ref": "7f0a88ccb4ff4aee9db07c015191cfb0", "@spider": "oxxo_gas_irl_dpa", "addr:full": "Robinstown Mullingar, IE N91 KV6P", "addr:city": "Mullingar", "addr:state": "IE", "addr:postcode": "N91 KV6P", "phones": {"Store": [""]}, "email": {"Customer Service": []}, "website": "https://texaco.ie/station-locator", "operatingHours": {"Store": []}, "chain_id": "30670", "chain_name": "OXXO GAS"}, "geometry": {"type": "Point", "coordinates": [-7.3428, 53.5402]}},
{"type": "Feature", "id": "f-aJXvcr3iVoLDvVK4KD4ZK4cK4=", "properties": {"ref": "08375640a77a483d92fda6677153d2ad", "@spider": "oxxo_gas_irl_dpa", "addr:full": "Dublin Road Termonbarry, IE N39 N5D2", "addr:city": "Termonbarry", "addr:state": "IE", "addr:postcode": "N39 N5D2", "phones": {"Store": [""]}, "email": {"Customer Service": []}, "website": "https://texaco.ie/station-locator", "operatingHours": {"Store": []}, "chain_id": "30670", "chain_name": "OXXO GAS"}, "geometry": {"type": "Point", "coordinates": [-7.9214, 53.7429]}},
{"type": "Feature", "id": "KhjMWWUYzXhQfD7zwyJBjUPP0aw=", "properties": {"ref": "349b6e8135224a939b734f2a3629a974", "@spider": "oxxo_gas_irl_dpa", "addr:full": "JUNCTION 11 KINNEGAD, IE ", "addr:city": "KINNEGAD", "addr:state": "IE", "phones": {"Store": [""]}, "email": {"Customer Service": []}, "website": "https://texaco.ie/station-locator", "operatingHours": {"Store": []}, "chain_id": "30670", "chain_name": "OXXO GAS"}, "geometry": {"type": "Point", "coordinates": [-7.1074, 53.4522]}},
{"type": "Feature", "id": "RlQZokFLuZlo03Tp7Sy7WAWQ19o=", "properties": {"ref": "ba5df363df9f4097a49ab4a67c91e212", "@spider": "oxxo_gas_irl_dpa", "addr:full": "Baltinglass Road Blessington, IE W91 D6HD", "addr:city": "Blessington", "addr:state": "IE", "addr:postcode": "W91 D6HD", "phones": {"Store": [""]}, "email": {"Customer Service": []}, "website": "https://texaco.ie/station-locator", "operatingHours": {"Store": []}, "chain_id": "30670", "chain_name": "OXXO GAS"}, "geometry": {"type": "Point", "coordinates": [-6.543, 53.1637]}},
{"type": "Feature", "id": "_TejU06UmThdEIkRwGBc-C7wYno=", "properties": {"ref": "4d08f44902184753be0dcc1a450c984c", "@spider": "oxxo_gas_irl_dpa", "addr:full": "Dublin Road Longford, IE N39 NV60", "addr:city": "Longford", "addr:state": "IE", "addr:postcode": "N39 NV60", "phones": {"Store": [""]}, "email": {"Customer Service": []}, "website": "https://texaco.ie/station-locator", "operatingHours": {"Store": []}, "chain_id": "30670", "chain_name": "OXXO GAS"}, "geometry": {"type": "Point", "coordinates": [-7.7841, 53.7246]}},
{"type": "Feature", "id": "y3__4KoTC61-W-rKngBTrRmmaz4=", "properties": {"ref": "ae0228eba80c442c9928ebfd06e4d022", "@spider": "oxxo_gas_irl_dpa", "addr:full": "Monread Naas, IE W91 PCP5", "addr:city": "Naas", "addr:state": "IE", "addr:postcode": "W91 PCP5", "phones": {"Store": [""]}, "email": {"Customer Service": []}, "website": "https://texaco.ie/station-locator", "operatingHours": {"Store": []}, "chain_id": "30670", "chain_name": "OXXO GAS"}, "geometry": {"type": "Point", "coordinates": [-6.6571, 53.2413]}},
{"type": "Feature", "id": "qpMBDqW44J4hfaNFO_lBuaNr2M8=", "properties": {"ref": "37ee50c2aef54ccfb314ce5cebebafd4", "@spider": "oxxo_gas_irl_dpa", "addr:full": "Ballinalack Mullingar, IE N91 CFH3", "addr:city": "Mullingar", "addr:state": "IE", "addr:postcode": "N91 CFH3", "phones": {"Store": [""]}, "email": {"Customer Service": []}, "website": "https://texaco.ie/station-locator", "operatingHours": {"Store": []}, "chain_id": "30670", "chain_name": "OXXO GAS"}, "geometry": {"type": "Point", "coordinates": [-7.4665, 53.6257]}},
{"type": "Feature", "id": "HTfobCRdMfGwy5P3ilShuoAAZZg=", "properties": {"ref": "eb1813f1ee6143f5a848289bd849eecd", "@spider": "oxxo_gas_irl_dpa", "addr:full": "Sligo Road Longford, IE N39 R2C6", "addr:city": "Longford", "addr:state": "IE", "addr:postcode": "N39 R2C6", "phones": {"Store": [""]}, "email": {"Customer Service": []}, "website": "https://texaco.ie/station-locator", "operatingHours": {"Store": []}, "chain_id": "30670", "chain_name": "OXXO GAS"}, "geometry": {"type": "Point", "coordinates": [-7.8023, 53.7424]}},
{"type": "Feature", "id": "swCampENtQ2TwG5U926L83EnqZs=", "properties": {"ref": "3faedf31c0e4400f8d3fc93b5d61fc1b", "@spider": "oxxo_gas_irl_dpa", "addr:full": "Greatmeadow Boyle, IE F52 P585", "addr:city": "Boyle", "addr:state": "IE", "addr:postcode": "F52 P585", "phones": {"Store": [""]}, "email": {"Customer Service": []}, "website": "https://texaco.ie/station-locator", "operatingHours": {"Store": []}, "chain_id": "30670", "chain_name": "OXXO GAS"}, "geometry": {"type": "Point", "coordinates": [-8.3021, 53.9663]}},
{"type": "Feature", "id": "2ulDZPV0I5XXyU_79n8W5cxxhs0=", "properties": {"ref": "a6d97e2f5e73436db0e09da99cd16397", "@spider": "oxxo_gas_irl_dpa", "addr:full": "Newcastle , IE D22 E7N6", "addr:state": "IE", "addr:postcode": "D22 E7N6", "phones": {"Store": [""]}, "email": {"Customer Service": []}, "website": "https://texaco.ie/station-locator", "operatingHours": {"Store": []}, "chain_id": "30670", "chain_name": "OXXO GAS"}, "geometry": {"type": "Point", "coordinates": [-6.4923, 53.2965]}},
{"type": "Feature", "id": "F7HEMh9rrLvXPrKiDeNFRCliycA=", "properties": {"ref": "25486f5d737748c5a70ed8d687828b02", "@spider": "oxxo_gas_irl_dpa", "addr:full": "Church Street Kilcock,  W23 H2Y3", "addr:city": "Kilcock", "addr:postcode": "W23 H2Y3", "phones": {"Store": [""]}, "email": {"Customer Service": []}, "website": "https://texaco.ie/station-locator", "operatingHours": {"Store": []}, "chain_id": "30670", "chain_name": "OXXO GAS"}, "geometry": {"type": "Point", "coordinates": [-6.6714, 53.4033]}},
{"type": "Feature", "id": "kVvTcHsy5TpuoIecCz-BaeWvgmY=", "properties": {"ref": "3efa137cda574530bcd467df648341fe", "@spider": "oxxo_gas_irl_dpa", "addr:full": "Clane Road Celbridge, IE W23 K2D5", "addr:city": "Celbridge", "addr:state": "IE", "addr:postcode": "W23 K2D5", "phones": {"Store": [""]}, "email": {"Customer Service": []}, "website": "https://texaco.ie/station-locator", "operatingHours": {"Store": []}, "chain_id": "30670", "chain_name": "OXXO GAS"}, "geometry": {"type": "Point", "coordinates": [-6.5482, 53.3342]}},
{"type": "Feature", "id": "6tYWdojcat7h5_F4ExLCkmhzgdY=", "properties": {"ref": "8f534d6e68cb467ebc7213a729391255", "@spider": "oxxo_gas_irl_dpa", "addr:full": "Foxford Road Ballina, IE F26 H9Y7", "addr:city": "Ballina", "addr:state": "IE", "addr:postcode": "F26 H9Y7", "phones": {"Store": [""]}, "email": {"Customer Service": []}, "website": "https://texaco.ie/station-locator", "operatingHours": {"Store": []}, "chain_id": "30670", "chain_name": "OXXO GAS"}, "geometry": {"type": "Point", "coordinates": [-9.163, 54.1061]}},
{"type": "Feature", "id": "3ji9hZsqWN71kTN7VJ1hoReDTjU=", "properties": {"ref": "03023aa1f2bc4acc9fbdc5f678d70d36", "@spider": "oxxo_gas_irl_dpa", "addr:full": "Sligo Road Carrick-on-Shannon, IE N41 V0H1", "addr:city": "Carrick-on-Shannon", "addr:state": "IE", "addr:postcode": "N41 V0H1", "phones": {"Store": [""]}, "email": {"Customer Service": []}, "website": "https://texaco.ie/station-locator", "operatingHours": {"Store": []}, "chain_id": "30670", "chain_name": "OXXO GAS"}, "geometry": {"type": "Point", "coordinates": [-8.1002, 53.9413]}},
{"type": "Feature", "id": "4sJnSl__dvyus617lk9wQ_2X6CY=", "properties": {"ref": "e814ad4df403422f8bf6f62c03379ac0", "@spider": "oxxo_gas_irl_dpa", "addr:full": "Lucan , IE K78 C568", "addr:state": "IE", "addr:postcode": "K78 C568", "phones": {"Store": [""]}, "email": {"Customer Service": []}, "website": "https://texaco.ie/station-locator", "operatingHours": {"Store": []}, "chain_id": "30670", "chain_name": "OXXO GAS"}, "geometry": {"type": "Point", "coordinates": [-6.4177, 53.3591]}},
{"type": "Feature", "id": "dsZW_Xit1geDdfY3sG5h2nSqfU0=", "properties": {"ref": "6a8e51bed458439c81d30122cd81dab7", "@spider": "oxxo_gas_irl_dpa", "addr:full": "Enniskerry Road Enniskerry, IE A98 DY07", "addr:city": "Enniskerry", "addr:state": "IE", "addr:postcode": "A98 DY07", "phones": {"Store": [""]}, "email": {"Customer Service": []}, "website": "https://texaco.ie/station-locator", "operatingHours": {"Store": []}, "chain_id": "30670", "chain_name": "OXXO GAS"}, "geometry": {"type": "Point", "coordinates": [-6.1758, 53.2035]}},
{"type": "Feature", "id": "CCWlufpqKEN47LtZBmxsw2wI038=", "properties": {"ref": "ef0fd5db8fb14be1b802683ce3905c31", "@spider": "oxxo_gas_irl_dpa", "addr:full": "Rathfarnham Road Dublin 16, IE D14 V2P4", "addr:city": "Dublin 16", "addr:state": "IE", "addr:postcode": "D14 V2P4", "phones": {"Store": [""]}, "email": {"Customer Service": []}, "website": "https://texaco.ie/station-locator", "operatingHours": {"Store": []}, "chain_id": "30670", "chain_name": "OXXO GAS"}, "geometry": {"type": "Point", "coordinates": [-6.2842, 53.3012]}},
{"type": "Feature", "id": "DeYvdldW4znlPld7Vk_xZ9YWIfo=", "properties": {"ref": "76ce71ffcecb40e59cabf7589f8b0d0d", "@spider": "oxxo_gas_irl_dpa", "addr:full": "Millbrook Oldcastle, IE A82 F7H9", "addr:city": "Oldcastle", "addr:state": "IE", "addr:postcode": "A82 F7H9", "phones": {"Store": [""]}, "email": {"Customer Service": []}, "website": "https://texaco.ie/station-locator", "operatingHours": {"Store": []}, "chain_id": "30670", "chain_name": "OXXO GAS"}, "geometry": {"type": "Point", "coordinates": [-7.1675, 53.7507]}},
{"type": "Feature", "id": "QhfWnX7TXcQwEmRedoPVexeU0oA=", "properties": {"ref": "32837b35833448ccb23e294f65e2d525", "@spider": "oxxo_gas_irl_dpa", "addr:full": "Clonee , IE D15 YNP3", "addr:state": "IE", "addr:postcode": "D15 YNP3", "phones": {"Store": [""]}, "email": {"Customer Service": []}, "website": "https://texaco.ie/station-locator", "operatingHours": {"Store": []}, "chain_id": "30670", "chain_name": "OXXO GAS"}, "geometry": {"type": "Point", "coordinates": [-6.4416, 53.4106]}},
{"type": "Feature", "id": "yBtlQ-OeXGV2UlWYCWguJo4cme4=", "properties": {"ref": "85ad8f256f6c489da15e9ef344c46129", "@spider": "oxxo_gas_irl_dpa", "addr:full": "Trim Road Batterstown, IE A86 V329", "addr:city": "Batterstown", "addr:state": "IE", "addr:postcode": "A86 V329", "phones": {"Store": [""]}, "email": {"Customer Service": []}, "website": "https://texaco.ie/station-locator", "operatingHours": {"Store": []}, "chain_id": "30670", "chain_name": "OXXO GAS"}, "geometry": {"type": "Point", "coordinates": [-6.5355, 53.4689]}},
{"type": "Feature", "id": "hOFMGUTOOvs0aK--AX5DyUh_JHI=", "properties": {"ref": "7500a28385d44d889be7f08b81598aca", "@spider": "oxxo_gas_irl_dpa", "addr:full": "Brighton Road Dublin 18, IE D18 X290", "addr:city": "Dublin 18", "addr:state": "IE", "addr:postcode": "D18 X290", "phones": {"Store": [""]}, "email": {"Customer Service": []}, "website": "https://texaco.ie/station-locator", "operatingHours": {"Store": []}, "chain_id": "30670", "chain_name": "OXXO GAS"}, "geometry": {"type": "Point", "coordinates": [-6.184, 53.2665]}},
{"type": "Feature", "id": "R_fmI1RE-tJuQN2i7knBZ7mkmq0=", "properties": {"ref": "92f5d6d6f0714591bd591c248d1a9c41", "@spider": "oxxo_gas_irl_dpa", "addr:full": "Lower Kilmacud Road Stillorgan, IE A94 E2X5", "addr:city": "Stillorgan", "addr:state": "IE", "addr:postcode": "A94 E2X5", "phones": {"Store": [""]}, "email": {"Customer Service": []}, "website": "https://texaco.ie/station-locator", "operatingHours": {"Store": []}, "chain_id": "30670", "chain_name": "OXXO GAS"}, "geometry": {"type": "Point", "coordinates": [-6.2044, 53.2887]}},
{"type": "Feature", "id": "tOwrQvE98o2vczB-JE5Tg9rnwJY=", "properties": {"ref": "63c3e93c1a514051a47f53564d8a0b43", "@spider": "oxxo_gas_irl_dpa", "addr:full": "Cornelscourt Dublin 18, IE D18 YC90", "addr:city": "Dublin 18", "addr:state": "IE", "addr:postcode": "D18 YC90", "phones": {"Store": [""]}, "email": {"Customer Service": []}, "website": "https://texaco.ie/station-locator", "operatingHours": {"Store": []}, "chain_id": "30670", "chain_name": "OXXO GAS"}, "geometry": {"type": "Point", "coordinates": [-6.1666, 53.269]}},
{"type": "Feature", "id": "QstJ375l_2ZxqCSnDe31slveDn4=", "properties": {"ref": "94dcc99b4f414d4d89ad3f91e6d1eae6", "@spider": "oxxo_gas_irl_dpa", "addr:full": "Shanganagh Road Shankill, IE D18 X9C9", "addr:city": "Shankill", "addr:state": "IE", "addr:postcode": "D18 X9C9", "phones": {"Store": [""]}, "email": {"Customer Service": []}, "website": "https://texaco.ie/station-locator", "operatingHours": {"Store": []}, "chain_id": "30670", "chain_name": "OXXO GAS"}, "geometry": {"type": "Point", "coordinates": [-6.1229, 53.2394]}},
{"type": "Feature", "id": "hi3UaDvLP0zF2GsmY1MfXw-T0yI=", "properties": {"ref": "fdcc5167a7e14706adfc2be4a16e59c8", "@spider": "oxxo_gas_irl_dpa", "addr:full": "Clonkeen Road Dublin 18, IE A94 V8A0", "addr:city": "Dublin 18", "addr:state": "IE", "addr:postcode": "A94 V8A0", "phones": {"Store": [""]}, "email": {"Customer Service": []}, "website": "https://texaco.ie/station-locator", "operatingHours": {"Store": []}, "chain_id": "30670", "chain_name": "OXXO GAS"}, "geometry": {"type": "Point", "coordinates": [-6.1649, 53.2687]}},
{"type": "Feature", "id": "DNm4KgIb6Bz48hpq3aZzalencHM=", "properties": {"ref": "9ba272ec4331430ca5da9ad9cc4340be", "@spider": "oxxo_gas_irl_dpa", "addr:full": "Newtownpark Avenue Blackrock, IE A94 T8K6", "addr:city": "Blackrock", "addr:state": "IE", "addr:postcode": "A94 T8K6", "phones": {"Store": [""]}, "email": {"Customer Service": []}, "website": "https://texaco.ie/station-locator", "operatingHours": {"Store": []}, "chain_id": "30670", "chain_name": "OXXO GAS"}, "geometry": {"type": "Point", "coordinates": [-6.1751, 53.2889]}},
{"type": "Feature", "id": "8By8me9Y9ah57-XWWk-UhF3NKdQ=", "properties": {"ref": "67d722aa4a9c492bb588d99de490be14", "@spider": "oxxo_gas_irl_dpa", "addr:full": "Rochestown Avenue Dun Laoghaire, IE A96 EK79", "addr:city": "Dun Laoghaire", "addr:state": "IE", "addr:postcode": "A96 EK79", "phones": {"Store": [""]}, "email": {"Customer Service": []}, "website": "https://texaco.ie/station-locator", "operatingHours": {"Store": []}, "chain_id": "30670", "chain_name": "OXXO GAS"}, "geometry": {"type": "Point", "coordinates": [-6.144, 53.2711]}},
{"type": "Feature", "id": "zxJiDm1wJWKOohixQDOG30-aVtI=", "properties": {"ref": "d3a8596f160b44a285196bbdf0058642", "@spider": "oxxo_gas_irl_dpa", "addr:full": "Abbey Road Monkstown, IE A94 A4A7", "addr:city": "Monkstown", "addr:state": "IE", "addr:postcode": "A94 A4A7", "phones": {"Store": [""]}, "email": {"Customer Service": []}, "website": "https://texaco.ie/station-locator", "operatingHours": {"Store": []}, "chain_id": "30670", "chain_name": "OXXO GAS"}, "geometry": {"type": "Point", "coordinates": [-6.1593, 53.2829]}},
{"type": "Feature", "id": "VpI78-iqxCMj9HnOKJdjM3mTG38=", "properties": {"ref": "e716e8e91b294ef7ab3eb210b36b9192", "@spider": "oxxo_gas_irl_dpa", "addr:full": "Blanchardstown Corporate Park Dublin 15, IE D15 YX4A", "addr:city": "Dublin 15", "addr:state": "IE", "addr:postcode": "D15 YX4A", "phones": {"Store": [""]}, "email": {"Customer Service": []}, "website": "https://texaco.ie/station-locator", "operatingHours": {"Store": []}, "chain_id": "30670", "chain_name": "OXXO GAS"}, "geometry": {"type": "Point", "coordinates": [-6.3646, 53.4146]}},
{"type": "Feature", "id": "QGPs2tdtbgCMeW1VSuhXk1GlpJs=", "properties": {"ref": "e1762f8f0efd48a2b122aaa822d6a4cf", "@spider": "oxxo_gas_irl_dpa", "addr:full": "290 Merrion Gates Dublin 4, IE D04 E8K7", "addr:city": "Dublin 4", "addr:state": "IE", "addr:postcode": "D04 E8K7", "phones": {"Store": [""]}, "email": {"Customer Service": []}, "website": "https://texaco.ie/station-locator", "operatingHours": {"Store": []}, "chain_id": "30670", "chain_name": "OXXO GAS"}, "geometry": {"type": "Point", "coordinates": [-6.2031, 53.3149]}},
{"type": "Feature", "id": "184ZYdZIogSIWwMNiA0cHeKEZlA=", "properties": {"ref": "6eddf186f184426bb84b5b200b63fea9", "@spider": "oxxo_gas_irl_dpa", "addr:full": "Ballygall Road East Dublin 11, IE D11 DP2T", "addr:city": "Dublin 11", "addr:state": "IE", "addr:postcode": "D11 DP2T", "phones": {"Store": [""]}, "email": {"Customer Service": []}, "website": "https://texaco.ie/station-locator", "operatingHours": {"Store": []}, "chain_id": "30670", "chain_name": "OXXO GAS"}, "geometry": {"type": "Point", "coordinates": [-6.2765, 53.3829]}},
{"type": "Feature", "id": "icRjXlKpGKGUlgY-veyy73BNefI=", "properties": {"ref": "a44058bccd93488da5c102629de56f26", "@spider": "oxxo_gas_irl_dpa", "addr:full": "Garlow Cross Navan, IE C15 X04W", "addr:city": "Navan", "addr:state": "IE", "addr:postcode": "C15 X04W", "phones": {"Store": [""]}, "email": {"Customer Service": []}, "website": "https://texaco.ie/station-locator", "operatingHours": {"Store": []}, "chain_id": "30670", "chain_name": "OXXO GAS"}, "geometry": {"type": "Point", "coordinates": [-6.6245, 53.607]}},
{"type": "Feature", "id": "WWgnZnj2DIMD_RSp_umShgrpq6g=", "properties": {"ref": "75c37369596545bfa5d666b94ddbbc14", "@spider": "oxxo_gas_irl_dpa", "addr:full": "Kilmore Road Dublin 17,  D05 C5X7", "addr:city": "Dublin 17", "addr:postcode": "D05 C5X7", "phones": {"Store": [""]}, "email": {"Customer Service": []}, "website": "https://texaco.ie/station-locator", "operatingHours": {"Store": []}, "chain_id": "30670", "chain_name": "OXXO GAS"}, "geometry": {"type": "Point", "coordinates": [-6.2146, 53.3841]}},
{"type": "Feature", "id": "Wqjgn74kE9bvIg4Acj2WPzM9b4M=", "properties": {"ref": "ab965fb2232d4b31bb9fb428be0dcd7f", "@spider": "oxxo_gas_irl_dpa", "addr:full": "Malahide Road Dublin 17, IE D17 XY29", "addr:city": "Dublin 17", "addr:state": "IE", "addr:postcode": "D17 XY29", "phones": {"Store": [""]}, "email": {"Customer Service": []}, "website": "https://texaco.ie/station-locator", "operatingHours": {"Store": []}, "chain_id": "30670", "chain_name": "OXXO GAS"}, "geometry": {"type": "Point", "coordinates": [-6.1886, 53.3954]}},
{"type": "Feature", "id": "u-3QBoxr5lglDjgJqFD5mxzj1Kk=", "properties": {"ref": "b0d203e6dd3f42be9c85dda71ad76399", "@spider": "oxxo_gas_irl_dpa", "addr:full": "Rolestown Dublin 9,  D09 H7F9", "addr:city": "Dublin 9", "addr:postcode": "D09 H7F9", "phones": {"Store": [""]}, "email": {"Customer Service": []}, "website": "https://texaco.ie/station-locator", "operatingHours": {"Store": []}, "chain_id": "30670", "chain_name": "OXXO GAS"}, "geometry": {"type": "Point", "coordinates": [-6.3053, 53.4878]}},
{"type": "Feature", "id": "K_EYMJLDFdMm-DM3EyLcxJO2oPY=", "properties": {"ref": "0d185d75ec58454aa73de6a3b923d525", "@spider": "oxxo_gas_irl_dpa", "addr:full": "Swords Road Nevinstown, IE K67 F3X4", "addr:city": "Nevinstown", "addr:state": "IE", "addr:postcode": "K67 F3X4", "phones": {"Store": [""]}, "email": {"Customer Service": []}, "website": "https://texaco.ie/station-locator", "operatingHours": {"Store": []}, "chain_id": "30670", "chain_name": "OXXO GAS"}, "geometry": {"type": "Point", "coordinates": [-6.2291, 53.4444]}},
{"type": "Feature", "id": "C0txibYYka30e0KvKOx10qfbp1A=", "properties": {"ref": "9b7ff3d08b6b4bbdba999df72c72ddac", "@spider": "oxxo_gas_irl_dpa", "addr:full": "Moynehall Cavan, IE H12 R5VO", "addr:city": "Cavan", "addr:state": "IE", "addr:postcode": "H12 R5VO", "phones": {"Store": [""]}, "email": {"Customer Service": []}, "website": "https://texaco.ie/station-locator", "operatingHours": {"Store": []}, "chain_id": "30670", "chain_name": "OXXO GAS"}, "geometry": {"type": "Point", "coordinates": [-7.3542, 53.9752]}},
{"type": "Feature", "id": "almCXJpPG8eDyHsfIumJ4uGez2M=", "properties": {"ref": "29681ad82a914eb88b60cf9164b75224", "@spider": "oxxo_gas_irl_dpa", "addr:full": "Balrath Navan, IE C15 CD6C", "addr:city": "Navan", "addr:state": "IE", "addr:postcode": "C15 CD6C", "phones": {"Store": [""]}, "email": {"Customer Service": []}, "website": "https://texaco.ie/station-locator", "operatingHours": {"Store": []}, "chain_id": "30670", "chain_name": "OXXO GAS"}, "geometry": {"type": "Point", "coordinates": [-6.5062, 53.6222]}},
{"type": "Feature", "id": "ie6ksoCQUhxckd50zXJLjzMD06Q=", "properties": {"ref": "5739c1a2213b44c79fdfd318c0594bd4", "@spider": "oxxo_gas_irl_dpa", "addr:full": "Wilkinstown Navan, IE C15 EY0P", "addr:city": "Navan", "addr:state": "IE", "addr:postcode": "C15 EY0P", "phones": {"Store": [""]}, "email": {"Customer Service": []}, "website": "https://texaco.ie/station-locator", "operatingHours": {"Store": []}, "chain_id": "30670", "chain_name": "OXXO GAS"}, "geometry": {"type": "Point", "coordinates": [-6.7143, 53.7402]}},
{"type": "Feature", "id": "Xgn4UkEpRPtE6qx1tvNVhrqWAw0=", "properties": {"ref": "8515777fd55245b6a164fb6b8b287019", "@spider": "oxxo_gas_irl_dpa", "addr:full": "Dublin Road Cavan, IE H12 N8X0", "addr:city": "Cavan", "addr:state": "IE", "addr:postcode": "H12 N8X0", "phones": {"Store": [""]}, "email": {"Customer Service": []}, "website": "https://texaco.ie/station-locator", "operatingHours": {"Store": []}, "chain_id": "30670", "chain_name": "OXXO GAS"}, "geometry": {"type": "Point", "coordinates": [-7.3301, 53.985]}},
{"type": "Feature", "id": "sErJPw_kyD2z2m7e2Rrlgj9NXbA=", "properties": {"ref": "7a177d72cf074a63acf721d947292357", "@spider": "oxxo_gas_irl_dpa", "addr:full": "Barrack Street Bailieborough, IE A82 P2H7", "addr:city": "Bailieborough", "addr:state": "IE", "addr:postcode": "A82 P2H7", "phones": {"Store": [""]}, "email": {"Customer Service": []}, "website": "https://texaco.ie/station-locator", "operatingHours": {"Store": []}, "chain_id": "30670", "chain_name": "OXXO GAS"}, "geometry": {"type": "Point", "coordinates": [-6.9692, 53.9155]}},
{"type": "Feature", "id": "ofrSmlvxMus5koiDsBN9JqTNSL8=", "properties": {"ref": "5828142fe23f49c79ee34c23fdf84e57", "@spider": "oxxo_gas_irl_dpa", "addr:full": "Dublin Street Balbriggan, IE K32WD93", "addr:city": "Balbriggan", "addr:state": "IE", "addr:postcode": "K32WD93", "phones": {"Store": [""]}, "email": {"Customer Service": []}, "website": "https://texaco.ie/station-locator", "operatingHours": {"Store": []}, "chain_id": "30670", "chain_name": "OXXO GAS"}, "geometry": {"type": "Point", "coordinates": [-6.1842, 53.6056]}},
{"type": "Feature", "id": "_sITNq3g38gUEXSj8k59jVsjGIU=", "properties": {"ref": "c3bce6d0c08c4a63bb51f769e67f0437", "@spider": "oxxo_gas_irl_dpa", "addr:full": "Dublin Road Skerries, IE K34 V202", "addr:city": "Skerries", "addr:state": "IE", "addr:postcode": "K34 V202", "phones": {"Store": [""]}, "email": {"Customer Service": []}, "website": "https://texaco.ie/station-locator", "operatingHours": {"Store": []}, "chain_id": "30670", "chain_name": "OXXO GAS"}, "geometry": {"type": "Point", "coordinates": [-6.1125, 53.5775]}},
{"type": "Feature", "id": "4DoNzBjLg1DXPP4godY5zRkJ03M=", "properties": {"ref": "2538827cf0954a278535ab0914df9951", "@spider": "oxxo_gas_irl_dpa", "addr:full": "St. Anthony's Mornington, IE A92 D9RP", "addr:city": "Mornington", "addr:state": "IE", "addr:postcode": "A92 D9RP", "phones": {"Store": [""]}, "email": {"Customer Service": []}, "website": "https://texaco.ie/station-locator", "operatingHours": {"Store": []}, "chain_id": "30670", "chain_name": "OXXO GAS"}, "geometry": {"type": "Point", "coordinates": [-6.2545, 53.7187]}},
{"type": "Feature", "id": "8TboYKMLpDBWqbx2AFyCmMFOuhg=", "properties": {"ref": "a7e1696380f049b68ddb12d2469dc872", "@spider": "oxxo_gas_irl_dpa", "addr:full": "Carrick Road Ardee, IE A92 W7DC", "addr:city": "Ardee", "addr:state": "IE", "addr:postcode": "A92 W7DC", "phones": {"Store": [""]}, "email": {"Customer Service": []}, "website": "https://texaco.ie/station-locator", "operatingHours": {"Store": []}, "chain_id": "30670", "chain_name": "OXXO GAS"}, "geometry": {"type": "Point", "coordinates": [-6.5424, 53.8634]}},
{"type": "Feature", "id": "2bz0RyhYSS3VtCs7afTkq0FyIF0=", "properties": {"ref": "bdccc10512c04d5981593917114627c6", "@spider": "oxxo_gas_irl_dpa", "addr:full": "Chapel Road Dromiskin, IE A91 H0X6", "addr:city": "Dromiskin", "addr:state": "IE", "addr:postcode": "A91 H0X6", "phones": {"Store": [""]}, "email": {"Customer Service": []}, "website": "https://texaco.ie/station-locator", "operatingHours": {"Store": []}, "chain_id": "30670", "chain_name": "OXXO GAS"}, "geometry": {"type": "Point", "coordinates": [-6.401, 53.9218]}},
{"type": "Feature", "id": "_CYkHNgKviEr5s-mdD0Kcf2ZTX0=", "properties": {"ref": "2870ec4cd5ac480ab8c2e3318cd54586", "@spider": "oxxo_gas_irl_dpa", "addr:full": "Donegal Road Ballyshannon, IE F94 DX6P", "addr:city": "Ballyshannon", "addr:state": "IE", "addr:postcode": "F94 DX6P", "phones": {"Store": [""]}, "email": {"Customer Service": []}, "website": "https://texaco.ie/station-locator", "operatingHours": {"Store": []}, "chain_id": "30670", "chain_name": "OXXO GAS"}, "geometry": {"type": "Point", "coordinates": [-8.192, 54.5042]}},
{"type": "Feature", "id": "9GzAEUOtyPrPmQJhNpxD4alJa2Q=", "properties": {"ref": "1a3797f255854abb91bf3ca3042813e5", "@spider": "oxxo_gas_irl_dpa", "addr:full": "Ardee Road Dundalk, IE A91 R2VF", "addr:city": "Dundalk", "addr:state": "IE", "addr:postcode": "A91 R2VF", "phones": {"Store": [""]}, "email": {"Customer Service": []}, "website": "https://texaco.ie/station-locator", "operatingHours": {"Store": []}, "chain_id": "30670", "chain_name": "OXXO GAS"}, "geometry": {"type": "Point", "coordinates": [-6.4172, 53.9951]}},
{"type": "Feature", "id": "dyXID3xKR5Ad-To2Wsd1sUYREhY=", "properties": {"ref": "cbe7ba56c9be42fb83b51a5afa2eda6e", "@spider": "oxxo_gas_irl_dpa", "addr:full": "Dublin Road Monaghan, IE H18 EH57", "addr:city": "Monaghan", "addr:state": "IE", "addr:postcode": "H18 EH57", "phones": {"Store": [""]}, "email": {"Customer Service": []}, "website": "https://texaco.ie/station-locator", "operatingHours": {"Store": []}, "chain_id": "30670", "chain_name": "OXXO GAS"}, "geometry": {"type": "Point", "coordinates": [-6.9495, 54.2413]}},
{"type": "Feature", "id": "J1ft7uekFFx9VWVwlsoT2IQ2Ae4=", "properties": {"ref": "9083453c5d1b46079310fcd02e38c8c1", "@spider": "oxxo_gas_irl_dpa", "addr:full": "Tullynagrow Castleblayney, IE A75 EF82", "addr:city": "Castleblayney", "addr:state": "IE", "addr:postcode": "A75 EF82", "phones": {"Store": [""]}, "email": {"Customer Service": []}, "website": "https://texaco.ie/station-locator", "operatingHours": {"Store": []}, "chain_id": "30670", "chain_name": "OXXO GAS"}, "geometry": {"type": "Point", "coordinates": [-6.7342, 54.1848]}},
{"type": "Feature", "id": "nQqd80IVHE_ltw9XTeWkF6MZy04=", "properties": {"ref": "6c6c0888c81a4e2c9bc2683dfa1f9b6c", "@spider": "oxxo_gas_irl_dpa", "addr:full": "Killybegs Road Donegal Town, IE F94 N2CW", "addr:city": "Donegal Town", "addr:state": "IE", "addr:postcode": "F94 N2CW", "phones": {"Store": [""]}, "email": {"Customer Service": []}, "website": "https://texaco.ie/station-locator", "operatingHours": {"Store": []}, "chain_id": "30670", "chain_name": "OXXO GAS"}, "geometry": {"type": "Point", "coordinates": [-8.1424, 54.6523]}},
{"type": "Feature", "id": "jod1emKU_-QaRJDGkXyZdxTc0kI=", "properties": {"ref": "2abd30f42f5a46de978b4abf7bfb0394", "@spider": "oxxo_gas_irl_dpa", "addr:full": "Killybegs Road Ardara, IE F94 XA6C", "addr:city": "Ardara", "addr:state": "IE", "addr:postcode": "F94 XA6C", "phones": {"Store": [""]}, "email": {"Customer Service": []}, "website": "https://texaco.ie/station-locator", "operatingHours": {"Store": []}, "chain_id": "30670", "chain_name": "OXXO GAS"}, "geometry": {"type": "Point", "coordinates": [-8.4189, 54.7604]}},
{"type": "Feature", "id": "qYvkScF8wTIpq2JXcxwZxm7Kh6k=", "properties": {"ref": "6bc5dabb539e418b97cf328c2cd31678", "@spider": "oxxo_gas_irl_dpa", "addr:full": "Port Road Letterkenny, IE F92 ERP1", "addr:city": "Letterkenny", "addr:state": "IE", "addr:postcode": "F92 ERP1", "phones": {"Store": [""]}, "email": {"Customer Service": []}, "website": "https://texaco.ie/station-locator", "operatingHours": {"Store": []}, "chain_id": "30670", "chain_name": "OXXO GAS"}, "geometry": {"type": "Point", "coordinates": [-7.6968, 54.9437]}},
{"type": "Feature", "id": "_e9ptMNLnKZ2qVd7q4uHIgSTIJo=", "properties": {"ref": "dc86a2d8fb0743b2a51b807290ff72c2", "@spider": "oxxo_gas_irl_dpa", "addr:full": "Circular Road Letterkenny, DG F92 E2DT", "addr:city": "Letterkenny", "addr:state": "DG", "addr:postcode": "F92 E2DT", "phones": {"Store": [""]}, "email": {"Customer Service": []}, "website": "https://texaco.ie/station-locator", "operatingHours": {"Store": []}, "chain_id": "30670", "chain_name": "OXXO GAS"}, "geometry": {"type": "Point", "coordinates": [-7.7439, 54.9572]}},
{"type": "Feature", "id": "VD5EOtUsdyJ8mKV9Ww0E6N5ihjo=", "properties": {"ref": "5184f425ca11473fb3bc1e51c065e84c", "@spider": "oxxo_gas_irl_dpa", "addr:full": "Fawns Letterkenny, DG F92 CXV4", "addr:city": "Letterkenny", "addr:state": "DG", "addr:postcode": "F92 CXV4", "phones": {"Store": [""]}, "email": {"Customer Service": []}, "website": "https://texaco.ie/station-locator", "operatingHours": {"Store": []}, "chain_id": "30670", "chain_name": "OXXO GAS"}, "geometry": {"type": "Point", "coordinates": [-7.8286, 55.056]}},
{"type": "Feature", "id": "UMj0apzO0ZdtiUjtcoRRVY47iGs=", "properties": {"ref": "fb1f82fcb9bf4511aeb9f83170ed722c", "@spider": "oxxo_gas_irl_dpa", "addr:full": "Muff , IE F93 X3AW", "addr:state": "IE", "addr:postcode": "F93 X3AW", "phones": {"Store": [""]}, "email": {"Customer Service": []}, "website": "https://texaco.ie/station-locator", "operatingHours": {"Store": []}, "chain_id": "30670", "chain_name": "OXXO GAS"}, "geometry": {"type": "Point", "coordinates": [-7.2704, 55.0656]}}]}