{"type":"FeatureCollection","features":[{"type": "Feature", "id": "0o82Aoc-qKqFm39oP42X8PKSQaI=", "properties": {"ref": "84432baba6fa461e8ada1d8471c942d9", "@spider": "the_body_shop_irl_dpa", "addr:full": "66 Oxford Street, SOHO, LONDON, W1D 1BL, United Kingdom", "addr:city": "SOHO", "addr:state": "LONDON", "addr:postcode": "W1D 1BL", "phones": {"Store": ["020 7323 2183"]}, "email": {"Customer Service": []}, "website": "https://www.thebodyshop.com/en-gb/store-finder", "operatingHours": {"Store": ["Sun: 11:00 - 19:00", "Mon: 10:00 - 20:00", "Tue: 10:00 - 20:00", "Wed: 10:00 - 20:00", "Thu: 10:00 - 20:00", "Fri: 10:00 - 20:00", "Sat: 10:00 - 20:00"]}, "chain_id": "8201", "chain_name": "THE BODY SHOP เดอะบอดี้ช็อป"}, "geometry": {"type": "Point", "coordinates": [-0.1335799, 51.5163378]}},
{"type": "Feature", "id": "3fbZl3Pst3nlMnL5URKe0TaZA-k=", "properties": {"ref": "eb370ea6939e47319e55f0a5a1bc5729", "@spider": "the_body_shop_irl_dpa", "addr:full": "Lower Mall, St Nicholas Centre, George Street, ABERDEEN, Aberdeenshire, AB10 1HW, United Kingdom", "addr:city": "ABERDEEN", "addr:state": "Aberdeenshire", "addr:postcode": "AB10 1HW", "phones": {"Store": ["01224 636438"]}, "email": {"Customer Service": []}, "website": "https://www.thebodyshop.com/en-gb/store-finder", "operatingHours": {"Store": ["Sun: 11:00 - 17:00", "Mon: 09:00 - 18:00", "Tue: 09:00 - 18:00", "Wed: 09:00 - 18:00", "Thu: 09:00 - 18:00", "Fri: 09:00 - 18:00", "Sat: 09:00 - 18:00"]}, "chain_id": "8201", "chain_name": "THE BODY SHOP เดอะบอดี้ช็อป"}, "geometry": {"type": "Point", "coordinates": [-2.0984915, 57.1478571]}},
{"type": "Feature", "id": "r6mj-AqPk_UIOSFxQUSGJPPk1Tg=", "properties": {"ref": "41bd8317f2ad45be953229784f854840", "@spider": "the_body_shop_irl_dpa", "addr:full": "18 Mayfair House, Hollins Walk, BASINGSTOKE, Hampshire, RG21 7JT, United Kingdom", "addr:city": "BASINGSTOKE", "addr:state": "Hampshire", "addr:postcode": "RG21 7JT", "phones": {"Store": ["01256 321418"]}, "email": {"Customer Service": []}, "website": "https://www.thebodyshop.com/en-gb/store-finder", "operatingHours": {"Store": ["Sun: 11:00 - 17:00", "Mon: 09:30 - 19:00", "Tue: 09:30 - 19:00", "Wed: 09:30 - 19:00", "Thu: 09:30 - 19:00", "Fri: 09:30 - 19:00", "Sat: 09:30 - 19:00"]}, "chain_id": "8201", "chain_name": "THE BODY SHOP เดอะบอดี้ช็อป"}, "geometry": {"type": "Point", "coordinates": [-1.0830188, 51.26243849999999]}},
{"type": "Feature", "id": "UOwFsBxZd81K_cNuiYJqFe5cN7E=", "properties": {"ref": "750d739f3c3e434ba33dc2f522d2f497", "@spider": "the_body_shop_irl_dpa", "addr:full": "2 Burton Street, BATH, Somerset, BA1 1BN, United Kingdom", "addr:city": "BATH", "addr:state": "Somerset", "addr:postcode": "BA1 1BN", "phones": {"Store": ["01225 310764"]}, "email": {"Customer Service": []}, "website": "https://www.thebodyshop.com/en-gb/store-finder", "operatingHours": {"Store": ["Sun: 10:30 - 17:00", "Mon: 09:00 - 18:00", "Tue: 09:00 - 18:00", "Wed: 09:00 - 18:00", "Thu: 09:00 - 18:00", "Fri: 09:00 - 18:00", "Sat: 09:00 - 18:00"]}, "chain_id": "8201", "chain_name": "THE BODY SHOP เดอะบอดี้ช็อป"}, "geometry": {"type": "Point", "coordinates": [-2.3607544, 51.3828253]}},
{"type": "Feature", "id": "Y3ji0w-V4GqeOoGjsxCCCCaERbI=", "properties": {"ref": "8af6130ee334414f93b15f8ad3b84490", "@spider": "the_body_shop_irl_dpa", "addr:full": "Unit SU518 Middle Mall, West Wing, The Bullring, BIRMINGHAM, West Midlands, B5 4BE, United Kingdom", "addr:city": "BIRMINGHAM", "addr:state": "West Midlands", "addr:postcode": "B5 4BE", "phones": {"Store": ["0121 634 3505"]}, "email": {"Customer Service": []}, "website": "https://www.thebodyshop.com/en-gb/store-finder", "operatingHours": {"Store": ["Sun: 11:00 - 17:00", "Mon: 09:30 - 19:00", "Tue: 09:30 - 19:00", "Wed: 09:30 - 19:00", "Thu: 09:30 - 19:00", "Fri: 09:30 - 19:00", "Sat: 09:00 - 20:00"]}, "chain_id": "8201", "chain_name": "THE BODY SHOP เดอะบอดี้ช็อป"}, "geometry": {"type": "Point", "coordinates": [-1.8943571, 52.4773836]}},
{"type": "Feature", "id": "clf6s6qsOiXdQj9hg0YJ0Z_RRqw=", "properties": {"ref": "d8a673ff4266433d9bb44924fc70e9ee", "@spider": "the_body_shop_irl_dpa", "addr:full": "L015B Lower Rose Gallery, Bluewater Park,, GREENHITHE, Kent, DA9 9SH, United Kingdom", "addr:city": "GREENHITHE", "addr:state": "Kent", "addr:postcode": "DA9 9SH", "phones": {"Store": ["01322 381974"]}, "email": {"Customer Service": []}, "website": "https://www.thebodyshop.com/en-gb/store-finder", "operatingHours": {"Store": ["Sun: 11:00 - 17:00", "Mon: 10:00 - 21:00", "Tue: 10:00 - 21:00", "Wed: 10:00 - 21:00", "Thu: 10:00 - 21:00", "Fri: 10:00 - 21:00", "Sat: 09:00 - 21:00"]}, "chain_id": "8201", "chain_name": "THE BODY SHOP เดอะบอดี้ช็อป"}, "geometry": {"type": "Point", "coordinates": [0.2732786, 51.4386212]}},
{"type": "Feature", "id": "8PmwavxjQORoZoWZhomyC_rFVLA=", "properties": {"ref": "f412ad22c633427598a9109cea9682a0", "@spider": "the_body_shop_irl_dpa", "addr:full": "41-43 North Street, BRIGHTON, East Sussex, BN1 1RH, United Kingdom", "addr:city": "BRIGHTON", "addr:state": "East Sussex", "addr:postcode": "BN1 1RH", "phones": {"Store": ["01273 729313"]}, "email": {"Customer Service": []}, "website": "https://www.thebodyshop.com/en-gb/store-finder", "operatingHours": {"Store": ["Sun: 10:00 - 17:00", "Mon: 09:00 - 18:00", "Tue: 09:00 - 18:00", "Wed: 09:00 - 18:00", "Thu: 09:00 - 18:00", "Fri: 09:00 - 18:00", "Sat: 09:00 - 18:00"]}, "chain_id": "8201", "chain_name": "THE BODY SHOP เดอะบอดี้ช็อป"}, "geometry": {"type": "Point", "coordinates": [-0.141812, 50.82319099999999]}},
{"type": "Feature", "id": "D-m5y80dzekYueZTWwiSKi4DUto=", "properties": {"ref": "73ca00785d6c4ba1b4d2e7ae20448c76", "@spider": "the_body_shop_irl_dpa", "addr:full": "17 Buttermarket, BURY ST EDMUNDS, Suffolk, IP33 1DA, United Kingdom", "addr:city": "BURY ST EDMUNDS", "addr:state": "Suffolk", "addr:postcode": "IP33 1DA", "phones": {"Store": ["01284 719369"]}, "email": {"Customer Service": []}, "website": "https://www.thebodyshop.com/en-gb/store-finder", "operatingHours": {"Store": ["Sun: 10:00 - 16:00", "Mon: 09:00 - 17:30", "Tue: 09:00 - 17:30", "Wed: 09:00 - 17:30", "Thu: 09:00 - 19:00", "Fri: 09:00 - 17:30", "Sat: 09:00 - 17:30"]}, "chain_id": "8201", "chain_name": "THE BODY SHOP เดอะบอดี้ช็อป"}, "geometry": {"type": "Point", "coordinates": [0.7127439000000001, 52.2459036]}},
{"type": "Feature", "id": "tp_98LreC_wIsJPSMPvr3vwNHiY=", "properties": {"ref": "ea86a30064d042c79d7d0810f1f79644", "@spider": "the_body_shop_irl_dpa", "addr:full": "Main Concourse, CAMBRIDGE, CB2 2QQ, United Kingdom", "addr:city": "Main Concourse", "addr:state": "CAMBRIDGE", "addr:postcode": "CB2 2QQ", "phones": {"Store": ["01223 210293"]}, "email": {"Customer Service": []}, "website": "https://www.thebodyshop.com/en-gb/store-finder", "operatingHours": {"Store": ["Sun: 10:30 - 15:30", "Mon: 09:00 - 17:00", "Tue: 09:00 - 17:00", "Wed: 09:00 - 17:00", "Thu: 09:00 - 17:00", "Fri: 09:00 - 17:00", "Sat: 10:30 - 15:30"]}, "chain_id": "8201", "chain_name": "THE BODY SHOP เดอะบอดี้ช็อป"}, "geometry": {"type": "Point", "coordinates": [0.1262838, 52.1752371]}},
{"type": "Feature", "id": "6MB1c-s-Apr1oo6PfpCqJbKIRwM=", "properties": {"ref": "bb46a4b6a65c4efeb630aa272f2e62be", "@spider": "the_body_shop_irl_dpa", "addr:full": "36 Petty Cury, CAMBRIDGE, CB2 3NB, United Kingdom", "addr:city": "36 Petty Cury", "addr:state": "CAMBRIDGE", "addr:postcode": "CB2 3NB", "phones": {"Store": ["01223 473347"]}, "email": {"Customer Service": []}, "website": "https://www.thebodyshop.com/en-gb/store-finder", "operatingHours": {"Store": ["Sun: 10:30 - 17:00", "Mon: 09:00 - 17:30", "Tue: 09:00 - 17:30", "Wed: 09:00 - 17:30", "Thu: 09:00 - 17:30", "Fri: 09:00 - 17:30", "Sat: 09:00 - 17:30"]}, "chain_id": "8201", "chain_name": "THE BODY SHOP เดอะบอดี้ช็อป"}, "geometry": {"type": "Point", "coordinates": [0.1203928, 52.2047126]}},
{"type": "Feature", "id": "m8iKAdgUpF2xnhWYt31nb67FMWU=", "properties": {"ref": "b4625d436a0d4dc59fc791003201feea", "@spider": "the_body_shop_irl_dpa", "addr:full": "40 High Chelmer, CHELMSFORD, Essex, CM1 1XL, United Kingdom", "addr:city": "CHELMSFORD", "addr:state": "Essex", "addr:postcode": "CM1 1XL", "phones": {"Store": ["01245 349735"]}, "email": {"Customer Service": []}, "website": "https://www.thebodyshop.com/en-gb/store-finder", "operatingHours": {"Store": ["Sun: 10:00 - 16:00", "Mon: 09:00 - 17:30", "Tue: 09:00 - 17:30", "Wed: 09:00 - 17:30", "Thu: 09:00 - 17:30", "Fri: 09:00 - 17:30", "Sat: 09:00 - 17:30"]}, "chain_id": "8201", "chain_name": "THE BODY SHOP เดอะบอดี้ช็อป"}, "geometry": {"type": "Point", "coordinates": [0.4710127, 51.733639]}},
{"type": "Feature", "id": "28Bn1CddKRir7F3jWXjVnaDNYQA=", "properties": {"ref": "99dc2c73c34840f8bcf5f49633109f2a", "@spider": "the_body_shop_irl_dpa", "addr:full": "39 Regent Arcade, CHELTENHAM, Gloucestershire, GL50 1JZ, United Kingdom", "addr:city": "CHELTENHAM", "addr:state": "Gloucestershire", "addr:postcode": "GL50 1JZ", "phones": {"Store": ["01242 235583"]}, "email": {"Customer Service": []}, "website": "https://www.thebodyshop.com/en-gb/store-finder", "operatingHours": {"Store": ["Sun: 10:00 - 17:00", "Mon: 09:00 - 17:30", "Tue: 09:00 - 17:30", "Wed: 09:00 - 17:30", "Thu: 09:00 - 17:30", "Fri: 09:00 - 17:30", "Sat: 09:00 - 17:30"]}, "chain_id": "8201", "chain_name": "THE BODY SHOP เดอะบอดี้ช็อป"}, "geometry": {"type": "Point", "coordinates": [-2.075489, 51.899141]}},
{"type": "Feature", "id": "BIOxf0P2D_guAZia-l4hTpon8ZA=", "properties": {"ref": "b9968605b8bc4af68f1e15801a5d0078", "@spider": "the_body_shop_irl_dpa", "addr:full": "5 Iron Gate,  The Shambles, CHESTERFIELD, Derbyshire, S40 1PT, United Kingdom", "addr:city": "CHESTERFIELD", "addr:state": "Derbyshire", "addr:postcode": "S40 1PT", "phones": {"Store": ["01246 221695"]}, "email": {"Customer Service": []}, "website": "https://www.thebodyshop.com/en-gb/store-finder", "operatingHours": {"Store": ["Sun:  - ", "Mon: 09:00 - 17:00", "Tue: 09:00 - 17:00", "Wed: 09:00 - 17:00", "Thu: 09:00 - 17:00", "Fri: 09:00 - 17:00", "Sat: 09:00 - 17:00"]}, "chain_id": "8201", "chain_name": "THE BODY SHOP เดอะบอดี้ช็อป"}, "geometry": {"type": "Point", "coordinates": [-1.4277388, 53.2354833]}},
{"type": "Feature", "id": "5k2NP6wCuNUPrLbVDjBbvSvEdPg=", "properties": {"ref": "45fe4311534e47a08e2f8b08f8a92d24", "@spider": "the_body_shop_irl_dpa", "addr:full": "34-35 East Street, CHICHESTER, West Sussex, PO19 1HS, United Kingdom", "addr:city": "CHICHESTER", "addr:state": "West Sussex", "addr:postcode": "PO19 1HS", "phones": {"Store": ["01243 781696"]}, "email": {"Customer Service": []}, "website": "https://www.thebodyshop.com/en-gb/store-finder", "operatingHours": {"Store": ["Sun: 10:00 - 16:00", "Mon: 09:00 - 17:30", "Tue: 09:00 - 17:30", "Wed: 09:00 - 17:30", "Thu: 09:00 - 17:30", "Fri: 09:00 - 17:30", "Sat: 09:00 - 17:30"]}, "chain_id": "8201", "chain_name": "THE BODY SHOP เดอะบอดี้ช็อป"}, "geometry": {"type": "Point", "coordinates": [-0.7762312, 50.8363903]}},
{"type": "Feature", "id": "yAJxRMe6wP3hQ1vCctmXiMXzwGQ=", "properties": {"ref": "500a920510174ca09dd94ce4af4a477c", "@spider": "the_body_shop_irl_dpa", "addr:full": "14 Lion Walk, COLCHESTER, Essex, CO1 1LX, United Kingdom", "addr:city": "COLCHESTER", "addr:state": "Essex", "addr:postcode": "CO1 1LX", "phones": {"Store": ["01206 571241"]}, "email": {"Customer Service": []}, "website": "https://www.thebodyshop.com/en-gb/store-finder", "operatingHours": {"Store": ["Sun: 10:00 - 16:00", "Mon: 09:00 - 17:30", "Tue: 09:00 - 17:30", "Wed: 09:00 - 17:30", "Thu: 09:00 - 17:30", "Fri: 09:00 - 17:30", "Sat: 09:00 - 17:30"]}, "chain_id": "8201", "chain_name": "THE BODY SHOP เดอะบอดี้ช็อป"}, "geometry": {"type": "Point", "coordinates": [0.9008073, 51.8885217]}},
{"type": "Feature", "id": "YZhRosFe5DAYCjwHAKTcYl1HIOs=", "properties": {"ref": "6a64cc1f016441938db17f219ac98814", "@spider": "the_body_shop_irl_dpa", "addr:full": "Unit 2 West Orchard Shopping Centre, Smithford ayW, COVENTRY, Warwickshire, CV1 1QX, United Kingdom", "addr:city": "COVENTRY", "addr:state": "Warwickshire", "addr:postcode": "CV1 1QX", "phones": {"Store": ["024 7663 1523"]}, "email": {"Customer Service": []}, "website": "https://www.thebodyshop.com/en-gb/store-finder", "operatingHours": {"Store": ["Sun: 10:30 - 16:30", "Mon: 09:00 - 17:30", "Tue: 09:00 - 17:30", "Wed: 09:00 - 17:30", "Thu: 09:00 - 17:30", "Fri: 09:00 - 17:30", "Sat: 09:00 - 17:30"]}, "chain_id": "8201", "chain_name": "THE BODY SHOP เดอะบอดี้ช็อป"}, "geometry": {"type": "Point", "coordinates": [-1.512639, 52.4090697]}},
{"type": "Feature", "id": "o4dYuiGB-lKT8bNn6OL8hstBVJo=", "properties": {"ref": "c87b5b2a6d624366a7eca3adf6de5a5c", "@spider": "the_body_shop_irl_dpa", "addr:full": "Unit 28 Lower Level, The Mall, Cribbs Causeway, BRISTOL, Gloucestershire, BS34 5GF, United Kingdom", "addr:city": "BRISTOL", "addr:state": "Gloucestershire", "addr:postcode": "BS34 5GF", "phones": {"Store": ["0117 950 7879"]}, "email": {"Customer Service": []}, "website": "https://www.thebodyshop.com/en-gb/store-finder", "operatingHours": {"Store": ["Sun: 11:00 - 17:00", "Mon: 09:30 - 20:00", "Tue: 09:30 - 20:00", "Wed: 09:30 - 20:00", "Thu: 09:30 - 20:00", "Fri: 09:30 - 20:00", "Sat: 09:00 - 20:00"]}, "chain_id": "8201", "chain_name": "THE BODY SHOP เดอะบอดี้ช็อป"}, "geometry": {"type": "Point", "coordinates": [-2.5944712, 51.5245764]}},
{"type": "Feature", "id": "ezmAWXOj7s6BaS2k0Z4ZCpBYLsM=", "properties": {"ref": "88f9b82c1ef9436fb33d815ed928a48c", "@spider": "the_body_shop_irl_dpa", "addr:full": "Unit L37 Phase 5 Merry Hill Centre, Brierley Hill,, DUDLEY, West Midlands, DY5 1SY, United Kingdom", "addr:city": "DUDLEY", "addr:state": "West Midlands", "addr:postcode": "DY5 1SY", "phones": {"Store": ["01384 70256"]}, "email": {"Customer Service": []}, "website": "https://www.thebodyshop.com/en-gb/store-finder", "operatingHours": {"Store": ["Sun: 11:00 - 17:00", "Mon: 09:00 - 21:00", "Tue: 09:00 - 21:00", "Wed: 09:00 - 21:00", "Thu: 09:00 - 21:00", "Fri: 09:00 - 21:00", "Sat: 09:00 - 19:00"]}, "chain_id": "8201", "chain_name": "THE BODY SHOP เดอะบอดี้ช็อป"}, "geometry": {"type": "Point", "coordinates": [-2.111312, 52.481343]}},
{"type": "Feature", "id": "iS_X3hu3xSP3t8_JcBibEvOn8bE=", "properties": {"ref": "e79643238c4542d09fbda8511f2a14b3", "@spider": "the_body_shop_irl_dpa", "addr:full": "1 Murraygate, DUNDEE, Angus, DD1 2EE, United Kingdom", "addr:city": "DUNDEE", "addr:state": "Angus", "addr:postcode": "DD1 2EE", "phones": {"Store": ["01382 221259"]}, "email": {"Customer Service": []}, "website": "https://www.thebodyshop.com/en-gb/store-finder", "operatingHours": {"Store": ["Sun: 11:00 - 17:00", "Mon: 09:00 - 17:30", "Tue: 09:00 - 17:30", "Wed: 09:00 - 17:30", "Thu: 09:00 - 17:30", "Fri: 09:00 - 17:30", "Sat: 09:00 - 17:30"]}, "chain_id": "8201", "chain_name": "THE BODY SHOP เดอะบอดี้ช็อป"}, "geometry": {"type": "Point", "coordinates": [-2.9685548, 56.4618361]}},
{"type": "Feature", "id": "SBfsIMoA6nx2vqdx3Jc810TsLEs=", "properties": {"ref": "74d3c93f764642188cbf605336956bd6", "@spider": "the_body_shop_irl_dpa", "addr:full": "56 The Broadway, EALING, LONDON, W5 5JN, United Kingdom", "addr:city": "EALING", "addr:state": "LONDON", "addr:postcode": "W5 5JN", "phones": {"Store": ["020 8840 9169"]}, "email": {"Customer Service": []}, "website": "https://www.thebodyshop.com/en-gb/store-finder", "operatingHours": {"Store": ["Sun: 11:00 - 16:00", "Mon: 10:00 - 18:00", "Tue: 09:30 - 19:00", "Wed: 09:30 - 19:00", "Thu: 09:30 - 19:00", "Fri: 09:30 - 19:00", "Sat: 09:30 - 19:00"]}, "chain_id": "8201", "chain_name": "THE BODY SHOP เดอะบอดี้ช็อป"}, "geometry": {"type": "Point", "coordinates": [-0.3030625, 51.5135714]}},
{"type": "Feature", "id": "6xVCMcw9wg-lSxmeimWDY7AvhIk=", "properties": {"ref": "9086f3e2a48a4655beca7c165cdc21d3", "@spider": "the_body_shop_irl_dpa", "addr:full": "132 Terminus Road, EASTBOURNE, East Sussex, BN21 3AN, United Kingdom", "addr:city": "EASTBOURNE", "addr:state": "East Sussex", "addr:postcode": "BN21 3AN", "phones": {"Store": ["01323 639690"]}, "email": {"Customer Service": []}, "website": "https://www.thebodyshop.com/en-gb/store-finder", "operatingHours": {"Store": ["Sun: 10:00 - 16:00", "Mon: 09:00 - 17:30", "Tue: 09:00 - 17:30", "Wed: 09:00 - 17:30", "Thu: 09:00 - 17:30", "Fri: 09:00 - 17:30", "Sat: 09:00 - 17:30"]}, "chain_id": "8201", "chain_name": "THE BODY SHOP เดอะบอดี้ช็อป"}, "geometry": {"type": "Point", "coordinates": [0.2860348, 50.7682691]}},
{"type": "Feature", "id": "5wden7HGJOrmnXUB6IKzzo-kDnE=", "properties": {"ref": "1b5bbdcf517d493c8ec3d5a67efac6e5", "@spider": "the_body_shop_irl_dpa", "addr:full": "36 Palace Gardens Shopping Centre, ENFIELD, Middlesex, EN2 6SN, United Kingdom", "addr:city": "ENFIELD", "addr:state": "Middlesex", "addr:postcode": "EN2 6SN", "phones": {"Store": ["020 8367 6847"]}, "email": {"Customer Service": []}, "website": "https://www.thebodyshop.com/en-gb/store-finder", "operatingHours": {"Store": ["Sun: 10:30 - 16:30", "Mon: 09:00 - 17:30", "Tue: 09:00 - 17:30", "Wed: 09:00 - 17:30", "Thu: 09:00 - 17:30", "Fri: 09:00 - 17:30", "Sat: 09:00 - 17:30"]}, "chain_id": "8201", "chain_name": "THE BODY SHOP เดอะบอดี้ช็อป"}, "geometry": {"type": "Point", "coordinates": [-0.08331559999999999, 51.65118709999999]}},
{"type": "Feature", "id": "71ac1iclN4RnQuVtN1WH-SX3wXw=", "properties": {"ref": "ba27ff44edcc4817a171d227a2fa953e", "@spider": "the_body_shop_irl_dpa", "addr:full": "UNIT 5 Guildhall Shopping Centre, EXETER, EX4 3HP, United Kingdom", "addr:city": "UNIT 5 Guildhall Shopping Centre", "addr:state": "EXETER", "addr:postcode": "EX4 3HP", "phones": {"Store": ["01392 203300"]}, "email": {"Customer Service": []}, "website": "https://www.thebodyshop.com/en-gb/store-finder", "operatingHours": {"Store": ["Sun: 10:30 - 16:30", "Mon: 09:00 - 18:00", "Tue: 09:00 - 18:00", "Wed: 09:00 - 18:00", "Thu: 09:00 - 18:00", "Fri: 09:00 - 18:00", "Sat: 09:00 - 18:00"]}, "chain_id": "8201", "chain_name": "THE BODY SHOP เดอะบอดี้ช็อป"}, "geometry": {"type": "Point", "coordinates": [-3.5327083, 50.72349029999999]}},
{"type": "Feature", "id": "XiG_wRLU9zOIGlmDMeoENJiqLxQ=", "properties": {"ref": "ca44604ba9524360814a03dbe9660d67", "@spider": "the_body_shop_irl_dpa", "addr:full": "Unit 13a Foyleside ShoppingCentre,  Orchard Street, DERRY, Co. Londonderry, BT48 6AW, United Kingdom", "addr:city": "DERRY", "addr:state": "Co. Londonderry", "addr:postcode": "BT48 6AW", "phones": {"Store": ["028 7130 8804"]}, "email": {"Customer Service": []}, "website": "https://www.thebodyshop.com/en-gb/store-finder", "operatingHours": {"Store": ["Sun: 13:00 - 18:00", "Mon: 09:00 - 18:00", "Tue: 09:00 - 18:00", "Wed: 09:00 - 21:00", "Thu: 09:00 - 21:00", "Fri: 09:00 - 21:00", "Sat: 09:00 - 19:00"]}, "chain_id": "8201", "chain_name": "THE BODY SHOP เดอะบอดี้ช็อป"}, "geometry": {"type": "Point", "coordinates": [-7.3188157, 54.9950171]}},
{"type": "Feature", "id": "fgq9ipgh6wT4iqaUpVi1MaM0oRA=", "properties": {"ref": "2a7a8700e0b34c0caeb76964672d489c", "@spider": "the_body_shop_irl_dpa", "addr:full": "Unit 46 St Enoch Shopping Centre, Argyle Street, GLASGOW, Lanarkshire, G1 4BW, United Kingdom", "addr:city": "GLASGOW", "addr:state": "Lanarkshire", "addr:postcode": "G1 4BW", "phones": {"Store": ["0141 248 1969"]}, "email": {"Customer Service": []}, "website": "https://www.thebodyshop.com/en-gb/store-finder", "operatingHours": {"Store": ["Sun: 10:00 - 18:00", "Mon: 09:00 - 18:30", "Tue: 09:00 - 18:30", "Wed: 09:00 - 18:30", "Thu: 09:00 - 18:30", "Fri: 09:00 - 18:30", "Sat: 09:00 - 18:30"]}, "chain_id": "8201", "chain_name": "THE BODY SHOP เดอะบอดี้ช็อป"}, "geometry": {"type": "Point", "coordinates": [-4.253755, 55.85678]}},
{"type": "Feature", "id": "aMca94ZnH5HcI9gnCAblHhQgN7E=", "properties": {"ref": "667d6fe70c3a4d64a5e09be0590d4d48", "@spider": "the_body_shop_irl_dpa", "addr:full": "17 Eastgate Street, GLOUCESTER, Gloucestershire, GL1 1NS, United Kingdom", "addr:city": "GLOUCESTER", "addr:state": "Gloucestershire", "addr:postcode": "GL1 1NS", "phones": {"Store": ["01452 308927"]}, "email": {"Customer Service": []}, "website": "https://www.thebodyshop.com/en-gb/store-finder", "operatingHours": {"Store": ["Sun: 10:30 - 16:00", "Mon: 09:00 - 17:30", "Tue: 09:00 - 17:30", "Wed: 09:00 - 17:30", "Thu: 09:00 - 17:30", "Fri: 09:00 - 17:30", "Sat: 09:00 - 17:30"]}, "chain_id": "8201", "chain_name": "THE BODY SHOP เดอะบอดี้ช็อป"}, "geometry": {"type": "Point", "coordinates": [-2.2449933, 51.8650192]}},
{"type": "Feature", "id": "i-3sgf5sYxmVoTI-ACxyLfbQCOA=", "properties": {"ref": "db3893924df541c2b0ebb747d2e7550a", "@spider": "the_body_shop_irl_dpa", "addr:full": "Unit G96 Victoria Shopping Centre, Market Place,, HARROGATE, North Yorkshire, HG1 1AE, United Kingdom", "addr:city": "HARROGATE", "addr:state": "North Yorkshire", "addr:postcode": "HG1 1AE", "phones": {"Store": ["01423 536582"]}, "email": {"Customer Service": []}, "website": "https://www.thebodyshop.com/en-gb/store-finder", "operatingHours": {"Store": ["Sun: 10:30 - 16:30", "Mon: 10:00 - 17:30", "Tue: 10:00 - 17:30", "Wed: 10:00 - 17:30", "Thu: 10:00 - 17:30", "Fri: 10:00 - 17:30", "Sat: 09:00 - 17:30"]}, "chain_id": "8201", "chain_name": "THE BODY SHOP เดอะบอดี้ช็อป"}, "geometry": {"type": "Point", "coordinates": [-1.539378, 53.992949]}},
{"type": "Feature", "id": "ZFzk9VkaZ3eECn7akf2mKE7XJTo=", "properties": {"ref": "2fb321ef278c4af7b7bbc1f2dc66aa34", "@spider": "the_body_shop_irl_dpa", "addr:full": "55 St.Ann's Road, HARROW, Middlesex, HA1 1JU, United Kingdom", "addr:city": "HARROW", "addr:state": "Middlesex", "addr:postcode": "HA1 1JU", "phones": {"Store": ["020 8426 0960"]}, "email": {"Customer Service": []}, "website": "https://www.thebodyshop.com/en-gb/store-finder", "operatingHours": {"Store": ["Sun: 11:00 - 17:00", "Mon: 09:30 - 18:00", "Tue: 09:30 - 18:00", "Wed: 09:30 - 18:00", "Thu: 09:30 - 18:00", "Fri: 09:30 - 18:00", "Sat: 09:30 - 18:00"]}, "chain_id": "8201", "chain_name": "THE BODY SHOP เดอะบอดี้ช็อป"}, "geometry": {"type": "Point", "coordinates": [-0.3376325, 51.5813783]}},
{"type": "Feature", "id": "FrcioCei5BGn47wGbFicAd6TOhU=", "properties": {"ref": "76925dc6907c4a04a463c69ac64b0cb5", "@spider": "the_body_shop_irl_dpa", "addr:full": "Unit 36 A1 Galleria,  Comet Way, HATFIELD, Hertfordshire, AL10 9TF, United Kingdom", "addr:city": "HATFIELD", "addr:state": "Hertfordshire", "addr:postcode": "AL10 9TF", "phones": {"Store": ["01707 276546"]}, "email": {"Customer Service": []}, "website": "https://www.thebodyshop.com/en-gb/store-finder", "operatingHours": {"Store": ["Sun: 11:00 - 17:00", "Mon: 10:00 - 20:00", "Tue: 10:00 - 20:00", "Wed: 10:00 - 20:00", "Thu: 10:00 - 20:00", "Fri: 10:00 - 20:00", "Sat: 10:00 - 18:00"]}, "chain_id": "8201", "chain_name": "THE BODY SHOP เดอะบอดี้ช็อป"}, "geometry": {"type": "Point", "coordinates": [-0.2410164, 51.76119540000001]}},
{"type": "Feature", "id": "MHkbOpXcFv5YUmfaEwscDyCTByU=", "properties": {"ref": "ccab10f14ac145689ae271fdd31ae5f4", "@spider": "the_body_shop_irl_dpa", "addr:full": "36 Swan Walk Shopping Centre, HORSHAM, RH12 1NW, United Kingdom", "addr:city": "36 Swan Walk Shopping Centre", "addr:state": "HORSHAM", "addr:postcode": "RH12 1NW", "phones": {"Store": ["01403 259172"]}, "email": {"Customer Service": []}, "website": "https://www.thebodyshop.com/en-gb/store-finder", "operatingHours": {"Store": ["Sun: 11:00 - 16:00", "Mon: 10:00 - 17:00", "Tue: 10:00 - 17:00", "Wed: 10:00 - 17:00", "Thu: 10:00 - 17:00", "Fri: 10:00 - 17:00", "Sat: 09:00 - 17:30"]}, "chain_id": "8201", "chain_name": "THE BODY SHOP เดอะบอดี้ช็อป"}, "geometry": {"type": "Point", "coordinates": [-0.329716, 51.0633083]}},
{"type": "Feature", "id": "Yz5z5DlrctZq-qkgRQOJZ7axis0=", "properties": {"ref": "469c8f957c7d43b0b1d1e1bd30d6c4ce", "@spider": "the_body_shop_irl_dpa", "addr:full": "22 George Street, HOVE, BN3 3YA, United Kingdom", "addr:city": "22 George Street", "addr:state": "HOVE", "addr:postcode": "BN3 3YA", "phones": {"Store": ["01273 724481"]}, "email": {"Customer Service": []}, "website": "https://www.thebodyshop.com/en-gb/store-finder", "operatingHours": {"Store": ["Sun:  - ", "Mon: 09:00 - 17:00", "Tue: 09:00 - 17:00", "Wed: 09:00 - 17:00", "Thu: 09:00 - 17:00", "Fri: 09:00 - 17:00", "Sat: 09:00 - 17:00"]}, "chain_id": "8201", "chain_name": "THE BODY SHOP เดอะบอดี้ช็อป"}, "geometry": {"type": "Point", "coordinates": [-0.1733864, 50.8292994]}},
{"type": "Feature", "id": "O0UcrBYSegjYja304ToLN_D4Dbs=", "properties": {"ref": "bbb2538d6fcc480a94b2e585d757e8ed", "@spider": "the_body_shop_irl_dpa", "addr:full": "40a Eastgate Shopping Centre, INVERNESS, Inverness-shire, IV2 3PP, United Kingdom", "addr:city": "INVERNESS", "addr:state": "Inverness-shire", "addr:postcode": "IV2 3PP", "phones": {"Store": ["01463 236086"]}, "email": {"Customer Service": []}, "website": "https://www.thebodyshop.com/en-gb/store-finder", "operatingHours": {"Store": ["Sun: 11:00 - 17:00", "Mon: 09:00 - 17:30", "Tue: 09:00 - 17:30", "Wed: 09:00 - 17:30", "Thu: 09:00 - 17:30", "Fri: 09:00 - 17:30", "Sat: 09:00 - 17:30"]}, "chain_id": "8201", "chain_name": "THE BODY SHOP เดอะบอดี้ช็อป"}, "geometry": {"type": "Point", "coordinates": [-4.2200544, 57.4791849]}},
{"type": "Feature", "id": "nNCU7FSqviZfyCWJNXkE8BkI9-c=", "properties": {"ref": "7b5d4348e2f34ecf88b2b7dc9617a4c1", "@spider": "the_body_shop_irl_dpa", "addr:full": "63 Clarence Street, KINGSTON UPON THAMES, Surrey, KT1 1RB, United Kingdom", "addr:city": "KINGSTON UPON THAMES", "addr:state": "Surrey", "addr:postcode": "KT1 1RB", "phones": {"Store": ["020 8549 3267"]}, "email": {"Customer Service": []}, "website": "https://www.thebodyshop.com/en-gb/store-finder", "operatingHours": {"Store": ["Sun: 10:30 - 17:30", "Mon: 09:30 - 18:00", "Tue: 09:30 - 18:00", "Wed: 09:30 - 18:00", "Thu: 09:30 - 19:00", "Fri: 09:30 - 18:00", "Sat: 09:30 - 18:00"]}, "chain_id": "8201", "chain_name": "THE BODY SHOP เดอะบอดี้ช็อป"}, "geometry": {"type": "Point", "coordinates": [-0.3031054, 51.41091720000001]}},
{"type": "Feature", "id": "SMGYQQUMHJ855Vqpr-I9qytwP60=", "properties": {"ref": "ed9d2763761045cb975a1cdc0223f41f", "@spider": "the_body_shop_irl_dpa", "addr:full": "4-6  Market Street, LANCASTER, Lancashire, LA1 1HT, United Kingdom", "addr:city": "LANCASTER", "addr:state": "Lancashire", "addr:postcode": "LA1 1HT", "phones": {"Store": ["01524 62552"]}, "email": {"Customer Service": []}, "website": "https://www.thebodyshop.com/en-gb/store-finder", "operatingHours": {"Store": ["Sun: 11:00 - 16:00", "Mon: 09:30 - 17:00", "Tue: 09:30 - 17:00", "Wed: 09:30 - 17:00", "Thu: 09:30 - 19:00", "Fri: 09:30 - 17:00", "Sat: 09:30 - 17:30"]}, "chain_id": "8201", "chain_name": "THE BODY SHOP เดอะบอดี้ช็อป"}, "geometry": {"type": "Point", "coordinates": [-2.8003528, 54.0488411]}},
{"type": "Feature", "id": "4jKMb9ip2EUVROyfV819eUMwiKc=", "properties": {"ref": "e767245c59bb445ca775827c3f44f752", "@spider": "the_body_shop_irl_dpa", "addr:full": "39 The Parade, LEAMINGTON SPA, Warwickshire, CV32 4BL, United Kingdom", "addr:city": "LEAMINGTON SPA", "addr:state": "Warwickshire", "addr:postcode": "CV32 4BL", "phones": {"Store": ["01926 313343"]}, "email": {"Customer Service": []}, "website": "https://www.thebodyshop.com/en-gb/store-finder", "operatingHours": {"Store": ["Sun: 10:30 - 16:30", "Mon: 09:00 - 17:30", "Tue: 09:00 - 17:30", "Wed: 09:00 - 17:30", "Thu: 09:00 - 17:30", "Fri: 09:00 - 17:30", "Sat: 09:00 - 17:30"]}, "chain_id": "8201", "chain_name": "THE BODY SHOP เดอะบอดี้ช็อป"}, "geometry": {"type": "Point", "coordinates": [-1.5354907, 52.2916514]}},
{"type": "Feature", "id": "u5iK0cbXlbmd7vzE8pI9_JrPJTo=", "properties": {"ref": "9515edcab1534bf7b38fb94fa5e87d26", "@spider": "the_body_shop_irl_dpa", "addr:full": "64 Briggate, LEEDS, West Yorkshire, LS1 6LH, United Kingdom", "addr:city": "LEEDS", "addr:state": "West Yorkshire", "addr:postcode": "LS1 6LH", "phones": {"Store": ["0113 245 8482"]}, "email": {"Customer Service": []}, "website": "https://www.thebodyshop.com/en-gb/store-finder", "operatingHours": {"Store": ["Sun: 11:00 - 17:00", "Mon: 09:30 - 18:00", "Tue: 09:30 - 18:00", "Wed: 09:30 - 18:00", "Thu: 09:30 - 18:00", "Fri: 09:30 - 18:00", "Sat: 09:00 - 19:00"]}, "chain_id": "8201", "chain_name": "THE BODY SHOP เดอะบอดี้ช็อป"}, "geometry": {"type": "Point", "coordinates": [-1.5427117, 53.7979295]}},
{"type": "Feature", "id": "WLMCA6v3jC1QBXbMpv8LwnkPLao=", "properties": {"ref": "de0f5b323e2b4a5e9a67e5a5bb39eb3c", "@spider": "the_body_shop_irl_dpa", "addr:full": "3 Victoria Centre, Mostyn Street, LLANDUDNO,  Conwyn, LL30 2RH, United Kingdom", "addr:city": "LLANDUDNO", "addr:state": "Conwyn", "addr:postcode": "LL30 2RH", "phones": {"Store": ["01492 872118"]}, "email": {"Customer Service": []}, "website": "https://www.thebodyshop.com/en-gb/store-finder", "operatingHours": {"Store": ["Sun: 10:30 - 16:30", "Mon: 09:00 - 17:30", "Tue: 09:00 - 17:30", "Wed: 09:00 - 17:30", "Thu: 09:00 - 17:30", "Fri: 09:00 - 17:30", "Sat: 09:00 - 17:30"]}, "chain_id": "8201", "chain_name": "THE BODY SHOP เดอะบอดี้ช็อป"}, "geometry": {"type": "Point", "coordinates": [-3.828435799999999, 53.3233752]}},
{"type": "Feature", "id": "7XZ1NUR548JT6s2hvAO28ZYqzwk=", "properties": {"ref": "723e1e0268c24509b1adc63a05217176", "@spider": "the_body_shop_irl_dpa", "addr:full": "Unit 24 Fremlin Walk, MAIDSTONE, Kent, ME14 1QP, United Kingdom", "addr:city": "MAIDSTONE", "addr:state": "Kent", "addr:postcode": "ME14 1QP", "phones": {"Store": ["01622 673573"]}, "email": {"Customer Service": []}, "website": "https://www.thebodyshop.com/en-gb/store-finder", "operatingHours": {"Store": ["Sun: 10:30 - 16:30", "Mon: 09:00 - 17:30", "Tue: 09:00 - 17:30", "Wed: 09:00 - 17:30", "Thu: 09:00 - 17:30", "Fri: 09:00 - 17:30", "Sat: 09:00 - 17:30"]}, "chain_id": "8201", "chain_name": "THE BODY SHOP เดอะบอดี้ช็อป"}, "geometry": {"type": "Point", "coordinates": [0.5205697, 51.275056]}},
{"type": "Feature", "id": "xUlRNd0hctFnaXQDvl0X86_vfhg=", "properties": {"ref": "a03326a4d6e045ad848481d5bd750681", "@spider": "the_body_shop_irl_dpa", "addr:full": "G20-G22 Royal Exchange Shopping Centre, MANCHESTER, Lancashire, M2 7TT, United Kingdom", "addr:city": "MANCHESTER", "addr:state": "Lancashire", "addr:postcode": "M2 7TT", "phones": {"Store": ["0161 834 4203"]}, "email": {"Customer Service": []}, "website": "https://www.thebodyshop.com/en-gb/store-finder", "operatingHours": {"Store": ["Sun: 11:00 - 17:00", "Mon: 10:00 - 19:00", "Tue: 10:00 - 19:00", "Wed: 10:00 - 19:00", "Thu: 10:00 - 19:00", "Fri: 10:00 - 19:00", "Sat: 10:00 - 19:00"]}, "chain_id": "8201", "chain_name": "THE BODY SHOP เดอะบอดี้ช็อป"}, "geometry": {"type": "Point", "coordinates": [-2.241795, 53.483014]}},
{"type": "Feature", "id": "Yaf-FAphdmKqwbUfsl9_aE4GIPQ=", "properties": {"ref": "4fc86305ae2a4896aacea01c492027fe", "@spider": "the_body_shop_irl_dpa", "addr:full": "28 Barbirolli Mall, The Arndale Shopping Centre, MANCHESTER, Lancashire, M4 2HU, United Kingdom", "addr:city": "MANCHESTER", "addr:state": "Lancashire", "addr:postcode": "M4 2HU", "phones": {"Store": ["0161 834 8767"]}, "email": {"Customer Service": []}, "website": "https://www.thebodyshop.com/en-gb/store-finder", "operatingHours": {"Store": ["Sun: 11:30 - 17:30", "Mon: 09:30 - 20:00", "Tue: 09:30 - 20:00", "Wed: 09:30 - 20:00", "Thu: 09:30 - 20:00", "Fri: 09:30 - 20:00", "Sat: 09:30 - 19:00"]}, "chain_id": "8201", "chain_name": "THE BODY SHOP เดอะบอดี้ช็อป"}, "geometry": {"type": "Point", "coordinates": [-2.241795, 53.483014]}},
{"type": "Feature", "id": "WA6pAfyVqNWC-gp1Zd3NjNrQt5M=", "properties": {"ref": "e36c9bd2abde4e40ba0e872de49ea230", "@spider": "the_body_shop_irl_dpa", "addr:full": "58 High Street, Meadowhall Shopping Centre, SHEFFIELD, Yorkshire, S9 1EN, United Kingdom", "addr:city": "SHEFFIELD", "addr:state": "Yorkshire", "addr:postcode": "S9 1EN", "phones": {"Store": ["0114 256 8460"]}, "email": {"Customer Service": []}, "website": "https://www.thebodyshop.com/en-gb/store-finder", "operatingHours": {"Store": ["Sun: 10:30 - 17:00", "Mon: 10:00 - 21:00", "Tue: 10:00 - 21:00", "Wed: 10:00 - 21:00", "Thu: 10:00 - 21:00", "Fri: 10:00 - 21:00", "Sat: 09:00 - 20:00"]}, "chain_id": "8201", "chain_name": "THE BODY SHOP เดอะบอดี้ช็อป"}, "geometry": {"type": "Point", "coordinates": [-1.4707183, 53.3818666]}},
{"type": "Feature", "id": "LAtHt8O-v2TtoqMChBx4LJCZ778=", "properties": {"ref": "c6dbbefda7f3496fb119cefb7ce9711f", "@spider": "the_body_shop_irl_dpa", "addr:full": "24 Midsummer Arcade, MILTON KEYNES, Buckinghamshire, MK9 3BB, United Kingdom", "addr:city": "MILTON KEYNES", "addr:state": "Buckinghamshire", "addr:postcode": "MK9 3BB", "phones": {"Store": ["01908 661792"]}, "email": {"Customer Service": []}, "website": "https://www.thebodyshop.com/en-gb/store-finder", "operatingHours": {"Store": ["Sun: 11:00 - 17:00", "Mon: 09:30 - 18:30", "Tue: 09:30 - 18:30", "Wed: 09:30 - 18:30", "Thu: 09:30 - 20:00", "Fri: 09:30 - 20:00", "Sat: 09:30 - 19:00"]}, "chain_id": "8201", "chain_name": "THE BODY SHOP เดอะบอดี้ช็อป"}, "geometry": {"type": "Point", "coordinates": [-0.7575782999999999, 52.04214109999999]}},
{"type": "Feature", "id": "AVeFRQtKVHSB1kbEid516yRv2rQ=", "properties": {"ref": "2dc04fa202964bd3a0ebc34d4ac60fab", "@spider": "the_body_shop_irl_dpa", "addr:full": "Unit 1 Blackettbridge, Eldon Square,, NEWCASTLE, Tyne & Wear, NE1 7XJ, United Kingdom", "addr:city": "NEWCASTLE", "addr:state": "Tyne & Wear", "addr:postcode": "NE1 7XJ", "phones": {"Store": ["0191 230 3945"]}, "email": {"Customer Service": []}, "website": "https://www.thebodyshop.com/en-gb/store-finder", "operatingHours": {"Store": ["Sun: 11:00 - 17:00", "Mon: 09:00 - 19:00", "Tue: 09:00 - 19:00", "Wed: 09:00 - 19:00", "Thu: 09:00 - 20:00", "Fri: 09:00 - 19:00", "Sat: 09:00 - 19:00"]}, "chain_id": "8201", "chain_name": "THE BODY SHOP เดอะบอดี้ช็อป"}, "geometry": {"type": "Point", "coordinates": [-1.6159578, 54.9742573]}},
{"type": "Feature", "id": "RQnIA1Tt_GWjyv-h--JOcjIAUqk=", "properties": {"ref": "6e2c1ca0cf614a80a710419ab049fa0f", "@spider": "the_body_shop_irl_dpa", "addr:full": "8 Castle Street, NORWICH, NR2 1PD, United Kingdom", "addr:city": "8 Castle Street", "addr:state": "NORWICH", "addr:postcode": "NR2 1PD", "phones": {"Store": ["01603 617991"]}, "email": {"Customer Service": []}, "website": "https://www.thebodyshop.com/en-gb/store-finder", "operatingHours": {"Store": ["Sun: 10:30 - 16:30", "Mon: 09:00 - 17:30", "Tue: 09:00 - 17:30", "Wed: 09:00 - 17:30", "Thu: 09:00 - 17:30", "Fri: 09:00 - 17:30", "Sat: 09:00 - 17:30"]}, "chain_id": "8201", "chain_name": "THE BODY SHOP เดอะบอดี้ช็อป"}, "geometry": {"type": "Point", "coordinates": [1.2944188, 52.6285801]}},
{"type": "Feature", "id": "3czxwodm0plCvfIY3lCOYl_Z9EU=", "properties": {"ref": "ded89c611bfe41128a15768886dd6dba", "@spider": "the_body_shop_irl_dpa", "addr:full": "8 Bridlesmith Gate, NOTTINGHAM, Nottinghamshire, NG1 2GS, United Kingdom", "addr:city": "NOTTINGHAM", "addr:state": "Nottinghamshire", "addr:postcode": "NG1 2GS", "phones": {"Store": ["0115 947 2907"]}, "email": {"Customer Service": []}, "website": "https://www.thebodyshop.com/en-gb/store-finder", "operatingHours": {"Store": ["Sun: 10:30 - 17:00", "Mon: 09:00 - 18:00", "Tue: 09:00 - 18:00", "Wed: 09:00 - 18:00", "Thu: 09:00 - 18:00", "Fri: 09:00 - 18:00", "Sat: 09:00 - 18:00"]}, "chain_id": "8201", "chain_name": "THE BODY SHOP เดอะบอดี้ช็อป"}, "geometry": {"type": "Point", "coordinates": [-1.1474218, 52.952794]}},
{"type": "Feature", "id": "vYpLRlCQW1_TQUh0jpWYcH0sGDg=", "properties": {"ref": "ef674e9b112f4f91a3d086f5057450d6", "@spider": "the_body_shop_irl_dpa", "addr:full": "28 New George St, PLYMOUTH, PL1 1RW, United Kingdom", "addr:city": "28 New George St", "addr:state": "PLYMOUTH", "addr:postcode": "PL1 1RW", "phones": {"Store": ["01752 203200"]}, "email": {"Customer Service": []}, "website": "https://www.thebodyshop.com/en-gb/store-finder", "operatingHours": {"Store": ["Sun: 10:30 - 16:30", "Mon: 09:00 - 17:30", "Tue: 09:00 - 17:30", "Wed: 09:00 - 17:30", "Thu: 09:00 - 17:30", "Fri: 09:00 - 17:30", "Sat: 09:00 - 18:00"]}, "chain_id": "8201", "chain_name": "THE BODY SHOP เดอะบอดี้ช็อป"}, "geometry": {"type": "Point", "coordinates": [-4.1410848, 50.3715674]}},
{"type": "Feature", "id": "e4lHRdMoHt8IZMTt04inwxH4gdM=", "properties": {"ref": "5293d2960b314d7289ddaf31da46c516", "@spider": "the_body_shop_irl_dpa", "addr:full": "71 The Dolphin Centre, POOLE, Dorset, BH15 1SY, United Kingdom", "addr:city": "POOLE", "addr:state": "Dorset", "addr:postcode": "BH15 1SY", "phones": {"Store": ["01202 678618"]}, "email": {"Customer Service": []}, "website": "https://www.thebodyshop.com/en-gb/store-finder", "operatingHours": {"Store": ["Sun: 10:00 - 16:00", "Mon: 09:00 - 17:30", "Tue: 09:00 - 17:30", "Wed: 09:00 - 17:30", "Thu: 09:00 - 17:30", "Fri: 09:00 - 17:30", "Sat: 09:00 - 17:30"]}, "chain_id": "8201", "chain_name": "THE BODY SHOP เดอะบอดี้ช็อป"}, "geometry": {"type": "Point", "coordinates": [-1.9794154, 50.7181766]}},
{"type": "Feature", "id": "aGvKSZfeCt_c1sZTn3SOFkdzCPQ=", "properties": {"ref": "263da09fbd4d4cb3a32cd399e47fef4e", "@spider": "the_body_shop_irl_dpa", "addr:full": "58 Fishersgate Walk, St George's Shopping Centre, PRESTON, Lancashire, PR1 2NR, United Kingdom", "addr:city": "PRESTON", "addr:state": "Lancashire", "addr:postcode": "PR1 2NR", "phones": {"Store": ["01772 821482"]}, "email": {"Customer Service": []}, "website": "https://www.thebodyshop.com/en-gb/store-finder", "operatingHours": {"Store": ["Sun: 10:30 - 16:30", "Mon: 09:00 - 17:30", "Tue: 09:00 - 17:30", "Wed: 09:00 - 17:30", "Thu: 09:00 - 17:30", "Fri: 09:00 - 17:30", "Sat: 09:00 - 17:30"]}, "chain_id": "8201", "chain_name": "THE BODY SHOP เดอะบอดี้ช็อป"}, "geometry": {"type": "Point", "coordinates": [-2.7018808, 53.7584448]}},
{"type": "Feature", "id": "gUBPwt8oX5FxHN_5mHf86fOf-0o=", "properties": {"ref": "fbb720ebdbe74650a4b7e3c9af8fb651", "@spider": "the_body_shop_irl_dpa", "addr:full": "Unit 24 Oracle Shopping Centre, Bridge Street, READING, Berkshire, RG1 2AG, United Kingdom", "addr:city": "READING", "addr:state": "Berkshire", "addr:postcode": "RG1 2AG", "phones": {"Store": ["0118 956 8945"]}, "email": {"Customer Service": []}, "website": "https://www.thebodyshop.com/en-gb/store-finder", "operatingHours": {"Store": ["Sun: 11:00 - 17:00", "Mon: 09:00 - 20:00", "Tue: 09:00 - 20:00", "Wed: 09:00 - 20:00", "Thu: 09:00 - 20:00", "Fri: 09:00 - 20:00", "Sat: 09:00 - 19:00"]}, "chain_id": "8201", "chain_name": "THE BODY SHOP เดอะบอดี้ช็อป"}, "geometry": {"type": "Point", "coordinates": [-0.9707134999999999, 51.45504889999999]}},
{"type": "Feature", "id": "4WDQEsTGtrpSeE13HrkoJpBcPws=", "properties": {"ref": "7801916d8bc54e13ba2ec42d5666639d", "@spider": "the_body_shop_irl_dpa", "addr:full": "46 South Street, ROMFORD, Essex, RM1 1RB, United Kingdom", "addr:city": "ROMFORD", "addr:state": "Essex", "addr:postcode": "RM1 1RB", "phones": {"Store": ["01708 764808"]}, "email": {"Customer Service": []}, "website": "https://www.thebodyshop.com/en-gb/store-finder", "operatingHours": {"Store": ["Sun: 11:00 - 17:00", "Mon: 09:00 - 17:30", "Tue: 09:00 - 17:30", "Wed: 09:00 - 17:30", "Thu: 09:00 - 17:30", "Fri: 09:00 - 17:30", "Sat: 09:00 - 17:30"]}, "chain_id": "8201", "chain_name": "THE BODY SHOP เดอะบอดี้ช็อป"}, "geometry": {"type": "Point", "coordinates": [0.180882, 51.5777972]}},
{"type": "Feature", "id": "FP1YZZN8GwoNeIGfUbaCH-gRyFI=", "properties": {"ref": "79cc33c782764d7baac9c6a0dfbfb913", "@spider": "the_body_shop_irl_dpa", "addr:full": "12 Orchard Square, SHEFFIELD, S1 2FB, United Kingdom", "addr:city": "12 Orchard Square", "addr:state": "SHEFFIELD", "addr:postcode": "S1 2FB", "phones": {"Store": ["0114 275 4123"]}, "email": {"Customer Service": []}, "website": "https://www.thebodyshop.com/en-gb/store-finder", "operatingHours": {"Store": ["Sun: 11:30 - 16:00", "Mon: 09:30 - 17:30", "Tue: 09:30 - 17:30", "Wed: 09:30 - 17:30", "Thu: 09:30 - 17:30", "Fri: 09:30 - 17:30", "Sat: 09:30 - 18:00"]}, "chain_id": "8201", "chain_name": "THE BODY SHOP เดอะบอดี้ช็อป"}, "geometry": {"type": "Point", "coordinates": [-1.4707183, 53.3818666]}},
{"type": "Feature", "id": "yHHZiQ6Nn7a0XPVUd_I-cYbHKGg=", "properties": {"ref": "050c52263a20415e86177ff94024e04b", "@spider": "the_body_shop_irl_dpa", "addr:full": "Unit 1 Darwin Shopping Centre, Ravens Meadow, SHREWSBURY, Shropshire, SY1 1PL, United Kingdom", "addr:city": "SHREWSBURY", "addr:state": "Shropshire", "addr:postcode": "SY1 1PL", "phones": {"Store": ["01743 368988"]}, "email": {"Customer Service": []}, "website": "https://www.thebodyshop.com/en-gb/store-finder", "operatingHours": {"Store": ["Sun: 11:00 - 16:00", "Mon: 09:30 - 17:30", "Tue: 09:30 - 17:30", "Wed: 09:30 - 17:30", "Thu: 09:30 - 17:30", "Fri: 09:30 - 17:30", "Sat: 09:00 - 17:30"]}, "chain_id": "8201", "chain_name": "THE BODY SHOP เดอะบอดี้ช็อป"}, "geometry": {"type": "Point", "coordinates": [-2.7527628, 52.70898829999999]}},
{"type": "Feature", "id": "HxBW3ZIVaVDJkXIYVI50TSqV_rs=", "properties": {"ref": "2c59dfe10a87499e94d0682b036f22db", "@spider": "the_body_shop_irl_dpa", "addr:full": "22 High Street, SKIPTON, North Yorkshire, BD23 1JZ, United Kingdom", "addr:city": "SKIPTON", "addr:state": "North Yorkshire", "addr:postcode": "BD23 1JZ", "phones": {"Store": ["01756 797741"]}, "email": {"Customer Service": []}, "website": "https://www.thebodyshop.com/en-gb/store-finder", "operatingHours": {"Store": ["Sun: 11:00 - 16:00", "Mon: 09:30 - 17:00", "Tue: 09:30 - 17:00", "Wed: 09:30 - 17:00", "Thu: 09:30 - 17:00", "Fri: 09:30 - 17:00", "Sat: 09:30 - 17:00"]}, "chain_id": "8201", "chain_name": "THE BODY SHOP เดอะบอดี้ช็อป"}, "geometry": {"type": "Point", "coordinates": [-2.0167127, 53.96254020000001]}},
{"type": "Feature", "id": "FRRVD1BosiZhvON8LQG_ZMz5OyM=", "properties": {"ref": "5cee825a6e8148b29028b4a8dba56b2d", "@spider": "the_body_shop_irl_dpa", "addr:full": "Unit 4 Mill Lane, SOLIHULL, West Midlands, B91 3SR, United Kingdom", "addr:city": "SOLIHULL", "addr:state": "West Midlands", "addr:postcode": "B91 3SR", "phones": {"Store": ["0121 704 4732"]}, "email": {"Customer Service": []}, "website": "https://www.thebodyshop.com/en-gb/store-finder", "operatingHours": {"Store": ["Sun: 11:00 - 16:30", "Mon: 09:30 - 17:30", "Tue: 09:30 - 17:30", "Wed: 09:30 - 17:30", "Thu: 09:30 - 17:30", "Fri: 09:30 - 17:30", "Sat: 09:30 - 17:30"]}, "chain_id": "8201", "chain_name": "THE BODY SHOP เดอะบอดี้ช็อป"}, "geometry": {"type": "Point", "coordinates": [-1.7793879, 52.4124038]}},
{"type": "Feature", "id": "ZHhM8uVW4lsfpflnMKNzK5RWDP0=", "properties": {"ref": "5ce8f7626fe74ceca5e3baab20423dee", "@spider": "the_body_shop_irl_dpa", "addr:full": "131 High Street, SOUTHEND ON SEA, Essex, SS1 1LH, United Kingdom", "addr:city": "SOUTHEND ON SEA", "addr:state": "Essex", "addr:postcode": "SS1 1LH", "phones": {"Store": ["01702 335245"]}, "email": {"Customer Service": []}, "website": "https://www.thebodyshop.com/en-gb/store-finder", "operatingHours": {"Store": ["Sun: 10:00 - 16:00", "Mon: 09:00 - 17:30", "Tue: 09:00 - 17:30", "Wed: 09:00 - 17:30", "Thu: 09:00 - 17:30", "Fri: 09:00 - 17:30", "Sat: 09:00 - 17:30"]}, "chain_id": "8201", "chain_name": "THE BODY SHOP เดอะบอดี้ช็อป"}, "geometry": {"type": "Point", "coordinates": [0.7128817, 51.53825519999999]}},
{"type": "Feature", "id": "wDBwpHQIavOsQ02n8l5S-UjCV3U=", "properties": {"ref": "2ae8a7578ce14e618fa3e5c3d6fbdcb7", "@spider": "the_body_shop_irl_dpa", "addr:full": "10 The Maltings, ST ALBANS, Hertfordshire, AL1 3HS, United Kingdom", "addr:city": "ST ALBANS", "addr:state": "Hertfordshire", "addr:postcode": "AL1 3HS", "phones": {"Store": ["01727 855576"]}, "email": {"Customer Service": []}, "website": "https://www.thebodyshop.com/en-gb/store-finder", "operatingHours": {"Store": ["Sun: 11:00 - 16:00", "Mon: 09:00 - 17:30", "Tue: 09:00 - 17:30", "Wed: 09:00 - 17:30", "Thu: 09:00 - 17:30", "Fri: 09:00 - 17:30", "Sat: 09:00 - 17:30"]}, "chain_id": "8201", "chain_name": "THE BODY SHOP เดอะบอดี้ช็อป"}, "geometry": {"type": "Point", "coordinates": [-0.3382995, 51.7515683]}},
{"type": "Feature", "id": "zWx70Ibblty2CTFWPKTvfLVMBVo=", "properties": {"ref": "b1050c281f5749dbaf085e2486feb4b2", "@spider": "the_body_shop_irl_dpa", "addr:full": "Unit 44 - North Mall,  Elmsleigh Shopping Centre,, STAINES, Middlesex, TW18 4QB, United Kingdom", "addr:city": "STAINES", "addr:state": "Middlesex", "addr:postcode": "TW18 4QB", "phones": {"Store": ["01784 461982"]}, "email": {"Customer Service": []}, "website": "https://www.thebodyshop.com/en-gb/store-finder", "operatingHours": {"Store": ["Sun: 10:30 - 16:30", "Mon: 09:00 - 17:30", "Tue: 09:00 - 17:30", "Wed: 09:00 - 17:30", "Thu: 09:00 - 17:30", "Fri: 09:00 - 17:30", "Sat: 09:00 - 17:30"]}, "chain_id": "8201", "chain_name": "THE BODY SHOP เดอะบอดี้ช็อป"}, "geometry": {"type": "Point", "coordinates": [-0.5096303, 51.4334627]}},
{"type": "Feature", "id": "LXhgJVkJyy87nK5N16Cg8Uga4Ic=", "properties": {"ref": "af8e1cdaeedc40c79fa98640fb87a875", "@spider": "the_body_shop_irl_dpa", "addr:full": "8-10 Mersey Way,, STOCKPORT, Cheshire, SK1 1PJ, United Kingdom", "addr:city": "STOCKPORT", "addr:state": "Cheshire", "addr:postcode": "SK1 1PJ", "phones": {"Store": ["0161 480 8528"]}, "email": {"Customer Service": []}, "website": "https://www.thebodyshop.com/en-gb/store-finder", "operatingHours": {"Store": ["Sun: 10:30 - 16:30", "Mon: 09:30 - 17:30", "Tue: 09:30 - 17:30", "Wed: 09:30 - 17:30", "Thu: 09:30 - 17:30", "Fri: 09:30 - 17:30", "Sat: 09:30 - 17:30"]}, "chain_id": "8201", "chain_name": "THE BODY SHOP เดอะบอดี้ช็อป"}, "geometry": {"type": "Point", "coordinates": [-2.158906, 53.412351]}},
{"type": "Feature", "id": "tr2MMlUfNEv-X_4gDca9xvWLeSI=", "properties": {"ref": "eeb5da9b054e4563ab6245dfc9a05b32", "@spider": "the_body_shop_irl_dpa", "addr:full": "69 The Bridges, SUNDERLAND, Tyne & Wear, SR1 3DR, United Kingdom", "addr:city": "SUNDERLAND", "addr:state": "Tyne & Wear", "addr:postcode": "SR1 3DR", "phones": {"Store": ["0191 567 4822"]}, "email": {"Customer Service": []}, "website": "https://www.thebodyshop.com/en-gb/store-finder", "operatingHours": {"Store": ["Sun: 10:00 - 16:00", "Mon: 09:00 - 17:30", "Tue: 09:00 - 17:30", "Wed: 09:00 - 17:30", "Thu: 09:00 - 17:30", "Fri: 09:00 - 17:30", "Sat: 09:00 - 17:30"]}, "chain_id": "8201", "chain_name": "THE BODY SHOP เดอะบอดี้ช็อป"}, "geometry": {"type": "Point", "coordinates": [-1.384546, 54.906026]}},
{"type": "Feature", "id": "lUG6pWHSg5K_ahHHmyDqTMZw4z4=", "properties": {"ref": "7358a4ac60d4483b90ae1c597f32fb2a", "@spider": "the_body_shop_irl_dpa", "addr:full": "115 High Street, SUTTON, Surrey, SM1 1JF, United Kingdom", "addr:city": "SUTTON", "addr:state": "Surrey", "addr:postcode": "SM1 1JF", "phones": {"Store": ["020 8643 5599"]}, "email": {"Customer Service": []}, "website": "https://www.thebodyshop.com/en-gb/store-finder", "operatingHours": {"Store": ["Sun: 10:00 - 16:00", "Mon: 09:00 - 17:30", "Tue: 09:00 - 17:30", "Wed: 09:00 - 17:30", "Thu: 09:00 - 17:30", "Fri: 09:00 - 17:30", "Sat: 09:00 - 17:30"]}, "chain_id": "8201", "chain_name": "THE BODY SHOP เดอะบอดี้ช็อป"}, "geometry": {"type": "Point", "coordinates": [-0.1933274, 51.3631591]}},
{"type": "Feature", "id": "FfIo3AZATpWAQRg5xR-5CCH9uco=", "properties": {"ref": "212d600313dc4cf592316d7c4cc6cf0a", "@spider": "the_body_shop_irl_dpa", "addr:full": "60 High Street, TAUNTON, Somerset, TA1 3PT, United Kingdom", "addr:city": "TAUNTON", "addr:state": "Somerset", "addr:postcode": "TA1 3PT", "phones": {"Store": ["01823 332605"]}, "email": {"Customer Service": []}, "website": "https://www.thebodyshop.com/en-gb/store-finder", "operatingHours": {"Store": ["Sun: 11:00 - 16:00", "Mon: 09:30 - 17:30", "Tue: 09:30 - 17:30", "Wed: 09:30 - 17:30", "Thu: 09:30 - 17:30", "Fri: 09:30 - 17:30", "Sat: 09:00 - 17:30"]}, "chain_id": "8201", "chain_name": "THE BODY SHOP เดอะบอดี้ช็อป"}, "geometry": {"type": "Point", "coordinates": [-3.1035857, 51.01374130000001]}},
{"type": "Feature", "id": "5Qj1ImyCL_OxHCa1s9emKd_G2UI=", "properties": {"ref": "6f26fedeea36406484fce0cd1a7cf3f8", "@spider": "the_body_shop_irl_dpa", "addr:full": "Unit 238 Lakeside Shopping Centre, THURROCK, GRAYS, Essex, RM20 2ZQ, United Kingdom", "addr:city": "GRAYS", "addr:state": "Essex", "addr:postcode": "RM20 2ZQ", "phones": {"Store": ["01708 680778"]}, "email": {"Customer Service": []}, "website": "https://www.thebodyshop.com/en-gb/store-finder", "operatingHours": {"Store": ["Sun: 11:00 - 17:00", "Mon: 10:00 - 21:00", "Tue: 10:00 - 21:00", "Wed: 10:00 - 21:00", "Thu: 10:00 - 21:00", "Fri: 10:00 - 21:00", "Sat: 09:00 - 21:00"]}, "chain_id": "8201", "chain_name": "THE BODY SHOP เดอะบอดี้ช็อป"}, "geometry": {"type": "Point", "coordinates": [0.283053, 51.487996]}},
{"type": "Feature", "id": "_fQutr9lgGzmZRCiDaAeziSIaTk=", "properties": {"ref": "fc82829ce5534ecc83b5c7f38979a521", "@spider": "the_body_shop_irl_dpa", "addr:full": "147 Regent Crescent, Trafford Centre, MANCHESTER, Lancashire, M17 8AR, United Kingdom", "addr:city": "MANCHESTER", "addr:state": "Lancashire", "addr:postcode": "M17 8AR", "phones": {"Store": ["0161 748 2126"]}, "email": {"Customer Service": []}, "website": "https://www.thebodyshop.com/en-gb/store-finder", "operatingHours": {"Store": ["Sun: 11:00 - 18:00", "Mon: 10:00 - 22:00", "Tue: 10:00 - 22:00", "Wed: 10:00 - 22:00", "Thu: 10:00 - 22:00", "Fri: 10:00 - 22:00", "Sat: 10:00 - 21:00"]}, "chain_id": "8201", "chain_name": "THE BODY SHOP เดอะบอดี้ช็อป"}, "geometry": {"type": "Point", "coordinates": [-2.3533942, 53.46739]}},
{"type": "Feature", "id": "V0RpYnpV5zeaMMpC5sVdJkKpxWM=", "properties": {"ref": "771c70bd347e42ed8693e8a8f22df1ac", "@spider": "the_body_shop_irl_dpa", "addr:full": "8 Pydar Street, TRURO, Cornwall, TR1 2AR, United Kingdom", "addr:city": "TRURO", "addr:state": "Cornwall", "addr:postcode": "TR1 2AR", "phones": {"Store": ["01872 262961"]}, "email": {"Customer Service": []}, "website": "https://www.thebodyshop.com/en-gb/store-finder", "operatingHours": {"Store": ["Sun: 10:30 - 16:00", "Mon: 09:00 - 17:30", "Tue: 09:00 - 17:30", "Wed: 09:00 - 17:30", "Thu: 09:00 - 17:30", "Fri: 09:00 - 17:30", "Sat: 09:00 - 17:30"]}, "chain_id": "8201", "chain_name": "THE BODY SHOP เดอะบอดี้ช็อป"}, "geometry": {"type": "Point", "coordinates": [-5.0530778, 50.2642341]}},
{"type": "Feature", "id": "mtnOtREfOObAW3IJj7PqE6ybvGI=", "properties": {"ref": "b5e57c2a440c410fae5ec1efd56c95c6", "@spider": "the_body_shop_irl_dpa", "addr:full": "Unit 79 12 The Mall, Golden Square, WARRINGTON, Cheshire, WA1 1QE, United Kingdom", "addr:city": "WARRINGTON", "addr:state": "Cheshire", "addr:postcode": "WA1 1QE", "phones": {"Store": ["01925 415574"]}, "email": {"Customer Service": []}, "website": "https://www.thebodyshop.com/en-gb/store-finder", "operatingHours": {"Store": ["Sun: 11:00 - 17:00", "Mon: 09:30 - 17:30", "Tue: 09:30 - 17:30", "Wed: 09:30 - 17:30", "Thu: 09:30 - 19:00", "Fri: 09:30 - 17:30", "Sat: 09:00 - 18:00"]}, "chain_id": "8201", "chain_name": "THE BODY SHOP เดอะบอดี้ช็อป"}, "geometry": {"type": "Point", "coordinates": [-2.5950387, 53.3900794]}},
{"type": "Feature", "id": "ru-szFgc_F-esXGJ3uB1ZVYTBcY=", "properties": {"ref": "f124c570c7b14f188988ff96912b28f0", "@spider": "the_body_shop_irl_dpa", "addr:full": "114 Upper Mall, Atria Watford Shopping Centre,, WATFORD, Hertfordshire, WD17 2UB, United Kingdom", "addr:city": "WATFORD", "addr:state": "Hertfordshire", "addr:postcode": "WD17 2UB", "phones": {"Store": ["01923 229511"]}, "email": {"Customer Service": []}, "website": "https://www.thebodyshop.com/en-gb/store-finder", "operatingHours": {"Store": ["Sun: 11:00 - 17:00", "Mon: 09:00 - 18:00", "Tue: 09:00 - 18:00", "Wed: 09:00 - 18:00", "Thu: 09:00 - 18:00", "Fri: 09:00 - 18:00", "Sat: 09:00 - 18:00"]}, "chain_id": "8201", "chain_name": "THE BODY SHOP เดอะบอดี้ช็อป"}, "geometry": {"type": "Point", "coordinates": [-0.3933893, 51.65472459999999]}},
{"type": "Feature", "id": "ek5hCJkmVcrr7AvQETXZPTs8H90=", "properties": {"ref": "bd3df1088265494192b26b7322691443", "@spider": "the_body_shop_irl_dpa", "addr:full": "Unit 58a Lower Level, West Quay Shopping Centre,, SOUTHAMPTON, Hampshire, SO15 1QE, United Kingdom", "addr:city": "SOUTHAMPTON", "addr:state": "Hampshire", "addr:postcode": "SO15 1QE", "phones": {"Store": ["023 8022 4783"]}, "email": {"Customer Service": []}, "website": "https://www.thebodyshop.com/en-gb/store-finder", "operatingHours": {"Store": ["Sun: 11:00 - 17:00", "Mon: 09:00 - 20:00", "Tue: 09:00 - 20:00", "Wed: 09:00 - 20:00", "Thu: 09:00 - 20:00", "Fri: 09:00 - 20:00", "Sat: 09:00 - 19:00"]}, "chain_id": "8201", "chain_name": "THE BODY SHOP เดอะบอดี้ช็อป"}, "geometry": {"type": "Point", "coordinates": [-1.407754, 50.90354199999999]}},
{"type": "Feature", "id": "QB-sbbMSsHJCbJRmyA3xRQ_vkOk=", "properties": {"ref": "f7dd28dcd9a74e35b7c7363240d2f6fe", "@spider": "the_body_shop_irl_dpa", "addr:full": "205a Wimbledon Quarter, Queens Road, WIMBLEDON, LONDON, SW19 8YA, United Kingdom", "addr:city": "WIMBLEDON", "addr:state": "LONDON", "addr:postcode": "SW19 8YA", "phones": {"Store": ["020 8944 7250"]}, "email": {"Customer Service": []}, "website": "https://www.thebodyshop.com/en-gb/store-finder", "operatingHours": {"Store": ["Sun: 11:00 - 17:00", "Mon: 09:30 - 19:00", "Tue: 09:30 - 19:00", "Wed: 09:30 - 19:00", "Thu: 09:30 - 19:00", "Fri: 09:30 - 19:00", "Sat: 09:00 - 18:00"]}, "chain_id": "8201", "chain_name": "THE BODY SHOP เดอะบอดี้ช็อป"}, "geometry": {"type": "Point", "coordinates": [-0.2052441, 51.4212194]}},
{"type": "Feature", "id": "i5q1BiDmwGUjazeqIwU5-R_txpU=", "properties": {"ref": "1fa6f2a61a6948cbaf68bb32144bd4ea", "@spider": "the_body_shop_irl_dpa", "addr:full": "118-121 High Street, WINCHESTER, Hampshire, SO23 9AS, United Kingdom", "addr:city": "WINCHESTER", "addr:state": "Hampshire", "addr:postcode": "SO23 9AS", "phones": {"Store": ["01962 855778"]}, "email": {"Customer Service": []}, "website": "https://www.thebodyshop.com/en-gb/store-finder", "operatingHours": {"Store": ["Sun: 10:30 - 16:30", "Mon: 09:00 - 17:30", "Tue: 09:00 - 17:30", "Wed: 09:00 - 17:30", "Thu: 09:00 - 17:30", "Fri: 09:00 - 17:30", "Sat: 09:00 - 17:30"]}, "chain_id": "8201", "chain_name": "THE BODY SHOP เดอะบอดี้ช็อป"}, "geometry": {"type": "Point", "coordinates": [-1.3138474, 51.0625779]}},
{"type": "Feature", "id": "RbrV3TWskcZGvQ1_ftdiI7NHvO8=", "properties": {"ref": "d17ea5814c62410e848d10acb6db8a84", "@spider": "the_body_shop_irl_dpa", "addr:full": "15-16 Peascod Street, WINDSOR, Berkshire, SL4 1DU, United Kingdom", "addr:city": "WINDSOR", "addr:state": "Berkshire", "addr:postcode": "SL4 1DU", "phones": {"Store": ["01753 855732"]}, "email": {"Customer Service": []}, "website": "https://www.thebodyshop.com/en-gb/store-finder", "operatingHours": {"Store": ["Sun: 11:00 - 17:00", "Mon: 09:00 - 17:30", "Tue: 09:00 - 17:30", "Wed: 09:00 - 17:30", "Thu: 09:00 - 17:30", "Fri: 09:00 - 17:30", "Sat: 09:00 - 17:30"]}, "chain_id": "8201", "chain_name": "THE BODY SHOP เดอะบอดี้ช็อป"}, "geometry": {"type": "Point", "coordinates": [-0.6088420999999999, 51.4819599]}},
{"type": "Feature", "id": "jVQ33qcXgX6J9LGOfHU_d_ZpFsU=", "properties": {"ref": "ddf0a19a577441dd882f574e83432341", "@spider": "the_body_shop_irl_dpa", "addr:full": "Unit C4 Chapelwalk,  Crowngate Shopping Centre, WORCESTER, Worcestershire, WR1 3LD, United Kingdom", "addr:city": "WORCESTER", "addr:state": "Worcestershire", "addr:postcode": "WR1 3LD", "phones": {"Store": ["01905 610641"]}, "email": {"Customer Service": []}, "website": "https://www.thebodyshop.com/en-gb/store-finder", "operatingHours": {"Store": ["Sun: 10:30 - 16:30", "Mon: 09:00 - 17:30", "Tue: 09:00 - 17:30", "Wed: 09:00 - 17:30", "Thu: 09:00 - 17:30", "Fri: 09:00 - 17:30", "Sat: 09:00 - 17:30"]}, "chain_id": "8201", "chain_name": "THE BODY SHOP เดอะบอดี้ช็อป"}, "geometry": {"type": "Point", "coordinates": [-2.224199, 52.193011]}},
{"type": "Feature", "id": "qUxem132ogIzR_U_HN-LcPbuNhU=", "properties": {"ref": "1da91d981cff4b3196a00753cb5e8ffc", "@spider": "the_body_shop_irl_dpa", "addr:full": "80 Montague Street, WORTHING, West Sussex, BN11 3HF, United Kingdom", "addr:city": "WORTHING", "addr:state": "West Sussex", "addr:postcode": "BN11 3HF", "phones": {"Store": ["01903 236563"]}, "email": {"Customer Service": []}, "website": "https://www.thebodyshop.com/en-gb/store-finder", "operatingHours": {"Store": ["Sun: 10:00 - 16:00", "Mon: 09:00 - 17:30", "Tue: 09:00 - 17:30", "Wed: 09:00 - 17:30", "Thu: 09:00 - 17:30", "Fri: 09:00 - 17:30", "Sat: 09:00 - 17:30"]}, "chain_id": "8201", "chain_name": "THE BODY SHOP เดอะบอดี้ช็อป"}, "geometry": {"type": "Point", "coordinates": [-0.3747785, 50.8101872]}},
{"type": "Feature", "id": "IZ4HIZzqYKhMbgpkbWFXuGWYxag=", "properties": {"ref": "1623e94f3e6b43f980f02120223cce0e", "@spider": "the_body_shop_irl_dpa", "addr:full": "8 Coppergate Walk, YORK, Yorkshire, YO1 9NT, United Kingdom", "addr:city": "YORK", "addr:state": "Yorkshire", "addr:postcode": "YO1 9NT", "phones": {"Store": ["01904 654938"]}, "email": {"Customer Service": []}, "website": "https://www.thebodyshop.com/en-gb/store-finder", "operatingHours": {"Store": ["Sun: 11:00 - 17:00", "Mon: 09:00 - 17:30", "Tue: 09:00 - 17:30", "Wed: 09:00 - 17:30", "Thu: 09:00 - 17:30", "Fri: 09:00 - 17:30", "Sat: 09:00 - 17:30"]}, "chain_id": "8201", "chain_name": "THE BODY SHOP เดอะบอดี้ช็อป"}, "geometry": {"type": "Point", "coordinates": [-1.08090435958889, 53.95808064885485]}},
{"type": "Feature", "id": "-Z5PIgGOqJdBvnTJSAIK7VyNKGI=", "properties": {"ref": "a8442fcdc1de41138c5f52136846425a", "@spider": "the_body_shop_irl_dpa", "addr:full": "Unit 42, Designer Outlet York,  St Nicholas Avenue, Fulford,, YORK, Yorkshire, YO19 4TA, United Kingdom", "addr:city": "YORK", "addr:state": "Yorkshire", "addr:postcode": "YO19 4TA", "phones": {"Store": ["01904 638426"]}, "email": {"Customer Service": []}, "website": "https://www.thebodyshop.com/en-gb/store-finder", "operatingHours": {"Store": ["Sun: 10:00 - 18:00", "Mon: 09:30 - 20:00", "Tue: 09:30 - 20:00", "Wed: 09:30 - 20:00", "Thu: 09:30 - 20:00", "Fri: 09:30 - 20:00", "Sat: 09:30 - 20:00"]}, "chain_id": "8201", "chain_name": "THE BODY SHOP เดอะบอดี้ช็อป"}, "geometry": {"type": "Point", "coordinates": [-1.0780551, 53.922491]}},
{"type": "Feature", "id": "iMXERo881cmfE5HyiCUo0ZVwSJM=", "properties": {"ref": "0b3d890d1b9847ecbd3c20531bbc01e1", "@spider": "the_body_shop_irl_dpa", "addr:full": "Unit 40 Whitefriars, CANTERBURY, Kent, CT1 2SJ, United Kingdom", "addr:city": "CANTERBURY", "addr:state": "Kent", "addr:postcode": "CT1 2SJ", "phones": {"Store": ["01227 765513"]}, "email": {"Customer Service": []}, "website": "https://www.thebodyshop.com/en-gb/store-finder", "operatingHours": {"Store": ["Sun: 10:30 - 16:30", "Mon: 09:00 - 17:30", "Tue: 09:00 - 17:30", "Wed: 09:00 - 17:30", "Thu: 09:00 - 17:30", "Fri: 09:00 - 17:30", "Sat: 09:00 - 17:30"]}, "chain_id": "8201", "chain_name": "THE BODY SHOP เดอะบอดี้ช็อป"}, "geometry": {"type": "Point", "coordinates": [1.0806853, 51.27796319999999]}},
{"type": "Feature", "id": "GoCNz8n8lFz7PsCQUJ8njwtuujM=", "properties": {"ref": "bcc07e24cc0248439dc4229cddae595d", "@spider": "the_body_shop_irl_dpa", "addr:full": "Unit LL81 High Cross Quarter, High Street,, LEICESTER, Leicestershire, LE1 4FS, United Kingdom", "addr:city": "LEICESTER", "addr:state": "Leicestershire", "addr:postcode": "LE1 4FS", "phones": {"Store": ["0116 251 8311"]}, "email": {"Customer Service": []}, "website": "https://www.thebodyshop.com/en-gb/store-finder", "operatingHours": {"Store": ["Sun: 11:00 - 17:00", "Mon: 09:30 - 20:00", "Tue: 09:30 - 20:00", "Wed: 09:30 - 20:00", "Thu: 09:30 - 20:00", "Fri: 09:30 - 20:00", "Sat: 09:00 - 19:00"]}, "chain_id": "8201", "chain_name": "THE BODY SHOP เดอะบอดี้ช็อป"}, "geometry": {"type": "Point", "coordinates": [-1.1388276, 52.6369897]}},
{"type": "Feature", "id": "8XhsWeuMq_EXdBwyze2UXQkGEiU=", "properties": {"ref": "3a560f2cbe9d4cf98ac8296da15e2453", "@spider": "the_body_shop_irl_dpa", "addr:full": "Liverpool One, 24 Upper South John Street,, LIVERPOOL, Merseyside, L1 8BJ, United Kingdom", "addr:city": "LIVERPOOL", "addr:state": "Merseyside", "addr:postcode": "L1 8BJ", "phones": {"Store": ["0151 708 7548"]}, "email": {"Customer Service": []}, "website": "https://www.thebodyshop.com/en-gb/store-finder", "operatingHours": {"Store": ["Sun: 11:00 - 17:00", "Mon: 09:30 - 20:00", "Tue: 09:30 - 20:00", "Wed: 09:30 - 20:00", "Thu: 09:30 - 20:00", "Fri: 09:00 - 20:00", "Sat: 09:00 - 19:00"]}, "chain_id": "8201", "chain_name": "THE BODY SHOP เดอะบอดี้ช็อป"}, "geometry": {"type": "Point", "coordinates": [-2.9875746, 53.4039777]}},
{"type": "Feature", "id": "xsl28poP9kZGTahvdPJVhsIVDmY=", "properties": {"ref": "437eb302775546fc92ea2cb995d31fd0", "@spider": "the_body_shop_irl_dpa", "addr:full": "Unit SU238 Derbion Centre, London Road, DERBY, Derbyshire, DE1 2NQ, United Kingdom", "addr:city": "DERBY", "addr:state": "Derbyshire", "addr:postcode": "DE1 2NQ", "phones": {"Store": ["01332 366747"]}, "email": {"Customer Service": []}, "website": "https://www.thebodyshop.com/en-gb/store-finder", "operatingHours": {"Store": ["Sun: 10:30 - 16:30", "Mon: 09:00 - 18:00", "Tue: 09:00 - 18:00", "Wed: 09:00 - 18:00", "Thu: 09:00 - 19:00", "Fri: 09:00 - 19:00", "Sat: 09:00 - 19:00"]}, "chain_id": "8201", "chain_name": "THE BODY SHOP เดอะบอดี้ช็อป"}, "geometry": {"type": "Point", "coordinates": [-1.47311, 52.919285]}},
{"type": "Feature", "id": "VvWxm-UQyAJctncmrAgsiuMubS0=", "properties": {"ref": "d5451fac3d934614bf85f50b6af1e5f1", "@spider": "the_body_shop_irl_dpa", "addr:full": "Unit SU30 Cabot Circus, BRISTOL , Gloucestershire, BS1 3BH, United Kingdom", "addr:city": "BRISTOL", "addr:state": "Gloucestershire", "addr:postcode": "BS1 3BH", "phones": {"Store": ["0117 925 5420"]}, "email": {"Customer Service": []}, "website": "https://www.thebodyshop.com/en-gb/store-finder", "operatingHours": {"Store": ["Sun: 11:00 - 17:00", "Mon: 10:00 - 18:00", "Tue: 10:00 - 19:00", "Wed: 10:00 - 19:00", "Thu: 10:00 - 19:00", "Fri: 10:00 - 19:00", "Sat: 10:00 - 19:00"]}, "chain_id": "8201", "chain_name": "THE BODY SHOP เดอะบอดี้ช็อป"}, "geometry": {"type": "Point", "coordinates": [-2.585232, 51.458333]}},
{"type": "Feature", "id": "BQ2CwPtcABe6MeNZhElXCQEs76I=", "properties": {"ref": "0b26b0da6e3740499463a058b8ba2731", "@spider": "the_body_shop_irl_dpa", "addr:full": "6b Commercial Street, HEREFORD, Herefordshire, HR1 2AJ, United Kingdom", "addr:city": "HEREFORD", "addr:state": "Herefordshire", "addr:postcode": "HR1 2AJ", "phones": {"Store": ["01432 274519"]}, "email": {"Customer Service": []}, "website": "https://www.thebodyshop.com/en-gb/store-finder", "operatingHours": {"Store": ["Sun: 10:00 - 16:00", "Mon: 09:30 - 17:30", "Tue: 09:30 - 17:30", "Wed: 09:30 - 17:30", "Thu: 09:30 - 17:30", "Fri: 09:30 - 17:30", "Sat: 09:00 - 17:30"]}, "chain_id": "8201", "chain_name": "THE BODY SHOP เดอะบอดี้ช็อป"}, "geometry": {"type": "Point", "coordinates": [-2.7145628, 52.0569059]}},
{"type": "Feature", "id": "EZdht5imRupCxajwiD2SADT4tww=", "properties": {"ref": "69f347ad6886485bab1c5c0b24dcc973", "@spider": "the_body_shop_irl_dpa", "addr:full": "Unit 5 The Glades Shopping centre,, BROMLEY, LONDON, BR1 1DN, United Kingdom", "addr:city": "BROMLEY", "addr:state": "LONDON", "addr:postcode": "BR1 1DN", "phones": {"Store": ["020 8460 2379"]}, "email": {"Customer Service": []}, "website": "https://www.thebodyshop.com/en-gb/store-finder", "operatingHours": {"Store": ["Sun: 10:30 - 17:00", "Mon: 10:00 - 17:00", "Tue: 09:00 - 19:00", "Wed: 09:00 - 19:00", "Thu: 09:00 - 19:00", "Fri: 09:00 - 19:00", "Sat: 09:00 - 19:00"]}, "chain_id": "8201", "chain_name": "THE BODY SHOP เดอะบอดี้ช็อป"}, "geometry": {"type": "Point", "coordinates": [0.015992, 51.4030353]}},
{"type": "Feature", "id": "mIeebONqVAfGCNEth59u88ouf_Q=", "properties": {"ref": "a07168526ad642f59668515db878f086", "@spider": "the_body_shop_irl_dpa", "addr:full": "Unit LG04 Kingsgate Centre,  James Street, DUNFERMLINE, Fife, KY12 7QU, United Kingdom", "addr:city": "DUNFERMLINE", "addr:state": "Fife", "addr:postcode": "KY12 7QU", "phones": {"Store": ["01383 740147"]}, "email": {"Customer Service": []}, "website": "https://www.thebodyshop.com/en-gb/store-finder", "operatingHours": {"Store": ["Sun: 11:00 - 16:30", "Mon: 09:30 - 17:30", "Tue: 09:30 - 17:30", "Wed: 09:30 - 17:30", "Thu: 09:30 - 17:30", "Fri: 09:30 - 17:30", "Sat: 09:30 - 17:30"]}, "chain_id": "8201", "chain_name": "THE BODY SHOP เดอะบอดี้ช็อป"}, "geometry": {"type": "Point", "coordinates": [-3.4577625, 56.0727585]}},
{"type": "Feature", "id": "9dvoqr8WPQegaDhJ5yaGdRSTDRE=", "properties": {"ref": "b7433ca06a214ac7b1c14384e0c1cfa5", "@spider": "the_body_shop_irl_dpa", "addr:full": "42 Foregate Street, CHESTER, Cheshire, CH1 1HQ, United Kingdom", "addr:city": "CHESTER", "addr:state": "Cheshire", "addr:postcode": "CH1 1HQ", "phones": {"Store": ["01244 343442"]}, "email": {"Customer Service": []}, "website": "https://www.thebodyshop.com/en-gb/store-finder", "operatingHours": {"Store": ["Sun: 11:00 - 17:00", "Mon: 09:30 - 17:30", "Tue: 09:30 - 17:30", "Wed: 09:30 - 17:30", "Thu: 09:30 - 17:30", "Fri: 09:30 - 17:30", "Sat: 09:30 - 17:30"]}, "chain_id": "8201", "chain_name": "THE BODY SHOP เดอะบอดี้ช็อป"}, "geometry": {"type": "Point", "coordinates": [-2.8867262, 53.19114219999999]}},
{"type": "Feature", "id": "QdnNyCQXWfjdywNxcG77ppqoG3I=", "properties": {"ref": "aa0f255206f64e5cae8d3aa6a26cd456", "@spider": "the_body_shop_irl_dpa", "addr:full": "Unit SU1023 132 The Arcade Ground Floor Level,  Westfield Stratford City,, STRATFORD, LONDON, E20 1EL, United Kingdom", "addr:city": "STRATFORD", "addr:state": "LONDON", "addr:postcode": "E20 1EL", "phones": {"Store": ["020 8221 1424"]}, "email": {"Customer Service": []}, "website": "https://www.thebodyshop.com/en-gb/store-finder", "operatingHours": {"Store": ["Sun: 10:00 - 18:00", "Mon: 10:00 - 21:00", "Tue: 10:00 - 21:00", "Wed: 10:00 - 21:00", "Thu: 10:00 - 21:00", "Fri: 10:00 - 21:00", "Sat: 09:00 - 21:00"]}, "chain_id": "8201", "chain_name": "THE BODY SHOP เดอะบอดี้ช็อป"}, "geometry": {"type": "Point", "coordinates": [-0.0053133, 51.5436683]}},
{"type": "Feature", "id": "rlNTgSkML-E9RRPW07GLdteGVDE=", "properties": {"ref": "9d823a0d473e429ab68be6f0a7439d45", "@spider": "the_body_shop_irl_dpa", "addr:full": "UNIT 21A Springfields Outlet Centre, SPALDING, Lincolnshire, PE12 6ET, United Kingdom", "addr:city": "SPALDING", "addr:state": "Lincolnshire", "addr:postcode": "PE12 6ET", "phones": {"Store": ["01775 722945"]}, "email": {"Customer Service": []}, "website": "https://www.thebodyshop.com/en-gb/store-finder", "operatingHours": {"Store": ["Sun: 10:30 - 17:00", "Mon: 09:30 - 18:00", "Tue: 09:30 - 18:00", "Wed: 09:30 - 18:00", "Thu: 09:30 - 20:00", "Fri: 09:30 - 18:00", "Sat: 09:00 - 18:00"]}, "chain_id": "8201", "chain_name": "THE BODY SHOP เดอะบอดี้ช็อป"}, "geometry": {"type": "Point", "coordinates": [-0.1273793, 52.7993385]}},
{"type": "Feature", "id": "cxSPT-vw7KuhisCf2ECPp7JTr_Y=", "properties": {"ref": "8190ab4082254c5382c10da83068e7ae", "@spider": "the_body_shop_irl_dpa", "addr:full": "Unit no.H11 Junction 32 Outlet Shopping Centre, Tomahawk Trail, Glasshoughton, CASTLEFORD, West Yorkshire, WF10 4FR, United Kingdom", "addr:city": "CASTLEFORD", "addr:state": "West Yorkshire", "addr:postcode": "WF10 4FR", "phones": {"Store": ["01977 519466"]}, "email": {"Customer Service": []}, "website": "https://www.thebodyshop.com/en-gb/store-finder", "operatingHours": {"Store": ["Sun: 11:00 - 17:00", "Mon: 10:00 - 20:00", "Tue: 10:00 - 20:00", "Wed: 10:00 - 20:00", "Thu: 10:00 - 20:00", "Fri: 10:00 - 20:00", "Sat: 10:00 - 18:00"]}, "chain_id": "8201", "chain_name": "THE BODY SHOP เดอะบอดี้ช็อป"}, "geometry": {"type": "Point", "coordinates": [-1.338083, 53.71263399999999]}},
{"type": "Feature", "id": "r1kS4z4GWisO_YcP-Lj-Op7p_DU=", "properties": {"ref": "a6052b39bbba4cb8abc460ba3226c3cd", "@spider": "the_body_shop_irl_dpa", "addr:full": "UNIT B6 Charter Way, Chapel Hill,, BRAINTREE, Essex, CM77 8YH, United Kingdom", "addr:city": "BRAINTREE", "addr:state": "Essex", "addr:postcode": "CM77 8YH", "phones": {"Store": ["01376 330047"]}, "email": {"Customer Service": []}, "website": "https://www.thebodyshop.com/en-gb/store-finder", "operatingHours": {"Store": ["Sun: 10:00 - 17:00", "Mon: 10:00 - 18:00", "Tue: 10:00 - 18:00", "Wed: 10:00 - 18:00", "Thu: 10:00 - 18:00", "Fri: 10:00 - 18:00", "Sat: 09:00 - 19:00"]}, "chain_id": "8201", "chain_name": "THE BODY SHOP เดอะบอดี้ช็อป"}, "geometry": {"type": "Point", "coordinates": [0.5697575, 51.8695942]}},
{"type": "Feature", "id": "hbFPAn1YrrdnS4-ZjwSaEzZjRSk=", "properties": {"ref": "63c084f42afd4aaeb3428650bde45f1f", "@spider": "the_body_shop_irl_dpa", "addr:full": "Unit 111 Ashford Designer Outlet, Kimberley Way,, ASHFORD, Kent, TN24 0SD, United Kingdom", "addr:city": "ASHFORD", "addr:state": "Kent", "addr:postcode": "TN24 0SD", "phones": {"Store": ["01233 637982"]}, "email": {"Customer Service": []}, "website": "https://www.thebodyshop.com/en-gb/store-finder", "operatingHours": {"Store": ["Sun: 10:00 - 18:00", "Mon: 10:00 - 20:00", "Tue: 10:00 - 20:00", "Wed: 10:00 - 20:00", "Thu: 10:00 - 20:00", "Fri: 10:00 - 20:00", "Sat: 09:00 - 20:00"]}, "chain_id": "8201", "chain_name": "THE BODY SHOP เดอะบอดี้ช็อป"}, "geometry": {"type": "Point", "coordinates": [0.8785828999999999, 51.136872]}},
{"type": "Feature", "id": "tQUubFuqtTpHhjbSoH0mV0j16CU=", "properties": {"ref": "3174f3454f3d4d32b11ea4a4115ed9b1", "@spider": "the_body_shop_irl_dpa", "addr:full": "UNIT 6  Wales Designer Outlet Village,, BRIDGEND, Mid Glamorgan, CF32 9SU, United Kingdom", "addr:city": "BRIDGEND", "addr:state": "Mid Glamorgan", "addr:postcode": "CF32 9SU", "phones": {"Store": ["01656 652238"]}, "email": {"Customer Service": []}, "website": "https://www.thebodyshop.com/en-gb/store-finder", "operatingHours": {"Store": ["Sun: 10:00 - 18:00", "Mon: 10:00 - 20:00", "Tue: 10:00 - 20:00", "Wed: 10:00 - 20:00", "Thu: 10:00 - 20:00", "Fri: 10:00 - 20:00", "Sat: 10:00 - 19:00"]}, "chain_id": "8201", "chain_name": "THE BODY SHOP เดอะบอดี้ช็อป"}, "geometry": {"type": "Point", "coordinates": [-3.5760072, 51.5325205]}},
{"type": "Feature", "id": "EaqhCORS54U6FOg3QqjCphNXaeI=", "properties": {"ref": "1dd48723c85f47a89949693b96ea46f6", "@spider": "the_body_shop_irl_dpa", "addr:full": "UNIT 67 Cheshire Oaks Designer Outlet,, ELLESMERE PORT, Cheshire West, CH65 9LA, United Kingdom", "addr:city": "ELLESMERE PORT", "addr:state": "Cheshire West", "addr:postcode": "CH65 9LA", "phones": {"Store": ["0151 355 4738"]}, "email": {"Customer Service": []}, "website": "https://www.thebodyshop.com/en-gb/store-finder", "operatingHours": {"Store": ["Sun: 10:00 - 18:00", "Mon: 10:00 - 20:00", "Tue: 10:00 - 20:00", "Wed: 10:00 - 20:00", "Thu: 10:00 - 20:00", "Fri: 10:00 - 20:00", "Sat: 09:00 - 21:00"]}, "chain_id": "8201", "chain_name": "THE BODY SHOP เดอะบอดี้ช็อป"}, "geometry": {"type": "Point", "coordinates": [-2.8785022, 53.26540019999999]}},
{"type": "Feature", "id": "R-z9uV1n2xJ6HxyaoEfQIxWOkn8=", "properties": {"ref": "ee0de163148d4f82b1df274e71072f66", "@spider": "the_body_shop_irl_dpa", "addr:full": "Unit 11A East Midlands Designer Outlet, Mansfield Road,, ALFRETON, SOUTH NORMANTON, Derbyshire, DE55 2JW, United Kingdom", "addr:city": "SOUTH NORMANTON", "addr:state": "Derbyshire", "addr:postcode": "DE55 2JW", "phones": {"Store": ["01773 861247"]}, "email": {"Customer Service": []}, "website": "https://www.thebodyshop.com/en-gb/store-finder", "operatingHours": {"Store": ["Sun: 10:00 - 18:00", "Mon: 09:00 - 20:00", "Tue: 09:00 - 20:00", "Wed: 09:00 - 20:00", "Thu: 09:00 - 20:00", "Fri: 09:00 - 20:00", "Sat: 09:00 - 20:00"]}, "chain_id": "8201", "chain_name": "THE BODY SHOP เดอะบอดี้ช็อป"}, "geometry": {"type": "Point", "coordinates": [-1.3100395, 53.1067668]}},
{"type": "Feature", "id": "XlIkCLJXUbRMeUmCyIIimMerUyM=", "properties": {"ref": "118b8fe6cca640db927a18e521352610", "@spider": "the_body_shop_irl_dpa", "addr:full": "UNIT 69 The Designer Outlet Centre, Almondvale Avenue, LIVINGSTON, West Lothian, EH54 6QX, United Kingdom", "addr:city": "LIVINGSTON", "addr:state": "West Lothian", "addr:postcode": "EH54 6QX", "phones": {"Store": ["01506 429129"]}, "email": {"Customer Service": []}, "website": "https://www.thebodyshop.com/en-gb/store-finder", "operatingHours": {"Store": ["Sun: 10:00 - 18:00", "Mon: 09:00 - 18:00", "Tue: 09:00 - 18:00", "Wed: 09:00 - 18:00", "Thu: 09:00 - 20:00", "Fri: 09:00 - 18:00", "Sat: 09:00 - 18:00"]}, "chain_id": "8201", "chain_name": "THE BODY SHOP เดอะบอดี้ช็อป"}, "geometry": {"type": "Point", "coordinates": [-3.519813, 55.882872]}},
{"type": "Feature", "id": "-SZwQI9FbiMGxNY72pMgLASwhHs=", "properties": {"ref": "c4184cb87938435182fe18a2dd1a7d09", "@spider": "the_body_shop_irl_dpa", "addr:full": "93 Kemble Drive, McArthur Glen Designer Outlet,, SWINDON, Wiltshire, SN2 2DZ, United Kingdom", "addr:city": "SWINDON", "addr:state": "Wiltshire", "addr:postcode": "SN2 2DZ", "phones": {"Store": ["01793 616606"]}, "email": {"Customer Service": []}, "website": "https://www.thebodyshop.com/en-gb/store-finder", "operatingHours": {"Store": ["Sun: 10:00 - 18:00", "Mon: 10:00 - 20:00", "Tue: 10:00 - 20:00", "Wed: 10:00 - 20:00", "Thu: 10:00 - 20:00", "Fri: 10:00 - 20:00", "Sat: 10:00 - 20:00"]}, "chain_id": "8201", "chain_name": "THE BODY SHOP เดอะบอดี้ช็อป"}, "geometry": {"type": "Point", "coordinates": [-1.7970297, 51.5624707]}},
{"type": "Feature", "id": "x3kOQmF4M77RYB4CNItE7hLPY-E=", "properties": {"ref": "88ed575c2bd24e41a485496602bda721", "@spider": "the_body_shop_irl_dpa", "addr:full": "Unit 35 Caledonia Park Designer Village, Glasgow Road,, GRETNA, Dumfries & Galloway, DG16 5GG, United Kingdom", "addr:city": "GRETNA", "addr:state": "Dumfries & Galloway", "addr:postcode": "DG16 5GG", "phones": {"Store": ["01461 339331"]}, "email": {"Customer Service": []}, "website": "https://www.thebodyshop.com/en-gb/store-finder", "operatingHours": {"Store": ["Sun: 10:00 - 18:00", "Mon: 09:00 - 18:00", "Tue: 09:00 - 18:00", "Wed: 09:00 - 18:00", "Thu: 09:00 - 18:00", "Fri: 09:00 - 18:00", "Sat: 09:00 - 18:00"]}, "chain_id": "8201", "chain_name": "THE BODY SHOP เดอะบอดี้ช็อป"}, "geometry": {"type": "Point", "coordinates": [-3.0568706, 54.99668]}},
{"type": "Feature", "id": "j64Zf3pwctkPO3o4BCqW0AIcxpE=", "properties": {"ref": "bdf4805d3bc94ef48af11409864c7659", "@spider": "the_body_shop_irl_dpa", "addr:full": "Unit G53 Quayside MediaCityUK,  The Quays,, SALFORD, MANCHESTER, Lancashire, M50 3AH, United Kingdom", "addr:city": "MANCHESTER", "addr:state": "Lancashire", "addr:postcode": "M50 3AH", "phones": {"Store": ["0161 872 8379"]}, "email": {"Customer Service": []}, "website": "https://www.thebodyshop.com/en-gb/store-finder", "operatingHours": {"Store": ["Sun: 11:00 - 17:00", "Mon: 10:00 - 18:00", "Tue: 10:00 - 18:00", "Wed: 10:00 - 18:00", "Thu: 10:00 - 20:00", "Fri: 10:00 - 18:00", "Sat: 10:00 - 19:00"]}, "chain_id": "8201", "chain_name": "THE BODY SHOP เดอะบอดี้ช็อป"}, "geometry": {"type": "Point", "coordinates": [-2.2946247, 53.4701248]}},
{"type": "Feature", "id": "FzBr47C3Dos3u5CdEDcZ5FMCo6M=", "properties": {"ref": "42c7833f1d944366b650ef6bb60a446a", "@spider": "the_body_shop_irl_dpa", "addr:full": "Unit D8A Whiteley Village Shopping Centre, Whiteley Way, FAREHAM, Hampshire, PO15 7PD, United Kingdom", "addr:city": "FAREHAM", "addr:state": "Hampshire", "addr:postcode": "PO15 7PD", "phones": {"Store": ["01489 588961"]}, "email": {"Customer Service": []}, "website": "https://www.thebodyshop.com/en-gb/store-finder", "operatingHours": {"Store": ["Sun: 10:30 - 16:30", "Mon: 09:00 - 19:00", "Tue: 09:00 - 19:00", "Wed: 09:00 - 19:00", "Thu: 09:00 - 19:00", "Fri: 09:00 - 19:00", "Sat: 09:00 - 19:00"]}, "chain_id": "8201", "chain_name": "THE BODY SHOP เดอะบอดี้ช็อป"}, "geometry": {"type": "Point", "coordinates": [-1.2467146, 50.8855927]}},
{"type": "Feature", "id": "N4whmdmuw6_3yXxURw61WCAKMrk=", "properties": {"ref": "e5896131c2bf42719ebf2551247f27be", "@spider": "the_body_shop_irl_dpa", "addr:full": "6 Town Wall South, St Davids Centre,, CARDIFF, Glamorgan, CF10 2EW, United Kingdom", "addr:city": "CARDIFF", "addr:state": "Glamorgan", "addr:postcode": "CF10 2EW", "phones": {"Store": ["029 2034 2453"]}, "email": {"Customer Service": []}, "website": "https://www.thebodyshop.com/en-gb/store-finder", "operatingHours": {"Store": ["Sun: 11:00 - 17:00", "Mon: 09:00 - 20:00", "Tue: 09:00 - 20:00", "Wed: 09:00 - 20:00", "Thu: 09:00 - 20:00", "Fri: 09:00 - 20:00", "Sat: 09:00 - 19:00"]}, "chain_id": "8201", "chain_name": "THE BODY SHOP เดอะบอดี้ช็อป"}, "geometry": {"type": "Point", "coordinates": [-3.1755714, 51.48024479999999]}},
{"type": "Feature", "id": "6YNcYebZtybnM84WowTp9yOOOCI=", "properties": {"ref": "732e240868c24dc6a9475bf8036f0afb", "@spider": "the_body_shop_irl_dpa", "addr:full": "Unit 38 Dalton Park Outlet Centre, Church Street, Murton, SEAHAM, County Durham, SR7 9HU, United Kingdom", "addr:city": "SEAHAM", "addr:state": "County Durham", "addr:postcode": "SR7 9HU", "phones": {"Store": ["0191 526 2412"]}, "email": {"Customer Service": []}, "website": "https://www.thebodyshop.com/en-gb/store-finder", "operatingHours": {"Store": ["Sun: 10:30 - 16:30", "Mon: 10:00 - 18:00", "Tue: 10:00 - 18:00", "Wed: 10:00 - 18:00", "Thu: 10:00 - 18:00", "Fri: 10:00 - 18:00", "Sat: 09:30 - 18:00"]}, "chain_id": "8201", "chain_name": "THE BODY SHOP เดอะบอดี้ช็อป"}, "geometry": {"type": "Point", "coordinates": [-1.3737948, 54.8157267]}},
{"type": "Feature", "id": "c0EbklSEAMFvWZ5DzCiB0LqqcDQ=", "properties": {"ref": "560c6871369a4ef7871f86f8302fca78", "@spider": "the_body_shop_irl_dpa", "addr:full": "Unit 54 First Floor,  London Designer Outlet, Wembley Park Boulevard,, WEMBLEY, LONDON, HA9 0PA, United Kingdom", "addr:city": "WEMBLEY", "addr:state": "LONDON", "addr:postcode": "HA9 0PA", "phones": {"Store": ["020 8902 1812"]}, "email": {"Customer Service": []}, "website": "https://www.thebodyshop.com/en-gb/store-finder", "operatingHours": {"Store": ["Sun: 11:00 - 18:00", "Mon: 10:00 - 20:00", "Tue: 10:00 - 20:00", "Wed: 10:00 - 20:00", "Thu: 10:00 - 20:00", "Fri: 10:00 - 20:00", "Sat: 10:00 - 20:00"]}, "chain_id": "8201", "chain_name": "THE BODY SHOP เดอะบอดี้ช็อป"}, "geometry": {"type": "Point", "coordinates": [-0.2840852, 51.5564705]}},
{"type": "Feature", "id": "fhdUMzky3HMhJQ2JMKNyQbnJBQs=", "properties": {"ref": "c31c9c878d6941acb8a3a4b4e8680dae", "@spider": "the_body_shop_irl_dpa", "addr:full": "122-124 High Street, GUILDFORD, Surrey, GU1 3HQ, United Kingdom", "addr:city": "GUILDFORD", "addr:state": "Surrey", "addr:postcode": "GU1 3HQ", "phones": {"Store": ["01483 303685"]}, "email": {"Customer Service": []}, "website": "https://www.thebodyshop.com/en-gb/store-finder", "operatingHours": {"Store": ["Sun: 11:00 - 17:00", "Mon: 09:00 - 17:30", "Tue: 09:00 - 17:30", "Wed: 09:00 - 17:30", "Thu: 09:00 - 17:30", "Fri: 09:00 - 17:30", "Sat: 09:00 - 17:30"]}, "chain_id": "8201", "chain_name": "THE BODY SHOP เดอะบอดี้ช็อป"}, "geometry": {"type": "Point", "coordinates": [-0.5723391, 51.2356761]}},
{"type": "Feature", "id": "tGD76F5MinHSRsjKrgNkOAMpuT4=", "properties": {"ref": "7db79dc880c34af6ab11f2cc7d0419ff", "@spider": "the_body_shop_irl_dpa", "addr:full": "Unit 20A Waterside Shopping Centre, High Street, LINCOLN, Lincolnshire, LN2 1AP, United Kingdom", "addr:city": "LINCOLN", "addr:state": "Lincolnshire", "addr:postcode": "LN2 1AP", "phones": {"Store": ["01522 523170"]}, "email": {"Customer Service": []}, "website": "https://www.thebodyshop.com/en-gb/store-finder", "operatingHours": {"Store": ["Sun: 10:30 - 16:30", "Mon: 09:00 - 17:30", "Tue: 09:00 - 17:30", "Wed: 09:00 - 17:30", "Thu: 09:00 - 17:30", "Fri: 09:00 - 17:30", "Sat: 09:00 - 17:30"]}, "chain_id": "8201", "chain_name": "THE BODY SHOP เดอะบอดี้ช็อป"}, "geometry": {"type": "Point", "coordinates": [-0.5399788999999999, 53.2285793]}},
{"type": "Feature", "id": "7-CRmpA16udsJqi1NrscYkbBq18=", "properties": {"ref": "286df665d5e6493791f554daa3ec82c1", "@spider": "the_body_shop_irl_dpa", "addr:full": "Unit 28 Platinum Mall,  Lower Central Mall, Metro Centre,, GATESHEAD, Tyne & Wear, NE11 9YG, United Kingdom", "addr:city": "GATESHEAD", "addr:state": "Tyne & Wear", "addr:postcode": "NE11 9YG", "phones": {"Store": ["0191 493 2716"]}, "email": {"Customer Service": []}, "website": "https://www.thebodyshop.com/en-gb/store-finder", "operatingHours": {"Store": ["Sun: 10:30 - 17:00", "Mon: 09:00 - 21:00", "Tue: 09:00 - 21:00", "Wed: 09:00 - 21:00", "Thu: 09:00 - 21:00", "Fri: 09:00 - 21:00", "Sat: 09:00 - 19:00"]}, "chain_id": "8201", "chain_name": "THE BODY SHOP เดอะบอดี้ช็อป"}, "geometry": {"type": "Point", "coordinates": [-1.6682141, 54.9579007]}},
{"type": "Feature", "id": "UpNc32lyX1CpEo5Ux4nAvYPy9ak=", "properties": {"ref": "da9bf02143d445869337cb130ecb944b", "@spider": "the_body_shop_irl_dpa", "addr:full": "Unit 37 Market Square,  The Pavilions Shopping Centre, UXBRIDGE, HILLINGDON, LONDON, UB8 1LN, United Kingdom", "addr:city": "HILLINGDON", "addr:state": "LONDON", "addr:postcode": "UB8 1LN", "phones": {"Store": ["01895 236245"]}, "email": {"Customer Service": []}, "website": "https://www.thebodyshop.com/en-gb/store-finder", "operatingHours": {"Store": ["Sun: 11:00 - 17:00", "Mon: 09:00 - 17:30", "Tue: 09:00 - 17:30", "Wed: 09:00 - 17:30", "Thu: 09:00 - 17:30", "Fri: 09:00 - 17:30", "Sat: 09:00 - 17:30"]}, "chain_id": "8201", "chain_name": "THE BODY SHOP เดอะบอดี้ช็อป"}, "geometry": {"type": "Point", "coordinates": [-0.48122, 51.5460253]}},
{"type": "Feature", "id": "gLGM87BI_rXEXN4Ub1zN3-9YzGE=", "properties": {"ref": "2b499a3111e647b3816bf7fe0a02dfd3", "@spider": "the_body_shop_irl_dpa", "addr:full": "Unit SU23 Lower Mall,  Royal Victoria Place Shopping Centre,, TUNBRIDGE WELLS, Kent, TN1 2SS, United Kingdom", "addr:city": "TUNBRIDGE WELLS", "addr:state": "Kent", "addr:postcode": "TN1 2SS", "phones": {"Store": ["01892 534642"]}, "email": {"Customer Service": []}, "website": "https://www.thebodyshop.com/en-gb/store-finder", "operatingHours": {"Store": ["Sun: 10:30 - 16:30", "Mon: 09:00 - 17:30", "Tue: 09:00 - 17:30", "Wed: 09:00 - 17:30", "Thu: 09:00 - 17:30", "Fri: 09:00 - 17:30", "Sat: 09:00 - 17:30"]}, "chain_id": "8201", "chain_name": "THE BODY SHOP เดอะบอดี้ช็อป"}, "geometry": {"type": "Point", "coordinates": [0.2654099, 51.1345951]}},
{"type": "Feature", "id": "iyzJ-lHWGnRT9tUJG9ri4ZYlCVI=", "properties": {"ref": "775e4ba2bef144bdbb502bdb8fe7e060", "@spider": "the_body_shop_irl_dpa", "addr:full": "Unit 6 County Mall Shopping Centre, CRAWLEY, West Sussex, RH10 1FF, United Kingdom", "addr:city": "CRAWLEY", "addr:state": "West Sussex", "addr:postcode": "RH10 1FF", "phones": {"Store": ["01293 521292"]}, "email": {"Customer Service": []}, "website": "https://www.thebodyshop.com/en-gb/store-finder", "operatingHours": {"Store": ["Sun: 10:30 - 16:30", "Mon: 09:00 - 18:00", "Tue: 09:00 - 18:00", "Wed: 09:00 - 18:00", "Thu: 09:00 - 18:00", "Fri: 09:00 - 18:00", "Sat: 09:00 - 18:00"]}, "chain_id": "8201", "chain_name": "THE BODY SHOP เดอะบอดี้ช็อป"}, "geometry": {"type": "Point", "coordinates": [-0.1862728, 51.1134806]}},
{"type": "Feature", "id": "Eh30McMFMLHrnfGJDr0iZyBKcqk=", "properties": {"ref": "9b0acabc47254182916d99c9a7593a3a", "@spider": "the_body_shop_irl_dpa", "addr:full": "Unit 54, Level 1 Petergate Mall, The Broadway Shopping Centre,, BRADFORD, West Yorkshire, BD1 1US, United Kingdom", "addr:city": "BRADFORD", "addr:state": "West Yorkshire", "addr:postcode": "BD1 1US", "phones": {"Store": ["01274 732717"]}, "email": {"Customer Service": []}, "website": "https://www.thebodyshop.com/en-gb/store-finder", "operatingHours": {"Store": ["Sun: 11:00 - 17:00", "Mon: 10:00 - 18:00", "Tue: 09:00 - 19:00", "Wed: 09:00 - 19:00", "Thu: 09:00 - 19:00", "Fri: 09:00 - 19:00", "Sat: 09:00 - 19:00"]}, "chain_id": "8201", "chain_name": "THE BODY SHOP เดอะบอดี้ช็อป"}, "geometry": {"type": "Point", "coordinates": [-1.7499248, 53.7946548]}},
{"type": "Feature", "id": "zUzNPBAA3sRDIg0O2L9rw9HqbRQ=", "properties": {"ref": "393c7b6de43142459fa01847b7de8ad2", "@spider": "the_body_shop_irl_dpa", "addr:full": "Unit 82 Clarks Village Outlet Centre,, STREET, Somerset, BA16 0HN, United Kingdom", "addr:city": "STREET", "addr:state": "Somerset", "addr:postcode": "BA16 0HN", "phones": {"Store": ["01458 440985"]}, "email": {"Customer Service": []}, "website": "https://www.thebodyshop.com/en-gb/store-finder", "operatingHours": {"Store": ["Sun: 10:00 - 17:00", "Mon: 09:00 - 18:00", "Tue: 09:00 - 18:00", "Wed: 09:00 - 18:00", "Thu: 09:00 - 18:00", "Fri: 09:00 - 18:00", "Sat: 09:00 - 18:00"]}, "chain_id": "8201", "chain_name": "THE BODY SHOP เดอะบอดี้ช็อป"}, "geometry": {"type": "Point", "coordinates": [-2.7410178, 51.1274446]}},
{"type": "Feature", "id": "PYFiLbPE7D9EVJ1bW47wpVDJSXg=", "properties": {"ref": "fc451a15e2ef42d9b3ab2b4a79b3063f", "@spider": "the_body_shop_irl_dpa", "addr:full": "Unit 1160b Westfield London Shopping Centre, Aeriel Way, SHEPHERDS BUSH, LONDON, W12 7GG, United Kingdom", "addr:city": "SHEPHERDS BUSH", "addr:state": "LONDON", "addr:postcode": "W12 7GG", "phones": {"Store": ["020 8743 6873"]}, "email": {"Customer Service": []}, "website": "https://www.thebodyshop.com/en-gb/store-finder", "operatingHours": {"Store": ["Sun: 12:00 - 18:00", "Mon: 10:00 - 21:00", "Tue: 10:00 - 21:00", "Wed: 10:00 - 21:00", "Thu: 10:00 - 21:00", "Fri: 10:00 - 21:00", "Sat: 10:00 - 21:00"]}, "chain_id": "8201", "chain_name": "THE BODY SHOP เดอะบอดี้ช็อป"}, "geometry": {"type": "Point", "coordinates": [-0.2216814, 51.5082731]}},
{"type": "Feature", "id": "Jt6O84g0j3oCYEShy5cAAxwekLA=", "properties": {"ref": "c46bfce8a6574dc0a744f9151133964f", "@spider": "the_body_shop_irl_dpa", "addr:full": "Unit SU36 Westgate Oxford Shopping Centre,, OXFORD, Oxfordshire, OX1 1PE, United Kingdom", "addr:city": "OXFORD", "addr:state": "Oxfordshire", "addr:postcode": "OX1 1PE", "phones": {"Store": ["01865 244575"]}, "email": {"Customer Service": []}, "website": "https://www.thebodyshop.com/en-gb/store-finder", "operatingHours": {"Store": ["Sun: 11:00 - 17:00", "Mon: 10:00 - 20:00", "Tue: 10:00 - 20:00", "Wed: 10:00 - 20:00", "Thu: 10:00 - 20:00", "Fri: 10:00 - 20:00", "Sat: 09:00 - 20:00"]}, "chain_id": "8201", "chain_name": "THE BODY SHOP เดอะบอดี้ช็อป"}, "geometry": {"type": "Point", "coordinates": [-1.2614624, 51.7500959]}},
{"type": "Feature", "id": "ey4wWy3rhcz59JYYTmWO3plE6gQ=", "properties": {"ref": "8e7cfc8907134d95affb2f2c2f7f83e3", "@spider": "the_body_shop_irl_dpa", "addr:full": "Unit 13 Treaty Centre, 44 High Street, HOUNSLOW, LONDON, TW3 1ES, United Kingdom", "addr:city": "HOUNSLOW", "addr:state": "LONDON", "addr:postcode": "TW3 1ES", "phones": {"Store": ["020 8577 0530"]}, "email": {"Customer Service": []}, "website": "https://www.thebodyshop.com/en-gb/store-finder", "operatingHours": {"Store": ["Sun: 11:00 - 17:00", "Mon: 09:30 - 18:00", "Tue: 09:30 - 18:00", "Wed: 09:30 - 18:00", "Thu: 09:30 - 18:00", "Fri: 09:30 - 18:00", "Sat: 09:30 - 18:00"]}, "chain_id": "8201", "chain_name": "THE BODY SHOP เดอะบอดี้ช็อป"}, "geometry": {"type": "Point", "coordinates": [-0.3668301, 51.4674288]}},
{"type": "Feature", "id": "-y-i8de1Mz6czhCYjcW0kzbVeY0=", "properties": {"ref": "b6e07ed62c60433fa59165f532ee70c5", "@spider": "the_body_shop_irl_dpa", "addr:full": "Unit 1 Gunwharf Quays, PORTSMOUTH, Hampshire, PO1 3TA, United Kingdom", "addr:city": "PORTSMOUTH", "addr:state": "Hampshire", "addr:postcode": "PO1 3TA", "phones": {"Store": ["023 9282 7001"]}, "email": {"Customer Service": []}, "website": "https://www.thebodyshop.com/en-gb/store-finder", "operatingHours": {"Store": ["Sun: 10:00 - 18:00", "Mon: 10:00 - 20:00", "Tue: 10:00 - 20:00", "Wed: 10:00 - 20:00", "Thu: 10:00 - 20:00", "Fri: 10:00 - 20:00", "Sat: 09:00 - 20:00"]}, "chain_id": "8201", "chain_name": "THE BODY SHOP เดอะบอดี้ช็อป"}, "geometry": {"type": "Point", "coordinates": [-1.1058844, 50.7962281]}},
{"type": "Feature", "id": "2fdyEoAahCed_o3LhlXWU0ivV3A=", "properties": {"ref": "eccdf215df0842beacf3154354da1042", "@spider": "the_body_shop_irl_dpa", "addr:full": "Unit 14 Lakeside Village, White Rose Way,, DONCASTER, South Yorkshire, DN4 5PJ, United Kingdom", "addr:city": "DONCASTER", "addr:state": "South Yorkshire", "addr:postcode": "DN4 5PJ", "phones": {"Store": ["01302 325751"]}, "email": {"Customer Service": []}, "website": "https://www.thebodyshop.com/en-gb/store-finder", "operatingHours": {"Store": ["Sun: 10:00 - 16:30", "Mon: 09:30 - 18:00", "Tue: 09:30 - 18:00", "Wed: 09:30 - 18:00", "Thu: 09:30 - 18:00", "Fri: 09:30 - 18:00", "Sat: 09:30 - 18:00"]}, "chain_id": "8201", "chain_name": "THE BODY SHOP เดอะบอดี้ช็อป"}, "geometry": {"type": "Point", "coordinates": [-1.1130649, 53.5074055]}},
{"type": "Feature", "id": "ARI8vq8CMn0Cso8VfBUxX6UAq_k=", "properties": {"ref": "d7af867f34934076bb225ea93a58f2d0", "@spider": "the_body_shop_irl_dpa", "addr:full": "Unit 7A Affinity Lancashire, Anchorage Road, FLEETWOOD,  Lancashire, FY7 6AE, United Kingdom", "addr:city": "FLEETWOOD", "addr:state": "Lancashire", "addr:postcode": "FY7 6AE", "phones": {"Store": ["01253 681390"]}, "email": {"Customer Service": []}, "website": "https://www.thebodyshop.com/en-gb/store-finder", "operatingHours": {"Store": ["Sun: 11:00 - 17:00", "Mon: 10:00 - 18:00", "Tue: 10:00 - 18:00", "Wed: 10:00 - 18:00", "Thu: 10:00 - 18:00", "Fri: 10:00 - 18:00", "Sat: 10:00 - 18:00"]}, "chain_id": "8201", "chain_name": "THE BODY SHOP เดอะบอดี้ช็อป"}, "geometry": {"type": "Point", "coordinates": [-3.0147748, 53.9164307]}},
{"type": "Feature", "id": "AvU2814y4iotbVy0PEGMlBwzxaE=", "properties": {"ref": "85bbb92589704b26b97d61bd848cd64e", "@spider": "the_body_shop_irl_dpa", "addr:full": "Unit 16 Affinity Staffordshire Outlet Shopping,  Talke Pits,, STOKE-ON-TRENT, Staffordshire, ST7 1XD, United Kingdom", "addr:city": "STOKE-ON-TRENT", "addr:state": "Staffordshire", "addr:postcode": "ST7 1XD", "phones": {"Store": ["01782 788660"]}, "email": {"Customer Service": []}, "website": "https://www.thebodyshop.com/en-gb/store-finder", "operatingHours": {"Store": ["Sun: 10:00 - 16:00", "Mon: 10:00 - 18:00", "Tue: 10:00 - 18:00", "Wed: 10:00 - 18:00", "Thu: 10:00 - 18:00", "Fri: 10:00 - 18:00", "Sat: 10:00 - 18:00"]}, "chain_id": "8201", "chain_name": "THE BODY SHOP เดอะบอดี้ช็อป"}, "geometry": {"type": "Point", "coordinates": [-2.2642617, 53.070398]}},
{"type": "Feature", "id": "ZYvsKn1syXL_RRUyy4NPQjxzDfI=", "properties": {"ref": "e0863de3255f41319df73cb4d3b66c6f", "@spider": "the_body_shop_irl_dpa", "addr:full": "Unit 7C Brent Cross Shopping Centre, BRENT CROSS, LONDON, NW4 3FP, United Kingdom", "addr:city": "BRENT CROSS", "addr:state": "LONDON", "addr:postcode": "NW4 3FP", "phones": {"Store": ["020 8202 8357"]}, "email": {"Customer Service": []}, "website": "https://www.thebodyshop.com/en-gb/store-finder", "operatingHours": {"Store": ["Sun: 11:00 - 18:00", "Mon: 10:00 - 20:00", "Tue: 10:00 - 20:00", "Wed: 10:00 - 20:00", "Thu: 10:00 - 20:00", "Fri: 10:00 - 20:00", "Sat: 10:00 - 20:00"]}, "chain_id": "8201", "chain_name": "THE BODY SHOP เดอะบอดี้ช็อป"}, "geometry": {"type": "Point", "coordinates": [-0.2235951, 51.5760993]}},
{"type": "Feature", "id": "-t3cqW6f4lIhNIaiM1LIoGAFqbk=", "properties": {"ref": "7d145803d3e5412eaa82a2bb136185a2", "@spider": "the_body_shop_irl_dpa", "addr:full": "6 The Avenue,  The Lexicon, BRACKNELL, Berkshire, RG12 1BD, United Kingdom", "addr:city": "BRACKNELL", "addr:state": "Berkshire", "addr:postcode": "RG12 1BD", "phones": {"Store": ["01344 420366"]}, "email": {"Customer Service": []}, "website": "https://www.thebodyshop.com/en-gb/store-finder", "operatingHours": {"Store": ["Sun: 11:00 - 17:00", "Mon: 10:00 - 17:00", "Tue: 09:30 - 18:00", "Wed: 09:30 - 18:00", "Thu: 09:30 - 18:00", "Fri: 09:30 - 18:00", "Sat: 09:30 - 18:00"]}, "chain_id": "8201", "chain_name": "THE BODY SHOP เดอะบอดี้ช็อป"}, "geometry": {"type": "Point", "coordinates": [-0.7504999, 51.4176277]}},
{"type": "Feature", "id": "qxY-TJFUdv8_5EdtNKewmEl3S-U=", "properties": {"ref": "b39d2fe7c6594e299eaf70f522f44464", "@spider": "the_body_shop_irl_dpa", "addr:full": "Unit 32 Lower Concourse, London Bridge Station,, LONDON, SE1 9SP, United Kingdom", "addr:state": "LONDON", "addr:postcode": "SE1 9SP", "phones": {"Store": ["020 7378 6147"]}, "email": {"Customer Service": []}, "website": "https://www.thebodyshop.com/en-gb/store-finder", "operatingHours": {"Store": ["Sun: 09:30 - 18:00", "Mon: 07:30 - 20:30", "Tue: 07:30 - 20:30", "Wed: 07:30 - 20:30", "Thu: 07:30 - 20:30", "Fri: 09:00 - 18:00", "Sat: 08:30 - 20:00"]}, "chain_id": "8201", "chain_name": "THE BODY SHOP เดอะบอดี้ช็อป"}, "geometry": {"type": "Point", "coordinates": [-0.0855718, 51.5048393]}},
{"type": "Feature", "id": "z8opPuwS20fqmsZx00-w939w9AE=", "properties": {"ref": "7cdb7bd477fc466b8ee71e0f243b4007", "@spider": "the_body_shop_irl_dpa", "addr:full": "Unit 9.1.10 Upper Mall Icon Unit, O2 Peninsula Square,, GREENWICH, LONDON, SE10 0DX, United Kingdom", "addr:city": "GREENWICH", "addr:state": "LONDON", "addr:postcode": "SE10 0DX", "phones": {"Store": ["020 8858 0989"]}, "email": {"Customer Service": []}, "website": "https://www.thebodyshop.com/en-gb/store-finder", "operatingHours": {"Store": ["Sun: 10:00 - 20:00", "Mon: 10:00 - 20:00", "Tue: 10:00 - 20:00", "Wed: 10:00 - 20:00", "Thu: 10:00 - 20:00", "Fri: 10:00 - 20:00", "Sat: 10:00 - 20:00"]}, "chain_id": "8201", "chain_name": "THE BODY SHOP เดอะบอดี้ช็อป"}, "geometry": {"type": "Point", "coordinates": [0.001261, 51.5025738]}},
{"type": "Feature", "id": "pMWbs9uI4-05BKTdl5Ov1W3vtwI=", "properties": {"ref": "d7e1b1b4962a4292890d8d399361829f", "@spider": "the_body_shop_irl_dpa", "addr:full": "Unit LGO6 Victoria Square Shopping Centre,, BELFAST, Antrim, Down, BT1 4QG, United Kingdom", "addr:city": "Antrim", "addr:state": "Down", "addr:postcode": "BT1 4QG", "phones": {"Store": ["028 9023 3004"]}, "email": {"Customer Service": []}, "website": "https://www.thebodyshop.com/en-gb/store-finder", "operatingHours": {"Store": ["Sun: 13:00 - 18:00", "Mon: 09:30 - 18:00", "Tue: 09:30 - 18:00", "Wed: 09:30 - 18:00", "Thu: 09:30 - 21:00", "Fri: 09:30 - 18:00", "Sat: 09:00 - 18:00"]}, "chain_id": "8201", "chain_name": "THE BODY SHOP เดอะบอดี้ช็อป"}, "geometry": {"type": "Point", "coordinates": [-5.9301207, 54.5987565]}},
{"type": "Feature", "id": "Nv0kyvy3vKLn56EpWgLRCdZllPk=", "properties": {"ref": "1f69521e64154579943ed2e68425a4da", "@spider": "the_body_shop_irl_dpa", "addr:full": "UNIT SU2.19 206 ST JAMES CRESCENT, EDINBURGH , Mid-Lothian, EH1 3AD, United Kingdom", "addr:city": "EDINBURGH", "addr:state": "Mid-Lothian", "addr:postcode": "EH1 3AD", "phones": {"Store": ["0131 557 5308"]}, "email": {"Customer Service": []}, "website": "https://www.thebodyshop.com/en-gb/store-finder", "operatingHours": {"Store": ["Sun: 10:00 - 18:00", "Mon: 09:00 - 20:00", "Tue: 09:00 - 20:00", "Wed: 09:00 - 20:00", "Thu: 09:00 - 20:00", "Fri: 09:00 - 20:00", "Sat: 09:00 - 20:00"]}, "chain_id": "8201", "chain_name": "THE BODY SHOP เดอะบอดี้ช็อป"}, "geometry": {"type": "Point", "coordinates": [-3.190992, 55.952574]}},
{"type": "Feature", "id": "D1zlc3jjJXYMyxN9ArHv_JqcMQA=", "properties": {"ref": "c8990ccf4c4e42b78630e3bcbccc9293", "@spider": "the_body_shop_irl_dpa", "addr:full": "Waterloo Station, SE1 8SW, United Kingdom", "addr:state": "Waterloo Station", "addr:postcode": "SE1 8SW", "phones": {"Store": [""]}, "email": {"Customer Service": []}, "website": "https://www.thebodyshop.com/en-gb/store-finder", "operatingHours": {"Store": ["Sun:  - ", "Mon:  - ", "Tue:  - ", "Wed:  - ", "Thu:  - ", "Fri:  - ", "Sat:  - "]}, "chain_id": "8201", "chain_name": "THE BODY SHOP เดอะบอดี้ช็อป"}},
{"type": "Feature", "id": "wb-naazaPWEg7T5v0RnURUqG9-I=", "properties": {"ref": "ee9e8676b913450285993fc309337172", "@spider": "the_body_shop_irl_dpa", "addr:full": "36 William Street, Galway City,, GALWAY, H91D28A", "addr:city": "Galway City", "addr:postcode": "GALWAY", "phones": {"Store": ["(091) 568 240"]}, "email": {"Customer Service": []}, "website": "https://www.thebodyshop.com/en-gb/store-finder", "operatingHours": {"Store": ["Sun: 10:00 - 18:00", "Mon: 10:00 - 18:00", "Tue: 10:00 - 18:00", "Wed: 10:00 - 18:00", "Thu: 10:00 - 18:00", "Fri: 10:00 - 18:00", "Sat: 10:00 - 18:00"]}, "chain_id": "8201", "chain_name": "THE BODY SHOP เดอะบอดี้ช็อป"}, "geometry": {"type": "Point", "coordinates": [-9.0519005, 53.2733291]}},
{"type": "Feature", "id": "tCS0GThqkkwHvbxn_vb5lM9v1Mg=", "properties": {"ref": "57b06b1fb5564cd9af3ed647351750cf", "@spider": "the_body_shop_irl_dpa", "addr:full": "Pricing Driver Site Company, 00000, United Kingdom", "addr:state": "Pricing Driver Site Company", "addr:postcode": "00000", "phones": {"Store": [""]}, "email": {"Customer Service": []}, "website": "https://www.thebodyshop.com/en-gb/store-finder", "operatingHours": {"Store": []}, "chain_id": "8201", "chain_name": "THE BODY SHOP เดอะบอดี้ช็อป"}},
{"type": "Feature", "id": "iyFPXxO14sP4KIWt5iURIRnfcdE=", "properties": {"ref": "f18f6d8cc6ef4826afafbe5dbc0cc1d7", "@spider": "the_body_shop_irl_dpa", "addr:full": "UNIT GS01 The Garden Square, Rushden Lakes Shopping Centre, RUSHDEN, Northamptonshire, NN10 6FH, United Kingdom", "addr:city": "RUSHDEN", "addr:state": "Northamptonshire", "addr:postcode": "NN10 6FH", "phones": {"Store": ["01933 314256"]}, "email": {"Customer Service": []}, "website": "https://www.thebodyshop.com/en-gb/store-finder", "operatingHours": {"Store": ["Sun: 10:30 - 16:30", "Mon: 09:30 - 19:00", "Tue: 09:30 - 19:00", "Wed: 09:30 - 19:00", "Thu: 09:30 - 19:00", "Fri: 09:30 - 19:00", "Sat: 09:30 - 19:00"]}, "chain_id": "8201", "chain_name": "THE BODY SHOP เดอะบอดี้ช็อป"}, "geometry": {"type": "Point", "coordinates": [-0.623855, 52.301005]}},
{"type": "Feature", "id": "z97sCwHQUl5s3-7qJWW7PAqE6hU=", "properties": {"ref": "44434ea7ed634f7482ec1af776d1613c", "@spider": "the_body_shop_irl_dpa", "addr:full": "Unit 81 Designer Outlet Centre, CANNOCK, Staffordshire, WS11 7JZ, United Kingdom", "addr:city": "CANNOCK", "addr:state": "Staffordshire", "addr:postcode": "WS11 7JZ", "phones": {"Store": ["01543 212938"]}, "email": {"Customer Service": []}, "website": "https://www.thebodyshop.com/en-gb/store-finder", "operatingHours": {"Store": ["Sun: 10:00 - 18:00", "Mon: 10:00 - 20:00", "Tue: 10:00 - 20:00", "Wed: 10:00 - 20:00", "Thu: 10:00 - 20:00", "Fri: 10:00 - 20:00", "Sat: 09:00 - 20:00"]}, "chain_id": "8201", "chain_name": "THE BODY SHOP เดอะบอดี้ช็อป"}, "geometry": {"type": "Point", "coordinates": [-2.01589, 52.68836]}}]}