{"type":"FeatureCollection","features":[{"type": "Feature", "id": "08RZvv48BjDmtdMIUqZRrtAVlm4=", "properties": {"ref": "83a7eb70ccef4d2cbcab407778dd891c", "@spider": "nacional_inn_bra_dpa", "addr:street": "Rod. Floriano Rodrigues Pinheiro, 2000 - Entrada da Cidade, Campos do Jordão - SP", "addr:city": "Campos do Jordão", "addr:state": "São Paulo", "addr:postcode": "12460-000", "phones": {"Store": ["+55 (12) 36624088"]}, "email": {"Customer Service": ["reservas@goldenparkcampos.com.br"]}, "website": "https://www.nacionalinn.com.br/", "operatingHours": {"Store": "Mo-Su 00:00-23:59"}, "chain_id": "33455", "chain_name": "Nacional Inn"}, "geometry": {"type": "Point", "coordinates": [-45.611, -22.7603]}},
{"type": "Feature", "id": "Mi2C25PIWT1efythxGHwDLiDMAg=", "properties": {"ref": "2bb98034dc5e4e5aafc0676390b05582", "@spider": "nacional_inn_bra_dpa", "addr:street": "Rua do Russel, 374 - Glória, Rio de Janeiro - RJ", "addr:city": "Rio de Janeiro", "addr:state": "Rio de Janeiro", "addr:postcode": "22210-010", "phones": {"Store": ["+55 (21) 25552700"]}, "email": {"Customer Service": ["reservas@goldenparkrio.com.br"]}, "website": "https://www.nacionalinn.com.br/", "operatingHours": {"Store": "Mo-Su 00:00-23:59"}, "chain_id": "33455", "chain_name": "Nacional Inn"}, "geometry": {"type": "Point", "coordinates": [-43.1745, -22.9222]}},
{"type": "Feature", "id": "XrWmXmyFYRhEN0-0qqW8e1_UboU=", "properties": {"ref": "65bb775e4c6c48d6aaa312e61d8ff970", "@spider": "nacional_inn_bra_dpa", "addr:street": "Rua Roberto Pistrak Nemirovsky, 148 - Alto Boa Vista, ,         ", "addr:city": "Campos do Jordão", "addr:state": "São Paulo", "addr:postcode": "12460-000", "phones": {"Store": ["+55 (12) 36624338"]}, "email": {"Customer Service": ["reservas1@castelonacionalinn.com.br"]}, "website": "https://www.nacionalinn.com.br/", "operatingHours": {"Store": "Mo-Su 00:00-23:59"}, "chain_id": "33455", "chain_name": "Nacional Inn"}, "geometry": {"type": "Point", "coordinates": [-45.62, -22.7359]}},
{"type": "Feature", "id": "sCNYceCEzCrqRJ0yL9M839I-ja0=", "properties": {"ref": "c59066a71113458cb746ad7a0f4480bb", "@spider": "nacional_inn_bra_dpa", "addr:street": "Rua Belford Roxo, 250", "addr:city": "Rio de Janeiro", "addr:state": "Rio de Janeiro", "addr:postcode": "22020-010", "phones": {"Store": ["(21) 2117-4668"]}, "email": {"Customer Service": ["reservas@nacionalinncopacabana.com.br"]}, "website": "https://www.nacionalinn.com.br/", "operatingHours": {"Store": "Mo-Su 00:00-23:59"}, "chain_id": "33455", "chain_name": "Nacional Inn"}, "geometry": {"type": "Point", "coordinates": [-43.1763, -22.9634]}},
{"type": "Feature", "id": "qzWYAOMHKT8i9vDWDhmiKuTpUyA=", "properties": {"ref": "586e9bd93c2047239a48b7bfcbd82a25", "@spider": "nacional_inn_bra_dpa", "addr:street": "R. Duque de Caxias, 1313 - Centro, Ribeirão Preto - SP", "addr:city": "Ribeirão Preto", "addr:state": "São Paulo", "addr:postcode": "14015-020", "phones": {"Store": ["(16) 2108-0790"]}, "email": {"Customer Service": ["reservason@nacionalinnrp.com.br"]}, "website": "https://www.nacionalinn.com.br/", "operatingHours": {"Store": "Mo-Su 00:00-23:59"}, "chain_id": "33455", "chain_name": "Nacional Inn"}, "geometry": {"type": "Point", "coordinates": [-47.8031, -21.1788]}},
{"type": "Feature", "id": "TP8-YOrFJNBxJNJGurpYVBvv0dI=", "properties": {"ref": "6ff81c2bb536431ba97464d539181445", "@spider": "nacional_inn_bra_dpa", "addr:street": "Rua Joaquim Pinto Seabra, 170, Campos do Jordão - SP", "addr:city": "Campos do Jordão", "addr:state": "São Paulo", "addr:postcode": "12460-000", "phones": {"Store": ["(12)3663-3611"]}, "email": {"Customer Service": ["reservas@daninncampos.com.br"]}, "website": "https://www.nacionalinn.com.br/", "operatingHours": {"Store": "Mo-Su 00:00-23:59"}, "chain_id": "33455", "chain_name": "Nacional Inn"}, "geometry": {"type": "Point", "coordinates": [-45.5804, -22.7281]}},
{"type": "Feature", "id": "h__lSyrvrOCg55nQ8D8GxVaC4-U=", "properties": {"ref": "66fc5d83ee7b412cb769b47a857fb96c", "@spider": "nacional_inn_bra_dpa", "addr:street": "AV BOA VIAGEM 4308, None", "addr:city": "Recife", "addr:state": "Pernambuco", "addr:postcode": "51.021-000", "phones": {"Store": ["8131259900"]}, "email": {"Customer Service": ["reservas@eurosuiterecife.com.br"]}, "website": "https://www.nacionalinn.com.br/", "operatingHours": {"Store": "Mo-Su 00:00-23:59"}, "chain_id": "33455", "chain_name": "Nacional Inn"}, "geometry": {"type": "Point", "coordinates": [-34.898, -8.12707]}},
{"type": "Feature", "id": "Xy7SEXE_tFw9PBcYhOrsCawucvI=", "properties": {"ref": "4f7348ae007e4160860b759dbeb9c4bf", "@spider": "nacional_inn_bra_dpa", "addr:street": "R. Joaquim Pinto Seabra, 208 - Vila Evetest, Campos do Jordão - SP", "addr:city": "Campos do Jordão", "addr:state": "São Paulo", "addr:postcode": "12460-000", "phones": {"Store": ["(12) 3663-3887"]}, "email": {"Customer Service": ["reservas@nacionalinncampos.com.br"]}, "website": "https://www.nacionalinn.com.br/", "operatingHours": {"Store": "Mo-Su 00:00-23:59"}, "chain_id": "33455", "chain_name": "Nacional Inn"}, "geometry": {"type": "Point", "coordinates": [-45.58, -22.7285]}},
{"type": "Feature", "id": "yd7HB7gqRBROshJfi38d-9AU1qs=", "properties": {"ref": "225fd13d890240ffb49117ff7577b295", "@spider": "nacional_inn_bra_dpa", "addr:street": "Av. Manoel Dias da Silva, 979 - Pituba, Salvador - BA", "addr:city": "Salvador", "addr:state": "Bahia", "addr:postcode": "41830-000\t\t", "phones": {"Store": ["(71) 2201-5622"]}, "email": {"Customer Service": ["reservas@goldenparksalvador.com.br"]}, "website": "https://www.nacionalinn.com.br/", "operatingHours": {"Store": "Mo-Su 00:00-23:59"}, "chain_id": "33455", "chain_name": "Nacional Inn"}, "geometry": {"type": "Point", "coordinates": [-38.4666, -13.0101]}},
{"type": "Feature", "id": "nEo5Q3WTHgItXoCqwEfAfuV2dic=", "properties": {"ref": "2112fe25078b4cd9be153ed954e1e1b4", "@spider": "nacional_inn_bra_dpa", "addr:street": "Av. Octávio Mangabeira, 197 - Pituba, Salvador - BA", "addr:city": "Salvador", "addr:state": "Bahia", "addr:postcode": "41830-050", "phones": {"Store": ["(71) 3248-9998"]}, "email": {"Customer Service": ["reservas@nacionalinnsalvador.com.br"]}, "website": "https://www.nacionalinn.com.br/", "operatingHours": {"Store": "Mo-Su 00:00-23:59"}, "chain_id": "33455", "chain_name": "Nacional Inn"}, "geometry": {"type": "Point", "coordinates": [-38.4671, -13.0111]}},
{"type": "Feature", "id": "21h3TOMDCPk2pizOFUmPnmaQol8=", "properties": {"ref": "974c59776617437fbceeca4c6562d09c", "@spider": "nacional_inn_bra_dpa", "addr:street": "Avenida Emilio Ribas, n 100", "addr:city": "Campos do Jordão", "addr:state": "São Paulo", "addr:postcode": "12460-000", "phones": {"Store": ["+55 (12) 36637189"]}, "email": {"Customer Service": ["reservas@eurosuithotelcampos.com.br"]}, "website": "https://www.nacionalinn.com.br/", "operatingHours": {"Store": "Mo-Su 00:00-23:59"}, "chain_id": "33455", "chain_name": "Nacional Inn"}, "geometry": {"type": "Point", "coordinates": [-45.5761, -22.7249]}},
{"type": "Feature", "id": "yqAWNiIGTr9FOy3gqjboaihilhQ=", "properties": {"ref": "69a53497c3e94615b1084071e0ee6a02", "@spider": "nacional_inn_bra_dpa", "addr:street": "Av. Cásper Líbero, 115 - Santa Ifigênia, São Paulo - SP", "addr:city": "São Paulo", "addr:state": "São Paulo", "addr:postcode": "01207-010", "phones": {"Store": ["(11) 3311-7311"]}, "email": {"Customer Service": ["reservas@daninnplanalto.com.br"]}, "website": "https://www.nacionalinn.com.br/", "operatingHours": {"Store": "Mo-Su 00:00-23:59"}, "chain_id": "33455", "chain_name": "Nacional Inn"}, "geometry": {"type": "Point", "coordinates": [-46.6368, -23.5404]}},
{"type": "Feature", "id": "7NwrLyi32hWQ85f_MZQDdehpHiw=", "properties": {"ref": "f5c74153ced94ae3b5f88f16f34e5d55", "@spider": "nacional_inn_bra_dpa", "addr:street": "R. Maria Antônia, 40 - Vila Buarque, São Paulo - SP", "addr:city": "São Paulo", "addr:state": "São Paulo", "addr:postcode": "01222-010", "phones": {"Store": ["(11) 3257-1500"]}, "email": {"Customer Service": ["reservas@daninnhigienopolis.com.br"]}, "website": "https://www.nacionalinn.com.br/", "operatingHours": {"Store": "Mo-Su 00:00-23:59"}, "chain_id": "33455", "chain_name": "Nacional Inn"}, "geometry": {"type": "Point", "coordinates": [-46.6491, -23.5477]}},
{"type": "Feature", "id": "jJYswG9eAlX3SnsTJ9kHYD3TADI=", "properties": {"ref": "a41b6e101ab8452ebc4b54fafa9c3073", "@spider": "nacional_inn_bra_dpa", "addr:street": "Largo Santa Ifigênia, São Paulo - SP", "addr:city": "São Paulo", "addr:state": "São Paulo", "addr:postcode": "01207-010", "phones": {"Store": ["+55 (11) 36149970"]}, "email": {"Customer Service": ["reservas@hotelsaopauloinn.com.br"]}, "website": "https://www.nacionalinn.com.br/", "operatingHours": {"Store": "Mo-Su 00:00-23:59"}, "chain_id": "33455", "chain_name": "Nacional Inn"}, "geometry": {"type": "Point", "coordinates": [-46.6357, -23.5426]}},
{"type": "Feature", "id": "IiTx0FYk00FxeZh9OfCp_c97txw=", "properties": {"ref": "76b0293d92824cea95fd5ae0b67bf374", "@spider": "nacional_inn_bra_dpa", "addr:street": "Avenida Cásper Líbero, 125, Centro, Centro", "addr:city": "São Paulo", "addr:state": "São Paulo", "addr:postcode": "01033-001", "phones": {"Store": ["(11) 3228-6833"]}, "email": {"Customer Service": ["reservas@nacionalinnsaopaulo.com.br"]}, "website": "https://www.nacionalinn.com.br/", "operatingHours": {"Store": "Mo-Su 00:00-23:59"}, "chain_id": "33455", "chain_name": "Nacional Inn"}, "geometry": {"type": "Point", "coordinates": [-46.6367, -23.5403]}},
{"type": "Feature", "id": "6GqetNtpT1Lv6518KQMHfOE2lFI=", "properties": {"ref": "fc8f128aa18146a3b8919c4a3beaa477", "@spider": "nacional_inn_bra_dpa", "addr:street": "R. Miguel Cortez, 35 - Vila Suconasa, Araraquara - SP", "addr:city": "Araraquara", "addr:state": "São Paulo", "addr:postcode": "14807-066", "phones": {"Store": ["(16) 2103-0038"]}, "email": {"Customer Service": ["reservas@daninnararaquara.com.br"]}, "website": "https://www.nacionalinn.com.br/", "operatingHours": {"Store": "Mo-Su 00:00-23:59"}, "chain_id": "33455", "chain_name": "Nacional Inn"}, "geometry": {"type": "Point", "coordinates": [-48.1709, -21.8075]}},
{"type": "Feature", "id": "mbjb6Ld0QbBLDhSqFPyeBPdtiBU=", "properties": {"ref": "8394f76bd9e14233a7dce330e93c64b8", "@spider": "nacional_inn_bra_dpa", "addr:street": "R. Coronel Luíz da Cunha, 404 - Vila Tiberio, Ribeirão Preto - SP", "addr:city": "Ribeirão Preto", "addr:state": "São Paulo", "addr:postcode": "14050-040", "phones": {"Store": ["(16) 2108-0787"]}, "email": {"Customer Service": ["reservas@daninnrp.com.br"]}, "website": "https://www.nacionalinn.com.br/", "operatingHours": {"Store": "Mo-Su 00:00-23:59"}, "chain_id": "33455", "chain_name": "Nacional Inn"}, "geometry": {"type": "Point", "coordinates": [-47.8159, -21.1688]}},
{"type": "Feature", "id": "f8RavZ1iemjPYoWDic0WNsiRbxo=", "properties": {"ref": "2b20496ca5d14c67962933feec58c435", "@spider": "nacional_inn_bra_dpa", "addr:street": "Av. Edilson Lamartine Mendes, 125 - São Benedito,  Uberaba - MG", "addr:city": "Uberaba", "addr:state": "Minas Gerais", "addr:postcode": "38045-000", "phones": {"Store": ["(34) 2101-0275"]}, "email": {"Customer Service": ["reservas@hotelgoldenparkuberaba.com.br"]}, "website": "https://www.nacionalinn.com.br/", "operatingHours": {"Store": "Mo-Su 00:00-23:59"}, "chain_id": "33455", "chain_name": "Nacional Inn"}, "geometry": {"type": "Point", "coordinates": [-47.9464, -19.7705]}},
{"type": "Feature", "id": "_Q5QlUec1NRCvarZwTtCcNTkZLY=", "properties": {"ref": "75a9f2de07974ef59e6e10ba9cd5597b", "@spider": "nacional_inn_bra_dpa", "addr:street": "Av. Dr. João Guilhermino, 287, São José dos Campos - SP", "addr:city": "São José dos Campos", "addr:state": "São Paulo", "addr:postcode": "12210-131", "phones": {"Store": ["(12) 3941-8588"]}, "email": {"Customer Service": ["reservas@daninnsaojose.com.br"]}, "website": "https://www.nacionalinn.com.br/", "operatingHours": {"Store": "Mo-Su 00:00-23:59"}, "chain_id": "33455", "chain_name": "Nacional Inn"}, "geometry": {"type": "Point", "coordinates": [-45.8859, -23.1882]}},
{"type": "Feature", "id": "qeyUaWJymbM8Cv-T9E8E29bBV20=", "properties": {"ref": "60c6883c11d64b149ccc6ddfa1b3557a", "@spider": "nacional_inn_bra_dpa", "addr:street": "R XV de Novembro 3150, None", "addr:city": "São José do Rio Preto", "addr:state": "São Paulo", "addr:postcode": "15015-110", "phones": {"Store": ["(17) 2138-8787"]}, "email": {"Customer Service": ["reservas@daninnsjrpreto.com.br"]}, "website": "https://www.nacionalinn.com.br/", "operatingHours": {"Store": "Mo-Su 00:00-23:59"}, "chain_id": "33455", "chain_name": "Nacional Inn"}, "geometry": {"type": "Point", "coordinates": [-49.3806, -20.8133]}},
{"type": "Feature", "id": "Owq5WC1dChIKjrYQZcyD2k6qk18=", "properties": {"ref": "3a1d899e0c3f4abf9c92f4c297b7e9bf", "@spider": "nacional_inn_bra_dpa", "addr:street": "Av. Otávio Rocha 280, None", "addr:city": "Porto Alegre", "addr:state": "Rio Grande do Sul", "addr:postcode": "90020151", "phones": {"Store": ["51 35498058"]}, "email": {"Customer Service": ["reservas@nacionalinnpoa.com.br"]}, "website": "https://www.nacionalinn.com.br/", "operatingHours": {"Store": "Mo-Su 00:00-23:59"}, "chain_id": "33455", "chain_name": "Nacional Inn"}, "geometry": {"type": "Point", "coordinates": [-51.2241, -30.0283]}},
{"type": "Feature", "id": "FKMrDt5pO4EtmFPT9saiVbyYlFc=", "properties": {"ref": "d8d2f163599d4cc5b3763b5b76179ef5", "@spider": "nacional_inn_bra_dpa", "addr:street": "Av. das Cataratas, 8355, Foz do Iguaçu - PR", "addr:city": "Foz do Iguaçu", "addr:state": "Paraná", "addr:postcode": "85853-866", "phones": {"Store": ["(45) 3301-1405"]}, "email": {"Customer Service": ["reservas@nacionalinnfoz.com.br"]}, "website": "https://www.nacionalinn.com.br/", "operatingHours": {"Store": "Mo-Su 00:00-23:59"}, "chain_id": "33455", "chain_name": "Nacional Inn"}, "geometry": {"type": "Point", "coordinates": [-54.516, -25.5907]}},
{"type": "Feature", "id": "0GzLuM-bJ6eHMKqK3DJpecN6hoY=", "properties": {"ref": "4a97754154714929a2ba451766c1dee8", "@spider": "nacional_inn_bra_dpa", "addr:street": "Rodovia Senador José Ermírio de Moraes, Km 2,6, s/n - Iporanga, Sorocaba - SP", "addr:city": "Sorocaba", "addr:state": "São Paulo", "addr:postcode": "18090-380", "phones": {"Store": ["+55 (15) 32389800"]}, "email": {"Customer Service": ["reservas@nacionalinnsorocaba.com.br"]}, "website": "https://www.nacionalinn.com.br/", "operatingHours": {"Store": "Mo-Su 00:00-23:59"}, "chain_id": "33455", "chain_name": "Nacional Inn"}, "geometry": {"type": "Point", "coordinates": [-47.4196, -23.4657]}},
{"type": "Feature", "id": "bEftufJdJQ_hj1SOAT5pOWf1RrE=", "properties": {"ref": "0e429f7c51974642884b90ca3a735c96", "@spider": "nacional_inn_bra_dpa", "addr:street": " Rua Ribeiro de Brito, 1250 - Boa Viagem, Recife - PE", "addr:city": "Recife", "addr:state": "Pernambuco", "addr:postcode": "51021-310", "phones": {"Store": ["(81) 2123-1700"]}, "email": {"Customer Service": ["recepcao@nacionalinnrecife.com.br"]}, "website": "https://www.nacionalinn.com.br/", "operatingHours": {"Store": "Mo-Su 00:00-23:59"}, "chain_id": "33455", "chain_name": "Nacional Inn"}, "geometry": {"type": "Point", "coordinates": [-34.9081, -8.12278]}},
{"type": "Feature", "id": "v8OXpcAMm3cloRPxVikIClGTZqg=", "properties": {"ref": "af176faf0086492585e2db4cb635753c", "@spider": "nacional_inn_bra_dpa", "addr:street": "Av. Getúlio Vargas, 2330 - Recreio São Judas Tadeu, São Carlos - SP", "addr:city": "São Carlos", "addr:state": "São Paulo", "addr:postcode": "13571-271", "phones": {"Store": ["(16) 2108-0791"]}, "email": {"Customer Service": ["reservas@nacionalinnsaocarlos.com.br"]}, "website": "https://www.nacionalinn.com.br/", "operatingHours": {"Store": "Mo-Su 00:00-23:59"}, "chain_id": "33455", "chain_name": "Nacional Inn"}, "geometry": {"type": "Point", "coordinates": [-47.8703, -22.0352]}},
{"type": "Feature", "id": "lthemQcsN8-w-COZImL5Is-7sp4=", "properties": {"ref": "40b4c1d8c1124ed0839e2b0e19b7b514", "@spider": "nacional_inn_bra_dpa", "addr:street": "Av. Juscelino Kubitscheck, n° 3485, Foz do Iguaçu - PR", "addr:city": "Foz do Iguaçu", "addr:state": "Paraná", "addr:postcode": "85864-000", "phones": {"Store": ["(45) 3301-1469"]}, "email": {"Customer Service": ["reservas@daninnfoz.com.br"]}, "website": "https://www.nacionalinn.com.br/", "operatingHours": {"Store": "Mo-Su 00:00-23:59"}, "chain_id": "33455", "chain_name": "Nacional Inn"}, "geometry": {"type": "Point", "coordinates": [-54.5857, -25.5167]}},
{"type": "Feature", "id": "j_upXCN4xEg1sFMMjR7Sn_bXpSU=", "properties": {"ref": "b0c27780438a45a8a74266b7423b39ad", "@spider": "nacional_inn_bra_dpa", "addr:street": "Rua Benjamin Franklin, 682, Rodovia Anhanguera Km 104,5, Acesso pelo Km 103 A (sentido interior) -", "addr:city": "Campinas", "addr:state": "São Paulo", "addr:postcode": "13069-360", "phones": {"Store": ["(19) 3518-6000 "]}, "email": {"Customer Service": ["reservas@daninnanhanguera.com.br"]}, "website": "https://www.nacionalinn.com.br/", "operatingHours": {"Store": "Mo-Su 00:00-23:59"}, "chain_id": "33455", "chain_name": "Nacional Inn"}, "geometry": {"type": "Point", "coordinates": [-47.16, -22.8491]}},
{"type": "Feature", "id": "-VNm9Gn58SEl3_MgAGZeMCf7NZk=", "properties": {"ref": "9d554c7b015a455197e4cd9f69c14e4a", "@spider": "nacional_inn_bra_dpa", "addr:street": "Rua Conceição, 450 , Cambuí - Campinas / SP", "addr:city": "Campinas", "addr:state": "São Paulo", "addr:postcode": "13010-050", "phones": {"Store": ["(19) 3735-1800"]}, "email": {"Customer Service": ["reservas@nacionalinncambui.com.br"]}, "website": "https://www.nacionalinn.com.br/", "operatingHours": {"Store": "Mo-Su 00:00-23:59"}, "chain_id": "33455", "chain_name": "Nacional Inn"}, "geometry": {"type": "Point", "coordinates": [-47.0553, -22.9039]}},
{"type": "Feature", "id": "swGaZq5q0XP83w0CnF0dFAhmyco=", "properties": {"ref": "d59b1f09351144018e470da4cf673410", "@spider": "nacional_inn_bra_dpa", "addr:street": "Av. Fernando Correa da Costa, 93, Areão", "addr:city": "Cuiaba", "addr:state": "Mato Grosso", "addr:postcode": "78010-400", "phones": {"Store": ["(65) 3616 3500"]}, "email": {"Customer Service": ["reservas@nacionalinncuiaba.com.br"]}, "website": "https://www.nacionalinn.com.br/", "operatingHours": {"Store": "Mo-Su 00:00-23:59"}, "chain_id": "33455", "chain_name": "Nacional Inn"}, "geometry": {"type": "Point", "coordinates": [-56.0876, -15.6017]}},
{"type": "Feature", "id": "s558fWhON57S_KvTIJ29RidDfdE=", "properties": {"ref": "7dfbfe7bce7c4c3693269b118f7e4e2c", "@spider": "nacional_inn_bra_dpa", "addr:street": "R. Lourenço Pinto, 458 - Centro, Curitiba - PR", "addr:city": "Curitiba", "addr:state": "Paraná", "addr:postcode": "80010-160", "phones": {"Store": ["+55 (41) 33224242"]}, "email": {"Customer Service": ["reservas@nacionalinncuritiba.com.br"]}, "website": "https://www.nacionalinn.com.br/", "operatingHours": {"Store": "Mo-Su 00:00-23:59"}, "chain_id": "33455", "chain_name": "Nacional Inn"}, "geometry": {"type": "Point", "coordinates": [-49.2679, -25.4374]}},
{"type": "Feature", "id": "N2pdqsu1YHIjorMtFrc6k5bans0=", "properties": {"ref": "acc651382e2f4212b52fb8beac57f705", "@spider": "nacional_inn_bra_dpa", "addr:street": "Av. Júlio de Mesquita, 139 - Cambuí, Campinas - SP", "addr:city": "Campinas", "addr:state": "São Paulo", "addr:postcode": "13025-060", "phones": {"Store": ["+55 (19) 35129300"]}, "email": {"Customer Service": ["reservas@daninncambui.com.br"]}, "website": "https://www.nacionalinn.com.br/", "operatingHours": {"Store": "Mo-Su 00:00-23:59"}, "chain_id": "33455", "chain_name": "Nacional Inn"}, "geometry": {"type": "Point", "coordinates": [-47.0526, -22.904]}},
{"type": "Feature", "id": "MGm_uma5Ksk3jdug8ke2aQ1PpbE=", "properties": {"ref": "40e77f0b591c40fda74b4ec8bd4e8fe9", "@spider": "nacional_inn_bra_dpa", "addr:street": "Av. Sen. Salgado Filho, 201 - Centro Histórico, Porto Alegre - RS", "addr:city": "Porto Alegre", "addr:state": "Rio Grande do Sul", "addr:postcode": "90010-221", "phones": {"Store": ["(51)3093-4848"]}, "email": {"Customer Service": ["reservas@daninnportoalegre.com.br"]}, "website": "https://www.nacionalinn.com.br/", "operatingHours": {"Store": "Mo-Su 00:00-23:59"}, "chain_id": "33455", "chain_name": "Nacional Inn"}, "geometry": {"type": "Point", "coordinates": [-51.2257, -30.031]}},
{"type": "Feature", "id": "OTXu5GfA1WyfpdQ-2wM2vaaJ7ao=", "properties": {"ref": "41233c9d962b4a6fb3de8b75ba181c6d", "@spider": "nacional_inn_bra_dpa", "addr:street": "Rua Regente Feijo , 595", "addr:city": "Campinas", "addr:state": "São Paulo", "addr:postcode": "13013-052", "phones": {"Store": ["(19) 3232-3036"]}, "email": {"Customer Service": ["reservas@eurosuithotel.com.br"]}, "website": "https://www.nacionalinn.com.br/", "operatingHours": {"Store": "Mo-Su 00:00-23:59"}, "chain_id": "33455", "chain_name": "Nacional Inn"}, "geometry": {"type": "Point", "coordinates": [-47.0586, -22.9091]}},
{"type": "Feature", "id": "XTZGMyLbezj-RrZnGLqODWEOSpg=", "properties": {"ref": "92c9319eff4c431ea488d9341d3df8e4", "@spider": "nacional_inn_bra_dpa", "addr:street": "R. Amintas de Barros, 71 - Centro, , Curitiba - PR", "addr:city": "Curitiba", "addr:state": "Paraná", "addr:postcode": "80060-205", "phones": {"Store": ["+55 (41) 33228558"]}, "email": {"Customer Service": ["reservas@daninncuritiba.com.br"]}, "website": "https://www.nacionalinn.com.br/", "operatingHours": {"Store": "Mo-Su 00:00-23:59"}, "chain_id": "33455", "chain_name": "Nacional Inn"}, "geometry": {"type": "Point", "coordinates": [-49.2652, -25.4276]}},
{"type": "Feature", "id": "UVSRSgJODZRi9DQ2Mha-7E7FUgA=", "properties": {"ref": "ababd0c40c364296986b4766b25d696f", "@spider": "nacional_inn_bra_dpa", "addr:street": "Rua Almirante Barroso, 2006, Foz do Iguaçu - PR", "addr:city": "Foz do Iguaçu", "addr:state": "Paraná", "addr:postcode": "85851-010", "phones": {"Store": ["(45) 3301-1468"]}, "email": {"Customer Service": ["reservas@goldenparkinternacionalfoz.com.br"]}, "website": "https://www.nacionalinn.com.br/", "operatingHours": {"Store": "Mo-Su 00:00-23:59"}, "chain_id": "33455", "chain_name": "Nacional Inn"}, "geometry": {"type": "Point", "coordinates": [-54.5844, -25.5373]}},
{"type": "Feature", "id": "6ipO3SWow7XOWjb83tduDoQdknY=", "properties": {"ref": "951f8582d4764ccab10d0cb091bb9215", "@spider": "nacional_inn_bra_dpa", "addr:street": "R. São Paulo, 89 - Centro, Poços de Caldas - MG", "addr:city": "Poços de Caldas", "addr:state": "Minas Gerais", "addr:postcode": "37701-012", "phones": {"Store": ["(35) 2143-0283"]}, "email": {"Customer Service": ["central.reservas@nacionalinn.com.br"]}, "website": "https://www.nacionalinn.com.br/", "operatingHours": {"Store": "Mo-Su 00:00-23:59"}, "chain_id": "33455", "chain_name": "Nacional Inn"}, "geometry": {"type": "Point", "coordinates": [-46.5668, -21.7865]}},
{"type": "Feature", "id": "QdhvV1OS22PseISarg6k5LGAicQ=", "properties": {"ref": "32e004b8416742f4a7a0d6ec41f0ac60", "@spider": "nacional_inn_bra_dpa", "addr:street": "Av. Dr. Afonso Vergueiro, 1850 - Vila Casa Nova, Sorocaba - SP", "addr:city": "Sorocaba", "addr:state": "São Paulo", "addr:postcode": "18040-000", "phones": {"Store": ["+55 (15) 34125100"]}, "email": {"Customer Service": ["reservas@daninnsorocaba.com.br"]}, "website": "https://www.nacionalinn.com.br/", "operatingHours": {"Store": "Mo-Su 00:00-23:59"}, "chain_id": "33455", "chain_name": "Nacional Inn"}, "geometry": {"type": "Point", "coordinates": [-47.4689, -23.4972]}},
{"type": "Feature", "id": "0SsPW3ZzY9Wyxsic0yg9XFgu6vw=", "properties": {"ref": "5c69280b9c7140b38fd0b6a143d0f6e9", "@spider": "nacional_inn_bra_dpa", "addr:street": "Av. Ver. Edmundo Cardilo, 3608 - Parque Vivaldi Leite Ribeiro, Poços de Caldas - MG", "addr:city": "Poços de Caldas", "addr:state": "Minas Gerais", "addr:postcode": "37706-106", "phones": {"Store": ["35 3114 3400"]}, "email": {"Customer Service": ["resorts@nacionalinn.com.br"]}, "website": "https://www.nacionalinn.com.br/", "operatingHours": {"Store": "Mo-Su 00:00-23:59"}, "chain_id": "33455", "chain_name": "Nacional Inn"}, "geometry": {"type": "Point", "coordinates": [-46.5554, -21.8139]}},
{"type": "Feature", "id": "_CG0S6grKiLgfWTJGf72HL2oyic=", "properties": {"ref": "436bb90b1ea54ebb8ebccb2621e9319e", "@spider": "nacional_inn_bra_dpa", "addr:street": "R. Antônio Luchiari, 900 - Distrito Industrial, Campinas - SP", "addr:city": "Campinas", "addr:state": "São Paulo", "addr:postcode": "13054-700", "phones": {"Store": ["+55 (19) 37251600"]}, "email": {"Customer Service": ["reservas@goldenparkviracopos.com.br"]}, "website": "https://www.nacionalinn.com.br/", "operatingHours": {"Store": "Mo-Su 00:00-23:59"}, "chain_id": "33455", "chain_name": "Nacional Inn"}, "geometry": {"type": "Point", "coordinates": [-47.1115, -22.9945]}},
{"type": "Feature", "id": "OZjU93z88pWppFZfQOv3z6MbJNU=", "properties": {"ref": "d6079b9979b348d39b3d1fdf584aefd6", "@spider": "nacional_inn_bra_dpa", "addr:street": "Rodovia Senador José Ermírio de Moraes - KM 2.6 A, S/N, Iporanga, Sorocaba - SP", "addr:city": "Sorocaba", "addr:state": "São Paulo", "addr:postcode": "18090-380", "phones": {"Store": ["+55 (15) 32186969"]}, "email": {"Customer Service": ["reservas@goldenparksorocaba.com.br"]}, "website": "https://www.nacionalinn.com.br/", "operatingHours": {"Store": "Mo-Su 00:00-23:59"}, "chain_id": "33455", "chain_name": "Nacional Inn"}, "geometry": {"type": "Point", "coordinates": [-47.4194, -23.4659]}},
{"type": "Feature", "id": "DoouVl2r6MvcdBWew3SOvmScX1w=", "properties": {"ref": "f81f3018601b4bcb8884ec1fe3e05be6", "@spider": "nacional_inn_bra_dpa", "addr:street": "R. Barros Cobra, 35 - Centro, Poços de Caldas - MG", "addr:city": "Poços de Caldas", "addr:state": "Minas Gerais", "addr:postcode": "37701-018", "phones": {"Store": ["35 2143-0283"]}, "email": {"Customer Service": ["central.reservas@nacionalinn.com.br"]}, "website": "https://www.nacionalinn.com.br/", "operatingHours": {"Store": "Mo-Su 00:00-23:59"}, "chain_id": "33455", "chain_name": "Nacional Inn"}, "geometry": {"type": "Point", "coordinates": [-46.5658, -21.7894]}},
{"type": "Feature", "id": "pSsot4_sKjYTc3v75lFNEjCdsE0=", "properties": {"ref": "28381250130d4b0ab237597f42f28108", "@spider": "nacional_inn_bra_dpa", "addr:street": "Rua Barão de Campinas, 224 - Centro, Limeira - SP", "addr:city": "Limeira", "addr:state": "São Paulo", "addr:postcode": "13480-210", "phones": {"Store": ["(19) 3446-5300"]}, "email": {"Customer Service": ["reservas@nacionalinnlimeira.com.br"]}, "website": "https://www.nacionalinn.com.br/", "operatingHours": {"Store": "Mo-Su 00:00-23:59"}, "chain_id": "33455", "chain_name": "Nacional Inn"}, "geometry": {"type": "Point", "coordinates": [-47.3992, -22.564]}},
{"type": "Feature", "id": "tAcD6EQ-rCb14VL2wxCbmhdRDZY=", "properties": {"ref": "f855a600bf544839b516065e86442387", "@spider": "nacional_inn_bra_dpa", "addr:street": "Av. Ver. Edmundo Cardilo, 3500, None", "addr:city": "Poços de Caldas", "addr:state": "Minas Gerais", "addr:postcode": "37710-005", "phones": {"Store": ["35 3114 3400"]}, "email": {"Customer Service": ["resorts@nacionalinn.com.br"]}, "website": "https://www.nacionalinn.com.br/", "operatingHours": {"Store": "Mo-Su 00:00-23:59"}, "chain_id": "33455", "chain_name": "Nacional Inn"}, "geometry": {"type": "Point", "coordinates": [-46.557, -21.8112]}},
{"type": "Feature", "id": "fBEnyCGwroKe5WMUhBJthT-D45s=", "properties": {"ref": "478883f238314cec90b580b589346e98", "@spider": "nacional_inn_bra_dpa", "addr:street": "R. Mariano Torres, 976 - Centro, Curitiba - PR", "addr:city": "Curitiba", "addr:state": "Paraná", "addr:postcode": "80060-120", "phones": {"Store": ["(41) 3014-4341"]}, "email": {"Customer Service": ["reservas@nacionalinntorres.com.br"]}, "website": "https://www.nacionalinn.com.br/", "operatingHours": {"Store": "Mo-Su 00:00-23:59"}, "chain_id": "33455", "chain_name": "Nacional Inn"}, "geometry": {"type": "Point", "coordinates": [-49.2607, -25.435]}},
{"type": "Feature", "id": "bckHl4KJJ9352P4U0N-ipBxwr-Q=", "properties": {"ref": "f026b5e1d83b4a8aa8d92b5d57256763", "@spider": "nacional_inn_bra_dpa", "addr:street": "Av. Francisco Sales, 70 - Centro, , Poços de Caldas - MG", "addr:city": "Poços de Caldas", "addr:state": "Minas Gerais", "addr:postcode": "37701-703", "phones": {"Store": ["(35) 2143-0283"]}, "email": {"Customer Service": ["central.reservas@nacionalinn.com.br"]}, "website": "https://www.nacionalinn.com.br/", "operatingHours": {"Store": "Mo-Su 00:00-23:59"}, "chain_id": "33455", "chain_name": "Nacional Inn"}, "geometry": {"type": "Point", "coordinates": [-46.5668, -21.7859]}},
{"type": "Feature", "id": "DrbR3X4T_cZIKRdzQFsIB1I-y-M=", "properties": {"ref": "14327112f64f461a9fc55e116a078843", "@spider": "nacional_inn_bra_dpa", "addr:street": "Avenida Vereador Edmundo Cardillo, 3131, Jardim Del Rey -", "addr:city": "Poços de Caldas", "addr:state": "Minas Gerais", "addr:postcode": "37706-106", "phones": {"Store": ["35 3114 3400"]}, "email": {"Customer Service": ["resorts@nacionalinn.com.br"]}, "website": "https://www.nacionalinn.com.br/", "operatingHours": {"Store": "Mo-Su 00:00-23:59"}, "chain_id": "33455", "chain_name": "Nacional Inn"}, "geometry": {"type": "Point", "coordinates": [-46.5529, -21.8138]}},
{"type": "Feature", "id": "9C2zMZxZ0gwBtqXNuIJNyF-ToVc=", "properties": {"ref": "785373a41e674afa96850cae3da133fb", "@spider": "nacional_inn_bra_dpa", "addr:street": "R. Alfredo Tosi, 1088 - Núcleo Agricola Alpha, Franca - SP", "addr:city": "Franca", "addr:state": "São Paulo", "addr:postcode": "14403-180", "phones": {"Store": ["(16) 2103-0039"]}, "email": {"Customer Service": ["reservas@daninnfranca.com.br"]}, "website": "https://www.nacionalinn.com.br/", "operatingHours": {"Store": "Mo-Su 00:00-23:59"}, "chain_id": "33455", "chain_name": "Nacional Inn"}, "geometry": {"type": "Point", "coordinates": [-47.4103, -20.5626]}},
{"type": "Feature", "id": "zKCWh0_dKIG80_L5Z_v6y3CnZzo=", "properties": {"ref": "719fdf26514c470e92f046de816bcfa3", "@spider": "nacional_inn_bra_dpa", "addr:street": "Av. Benedito de Campos, 35 - Jardim do Trevo, Campinas - SP", "addr:city": "Campinas", "addr:state": "São Paulo", "addr:postcode": "13030-100", "phones": {"Store": ["(19) 3772-1400"]}, "email": {"Customer Service": ["comercial@nacionalinncampinas.com.br"]}, "website": "https://www.nacionalinn.com.br/", "operatingHours": {"Store": "Mo-Su 00:00-23:59"}, "chain_id": "33455", "chain_name": "Nacional Inn"}, "geometry": {"type": "Point", "coordinates": [-47.0713, -22.9305]}},
{"type": "Feature", "id": "DTRSdxvAw7WaPVwGRxN4z8DStcE=", "properties": {"ref": "5e3c71e2d1ac45c3bf9c2312cd66a8bf", "@spider": "nacional_inn_bra_dpa", "addr:street": "Av. Sete de Setembro, 2448 - Cristo Rei, Curitiba - PR", "addr:city": "Curitiba", "addr:state": "Paraná", "addr:postcode": "80230-010", "phones": {"Store": ["+55 (41) 30727878"]}, "email": {"Customer Service": ["reservas@victoriavilla.com.br"]}, "website": "https://www.nacionalinn.com.br/", "operatingHours": {"Store": "Mo-Su 00:00-23:59"}, "chain_id": "33455", "chain_name": "Nacional Inn"}, "geometry": {"type": "Point", "coordinates": [-49.263, -25.436]}},
{"type": "Feature", "id": "yGAAZTsdKf2B_RBaIl6twqRtsYU=", "properties": {"ref": "1d70aca3c94b4b76bba4a398f88246fb", "@spider": "nacional_inn_bra_dpa", "addr:street": "Rua Espírito Santo n 215 , Belo Horizonte - MG", "addr:city": "Belo Horizonte", "addr:state": "Minas Gerais", "addr:postcode": "30160-030", "phones": {"Store": ["+55 (31) 32736866"]}, "email": {"Customer Service": ["reservas@nacionalinnbh.com.br"]}, "website": "https://www.nacionalinn.com.br/", "operatingHours": {"Store": "Mo-Su 00:00-23:59"}, "chain_id": "33455", "chain_name": "Nacional Inn"}, "geometry": {"type": "Point", "coordinates": [-43.9364, -19.9165]}},
{"type": "Feature", "id": "trOppTd55gCiBeOBeRzSRERIm7Q=", "properties": {"ref": "4d9572ccaf964c80807c2861231d99c7", "@spider": "nacional_inn_bra_dpa", "addr:street": "Av. Boa Viagem, 5576, Boa Viagem, Recife - PE", "addr:city": "Recife", "addr:state": "Pernambuco", "addr:postcode": "51030-000", "phones": {"Store": ["(81) 3462-6454"]}, "email": {"Customer Service": ["RESERVAS@GOLDENPARKRECIFE.COM.BR"]}, "website": "https://www.nacionalinn.com.br/", "operatingHours": {"Store": "Mo-Su 00:00-23:59"}, "chain_id": "33455", "chain_name": "Nacional Inn"}, "geometry": {"type": "Point", "coordinates": [-34.9023, -8.13773]}},
{"type": "Feature", "id": "0CpTPJ8j7-bcWvJ4sSz_WO6bPu8=", "properties": {"ref": "012954df592144d38efe3f9bc1854cc2", "@spider": "nacional_inn_bra_dpa", "addr:street": "R. Cel. Luíz da Cunha, 368, None", "addr:city": "Ribeirão Preto", "addr:state": "São Paulo", "addr:postcode": "14050-040", "phones": {"Store": ["(16) 2108-0789"]}, "email": {"Customer Service": ["reservas@daninnexpressrp.com.br"]}, "website": "https://www.nacionalinn.com.br/", "operatingHours": {"Store": "Mo-Su 00:00-23:59"}, "chain_id": "33455", "chain_name": "Nacional Inn"}, "geometry": {"type": "Point", "coordinates": [-47.8158, -21.169]}},
{"type": "Feature", "id": "i7DsAaTaHxUrXBFRmzoCwIdnHBs=", "properties": {"ref": "2ebdc630238c4ed5b717df75d5e06c8b", "@spider": "nacional_inn_bra_dpa", "addr:street": "Av. Bernardo Vieira de Melo, 694 - Piedade, Jaboatão dos Guararapes - PE", "addr:city": "Grande Recife", "addr:state": "Pernambuco", "addr:postcode": "54080-310", "phones": {"Store": ["(81) 2123-4343"]}, "email": {"Customer Service": ["reservas@daninnrecife.com.br"]}, "website": "https://www.nacionalinn.com.br/", "operatingHours": {"Store": "Mo-Su 00:00-23:59"}, "chain_id": "33455", "chain_name": "Nacional Inn"}, "geometry": {"type": "Point", "coordinates": [-34.9165, -8.17529]}},
{"type": "Feature", "id": "sCRwhrqAaIavejyM3GbksXZT8LQ=", "properties": {"ref": "cfc89cd3a02842fca0de833798e9217a", "@spider": "nacional_inn_bra_dpa", "addr:street": "Av. Pres. Castelo Branco, 1925, Ribeirão Preto - SP", "addr:city": "Ribeirão Preto", "addr:state": "São Paulo", "addr:postcode": "14095-000", "phones": {"Store": ["(16) 2103-0040"]}, "email": {"Customer Service": ["reservason@vilageinnrp.com.br"]}, "website": "https://www.nacionalinn.com.br/", "operatingHours": {"Store": "Mo-Su 00:00-23:59"}, "chain_id": "33455", "chain_name": "Nacional Inn"}, "geometry": {"type": "Point", "coordinates": [-47.7667, -21.1993]}},
{"type": "Feature", "id": "fsXYcH-EHT5Bp5x7a5rmcyUogkc=", "properties": {"ref": "a3d9cba097e04656a121990469bf7adf", "@spider": "nacional_inn_bra_dpa", "addr:street": "Praça Francisco Barreto , 260 , Centro, Barretos - SP", "addr:city": "Barretos", "addr:state": "São Paulo", "addr:postcode": "14780-050", "phones": {"Store": ["(17) 2137-9922"]}, "email": {"Customer Service": ["reservas@daninnbarretos.com.br"]}, "website": "https://www.nacionalinn.com.br/", "operatingHours": {"Store": "Mo-Su 00:00-23:59"}, "chain_id": "33455", "chain_name": "Nacional Inn"}, "geometry": {"type": "Point", "coordinates": [-48.5668, -20.5585]}},
{"type": "Feature", "id": "3PGT2A0qyX6j4U_n2x8EaAS4NGc=", "properties": {"ref": "049cf64b60844fc8b166a4ac6515ada2", "@spider": "nacional_inn_bra_dpa", "addr:street": "Luiz Pereira Barreto,219, None", "addr:city": "Araçatuba", "addr:state": "São Paulo", "addr:postcode": "13010-320", "phones": {"Store": ["(18) 2101-2661"]}, "email": {"Customer Service": ["reservas@nacionalinnaracatuba.com.br"]}, "website": "https://www.nacionalinn.com.br/", "operatingHours": {"Store": "Mo-Su 00:00-23:59"}, "chain_id": "33455", "chain_name": "Nacional Inn"}, "geometry": {"type": "Point", "coordinates": [-50.4385, -21.2087]}},
{"type": "Feature", "id": "Z_Mz7Dy3h7Pwwg4e0juZYy1I83I=", "properties": {"ref": "c66e179a946f412481cbf76fd3cfeafa", "@spider": "nacional_inn_bra_dpa", "addr:street": "Av. do Contôrno, 80 - Estância do Barreiro, Araxá - MG", "addr:city": "Araxá", "addr:state": "Minas Gerais", "addr:postcode": "38184-529", "phones": {"Store": ["(34) 2101-0276"]}, "email": {"Customer Service": ["reservas@nacionalinnprevidencia.com.br"]}, "website": "https://www.nacionalinn.com.br/", "operatingHours": {"Store": "Mo-Su 00:00-23:59"}, "chain_id": "33455", "chain_name": "Nacional Inn"}, "geometry": {"type": "Point", "coordinates": [-46.9462, -19.646]}},
{"type": "Feature", "id": "1ipL9dpgEI_34d0dXWgDAhjIf9c=", "properties": {"ref": "4824e302cd97479f9a395d3e7c650911", "@spider": "nacional_inn_bra_dpa", "addr:street": "R. do Rosário, 1358 - Centro, Piracicaba - SP", "addr:city": "Piracicaba", "addr:state": "São Paulo", "addr:postcode": "13400-186", "phones": {"Store": ["(19) 3428-4000"]}, "email": {"Customer Service": ["reservas@nacionalinnpiracicaba.com.br"]}, "website": "https://www.nacionalinn.com.br/", "operatingHours": {"Store": "Mo-Su 00:00-23:59"}, "chain_id": "33455", "chain_name": "Nacional Inn"}, "geometry": {"type": "Point", "coordinates": [-47.6533, -22.7274]}},
{"type": "Feature", "id": "8pmHJigMuSER11uC4_jPW82iB-U=", "properties": {"ref": "f43aa5840d9b46ecaeb4df8d19fef028", "@spider": "nacional_inn_bra_dpa", "addr:street": "Av. Dep. Benedito Matarazzo, 9009 - Jardim Oswaldo Cruz, São José dos Campos - SP", "addr:city": "São José dos Campos", "addr:state": "São Paulo", "addr:postcode": "12216580", "phones": {"Store": ["(12) 3947-0000"]}, "email": {"Customer Service": ["reservas@nacionalinnsjc.com.br"]}, "website": "https://www.nacionalinn.com.br/", "operatingHours": {"Store": "Mo-Su 00:00-23:59"}, "chain_id": "33455", "chain_name": "Nacional Inn"}, "geometry": {"type": "Point", "coordinates": [-45.8831, -23.2029]}},
{"type": "Feature", "id": "H2i1UxhJUAT2-McmNwPDiOb_QPo=", "properties": {"ref": "0704f1a4930a43f8885ed898b1fdea4a", "@spider": "nacional_inn_bra_dpa", "addr:street": "Avenida Gastão Vidigal - Alameda Topázio (subida do Morro do Elefante), 35, Jardim Belvedere , Campos do Jordão - SP", "addr:city": "Campos do Jordão", "addr:state": "São Paulo", "addr:postcode": "12460-000", "phones": {"Store": ["(12) 3663-4540"]}, "email": {"Customer Service": ["reservas@pousadanacionalinn.com.br"]}, "website": "https://www.nacionalinn.com.br/", "operatingHours": {"Store": "Mo-Su 00:00-23:59"}, "chain_id": "33455", "chain_name": "Nacional Inn"}, "geometry": {"type": "Point", "coordinates": [-45.5603, -22.714]}},
{"type": "Feature", "id": "A0TaLD6JZmbgdzig8ZVDnWT9Smg=", "properties": {"ref": "246967c960744617b4b5a66561ba7fd7", "@spider": "nacional_inn_bra_dpa", "addr:street": "Av. Filomena Cartafina, 152 - Jardim Recreio Dos Bandeirantes, Uberaba - MG", "addr:city": "Uberaba", "addr:state": "Minas Gerais", "addr:postcode": "38040-450", "phones": {"Store": ["(34) 21010274"]}, "email": {"Customer Service": ["reservas@daninnuberaba.com.br"]}, "website": "https://www.nacionalinn.com.br/", "operatingHours": {"Store": "Mo-Su 00:00-23:59"}, "chain_id": "33455", "chain_name": "Nacional Inn"}, "geometry": {"type": "Point", "coordinates": [-47.9454, -19.7811]}},
{"type": "Feature", "id": "j6HCQpdfF1BcyRe3oOHs3eSLCxc=", "properties": {"ref": "eea4d708c2934a8ea2f11d3fbbe27dee", "@spider": "nacional_inn_bra_dpa", "addr:street": "Rua Boaventura do Amaral, 1274, None", "addr:city": "Campinas", "addr:state": "São Paulo", "addr:postcode": "13015-191", "phones": {"Store": ["19 21175900"]}, "email": {"Customer Service": ["reservas@cassinotower.com.br"]}, "website": "https://www.nacionalinn.com.br/", "operatingHours": {"Store": "Mo-Su 00:00-23:59"}, "chain_id": "33455", "chain_name": "Nacional Inn"}, "geometry": {"type": "Point", "coordinates": [-47.0561, -22.9026]}},
{"type": "Feature", "id": "anA9HkrHpIUS8SRNHrLg33JA8kc=", "properties": {"ref": "450a0b16c7e147249f5ba0f5963558ec", "@spider": "nacional_inn_bra_dpa", "addr:street": "Rua Voluntários de São Paulo, 3367, None", "addr:city": "São José do Rio Preto", "addr:state": "São Paulo", "addr:postcode": "15015-200", "phones": {"Store": ["(17) 2138-8788"]}, "email": {"Customer Service": ["reservas@cassinotowersaojose.com.br"]}, "website": "https://www.nacionalinn.com.br/", "operatingHours": {"Store": "Mo-Su 00:00-23:59"}, "chain_id": "33455", "chain_name": "Nacional Inn"}, "geometry": {"type": "Point", "coordinates": [-49.3826, -20.8143]}},
{"type": "Feature", "id": "v9Ef2Vx21NZPWnEvXzDqEc343PQ=", "properties": {"ref": "d28c7d2d905f41c78bac7aa8c57f8a44", "@spider": "nacional_inn_bra_dpa", "addr:street": "Av do Contorno KM 5, None", "addr:city": "Poços de Caldas", "addr:state": "Minas Gerais", "addr:postcode": "37706306", "phones": {"Store": ["(35) 2143 0283"]}, "email": {"Customer Service": ["central.reservas@nacionalinn.com.br"]}, "website": "https://www.nacionalinn.com.br/", "operatingHours": {"Store": "Mo-Su 00:00-23:59"}, "chain_id": "33455", "chain_name": "Nacional Inn"}, "geometry": {"type": "Point", "coordinates": [-46.5619, -21.7854]}},
{"type": "Feature", "id": "h7IEASKycX7Zv_zVlVfxmIexoC0=", "properties": {"ref": "14f16c4b62a54acdbd8cf5aeab046ea2", "@spider": "nacional_inn_bra_dpa", "addr:street": "AVENIDA GETÚLIO VARGAS, 1250, None", "addr:city": "São Carlos", "addr:state": "São Paulo", "addr:postcode": "13570-672", "phones": {"Store": ["(16) 2108-0786"]}, "email": {"Customer Service": ["reservas@daninnsaocarlos.com.br"]}, "website": "https://www.nacionalinn.com.br/", "operatingHours": {"Store": "Mo-Su 00:00-23:59"}, "chain_id": "33455", "chain_name": "Nacional Inn"}, "geometry": {"type": "Point", "coordinates": [-47.8797, -22.0338]}},
{"type": "Feature", "id": "nlLGJUn25K0GW-W7g8_DebauYf4=", "properties": {"ref": "9842ea3be14941b28f203386aceaae41", "@spider": "nacional_inn_bra_dpa", "addr:street": "Rua Luiz Bianconi, 159", "addr:city": "Guarujá", "addr:state": "São Paulo", "addr:postcode": "11420-200", "phones": {"Store": ["+55 (13) 33862929"]}, "email": {"Customer Service": ["res.nac.gja@nacionalinn.com.br"]}, "website": "https://www.nacionalinn.com.br/", "operatingHours": {"Store": "Mo-Su 00:00-23:59"}, "chain_id": "33455", "chain_name": "Nacional Inn"}, "geometry": {"type": "Point", "coordinates": [-46.2707, -24.0057]}},
{"type": "Feature", "id": "2wRchpEsCKLIhJUGH-YnlNOVLSs=", "properties": {"ref": "d22b04add57a498fbf25470cbb017a2e", "@spider": "nacional_inn_bra_dpa", "addr:street": "Avenida Cesário Alvim,740, None", "addr:city": "Uberlândia", "addr:state": "Minas Gerais", "addr:postcode": "38400-098", "phones": {"Store": ["+55 (34) 21019299"]}, "email": {"Customer Service": ["reservas@daninnuberlandia.com.br"]}, "website": "https://www.nacionalinn.com.br/", "operatingHours": {"Store": "Mo-Su 00:00-23:59"}, "chain_id": "33455", "chain_name": "Nacional Inn"}, "geometry": {"type": "Point", "coordinates": [-48.273, -18.9173]}},
{"type": "Feature", "id": "p__Y5uxR1EyZ3vITOtGrGWqbXrQ=", "properties": {"ref": "a3f1f4d6fd354c5b8172c65cb0cf2a2d", "@spider": "nacional_inn_bra_dpa", "addr:street": "AVENIDA JÚLIO DE MESQUITA 115, None", "addr:city": "Campinas", "addr:state": "São Paulo", "addr:postcode": "13025-060", "phones": {"Store": ["+55 (19) 30818000"]}, "email": {"Customer Service": ["reservas@goldenparkcambui.com.br"]}, "website": "https://www.nacionalinn.com.br/", "operatingHours": {"Store": "Mo-Su 00:00-23:59"}, "chain_id": "33455", "chain_name": "Nacional Inn"}, "geometry": {"type": "Point", "coordinates": [-47.0525, -22.9041]}},
{"type": "Feature", "id": "pyaI8PH0mQ3VGalIz2_A2DRAMiQ=", "properties": {"ref": "3d82f6ae5eb04c59ac0914bb89e84fb1", "@spider": "nacional_inn_bra_dpa", "addr:street": "Av. Pres. Castelo Branco, 2330 - Nova Ribeirânia, Ribeirão Preto - SP", "addr:city": "Ribeirão Preto", "addr:state": "São Paulo", "addr:postcode": "14096-560", "phones": {"Store": ["(16) 2108-0792"]}, "email": {"Customer Service": ["reservas@goldenparkrp.com.br"]}, "website": "https://www.nacionalinn.com.br/", "operatingHours": {"Store": "Mo-Su 00:00-23:59"}, "chain_id": "33455", "chain_name": "Nacional Inn"}, "geometry": {"type": "Point", "coordinates": [-47.7649, -21.2023]}},
{"type": "Feature", "id": "-33Xl7RqYX06LSl7brVFU7igFUU=", "properties": {"ref": "e1489ccf5e774258aa174609354661c1", "@spider": "nacional_inn_bra_dpa", "addr:street": "Estrada das Marinas, 111", "addr:city": "Angra dos Reis", "addr:state": "Rio de Janeiro", "addr:postcode": "23907-000", "phones": {"Store": ["(24) 2102-8984"]}, "email": {"Customer Service": ["reservas@nacionalinnangra.com.br"]}, "website": "https://www.nacionalinn.com.br/", "operatingHours": {"Store": "Mo-Su 00:00-23:59"}, "chain_id": "33455", "chain_name": "Nacional Inn"}, "geometry": {"type": "Point", "coordinates": [-44.2986, -23.006]}},
{"type": "Feature", "id": "GB4O2NzC62SMxDS2mhXCz9T4qT4=", "properties": {"ref": "15effb081beb45f49b0bc9bf2f2c5572", "@spider": "nacional_inn_bra_dpa", "addr:street": "Rua Escolastica Melchert da Fonseca, 358, ", "addr:city": "Campos do Jordão", "addr:state": "São Paulo", "addr:postcode": "12460-000", "phones": {"Store": ["+55 (12) 36630744"]}, "email": {"Customer Service": ["reservas@pousadavictoriavilla.com.br"]}, "website": "https://www.nacionalinn.com.br/", "operatingHours": {"Store": "Mo-Su 00:00-23:59"}, "chain_id": "33455", "chain_name": "Nacional Inn"}, "geometry": {"type": "Point", "coordinates": [-45.5741, -22.7245]}},
{"type": "Feature", "id": "6bLRNxSVCYntNrTKI6T1uX6PFdI=", "properties": {"ref": "78d13c4c8ed340efb28409ad3edd1a50", "@spider": "nacional_inn_bra_dpa", "addr:street": "Rua benjamin Lins, 513  - Bairro: Centro de Curitiba, None", "addr:city": "Curitiba", "addr:state": "Paraná", "addr:postcode": "80420-100", "phones": {"Store": ["(41) 3028-5000"]}, "email": {"Customer Service": ["reservas@eurosuitebatel.com.br"]}, "website": "https://www.nacionalinn.com.br/", "operatingHours": {"Store": []}, "chain_id": "33455", "chain_name": "Nacional Inn"}, "geometry": {"type": "Point", "coordinates": [-49.2793, -25.4392]}},
{"type": "Feature", "id": "oznkzBWaqiP2c0tfprP31_EsA74=", "properties": {"ref": "7e3f38fdf8a7443998b8b65bfc0f58e6", "@spider": "nacional_inn_bra_dpa", "addr:street": "R. Martins Fontes, 71, Consolação", "addr:city": "São Paulo", "addr:state": "São Paulo", "addr:postcode": "01050-000", "phones": {"Store": ["(11) 2199-0608"]}, "email": {"Customer Service": ["reservas@nacionalinnjaragua.com"]}, "website": "https://www.nacionalinn.com.br/", "operatingHours": {"Store": "Mo-Su 00:00-23:59"}, "chain_id": "33455", "chain_name": "Nacional Inn"}, "geometry": {"type": "Point", "coordinates": [-46.6443, -23.5492]}},
{"type": "Feature", "id": "_3FH79yrKhjwde-864tXT91yNkQ=", "properties": {"ref": "29c54a7398a94a629a195392cf5caa8a", "@spider": "nacional_inn_bra_dpa", "addr:street": "Avenida Marginal, 151", "addr:city": "Ubatuba", "addr:state": "São Paulo", "addr:postcode": "11687-145", "phones": {"Store": ["+55 (12) 21224884"]}, "email": {"Customer Service": ["reservas@nacionalinnubatuba.com.br"]}, "website": "https://www.nacionalinn.com.br/", "operatingHours": {"Store": []}, "chain_id": "33455", "chain_name": "Nacional Inn"}, "geometry": {"type": "Point", "coordinates": [-45.077, -23.4886]}},
{"type": "Feature", "id": "AAtbH-zo3Me2dqbwYD1eBvsOoGQ=", "properties": {"ref": "825909007c2e4aae87ad410e4f151e75", "@spider": "nacional_inn_bra_dpa", "addr:street": "AVENIDA MANOEL RIBAS, 5480", "addr:city": "Curitiba", "addr:state": "Paraná", "addr:postcode": "82400-000", "phones": {"Store": ["(41) 99866-7998"]}, "email": {"Customer Service": ["reservas@nacionalinnsantafelicidade.com.br"]}, "website": "https://www.nacionalinn.com.br/", "operatingHours": {"Store": "Mo-Su 00:00-23:59"}, "chain_id": "33455", "chain_name": "Nacional Inn"}, "geometry": {"type": "Point", "coordinates": [-49.3248, -25.4067]}},
{"type": "Feature", "id": "41uCgyGkQyGAaoOXL7BQhM3hafw=", "properties": {"ref": "2a3cdf7bae7848e79923ec79e621b829", "@spider": "nacional_inn_bra_dpa", "addr:street": "Barão do Cerro Azul, 261, None", "addr:city": "Curitiba", "addr:state": "Paraná", "addr:postcode": "83005-430", "phones": {"Store": ["(41) 3074-5000"]}, "email": {"Customer Service": ["reservas@cassinotowercuritiba.com.br"]}, "website": "https://www.nacionalinn.com.br/", "operatingHours": {"Store": "Mo-Su 00:00-23:59"}, "chain_id": "33455", "chain_name": "Nacional Inn"}, "geometry": {"type": "Point", "coordinates": [-49.1911, -25.535]}},
{"type": "Feature", "id": "RppECHuU0g7I-ccCZXGQG4Ey3tk=", "properties": {"ref": "1fdf2658a9f54491ba2d3aca5c16e73c", "@spider": "nacional_inn_bra_dpa", "addr:street": "Avenida Rondon Pacheco,5455, None", "addr:city": "Uberlândia", "addr:state": "Minas Gerais", "addr:postcode": "38400-655", "phones": {"Store": ["+55 (34) 21019290"]}, "email": {"Customer Service": ["reservas@goldenparkuberlandia.com.br"]}, "website": "https://www.nacionalinn.com.br/", "operatingHours": {"Store": "Mo-Su 00:00-23:59"}, "chain_id": "33455", "chain_name": "Nacional Inn"}, "geometry": {"type": "Point", "coordinates": [-48.2599, -18.9006]}},
{"type": "Feature", "id": "mL1i6wvYCFqSQLUMOLW63d1_1tU=", "properties": {"ref": "b9cd7780e50f40428f699eeae25516f0", "@spider": "nacional_inn_bra_dpa", "addr:street": "Rua Duque de Caxias, 443, None", "addr:city": "Campinas", "addr:state": "São Paulo", "addr:postcode": "13015-310", "phones": {"Store": ["551937375400"]}, "email": {"Customer Service": ["res.cpq.prk.twr@nacionalinn.com.br"]}, "website": "https://www.nacionalinn.com.br/", "operatingHours": {"Store": "Mo-Su 00:00-23:59"}, "chain_id": "33455", "chain_name": "Nacional Inn"}, "geometry": {"type": "Point", "coordinates": [-47.0572, -22.9092]}}]}