{"type":"FeatureCollection","features":[{"type": "Feature", "id": "cX9vbUkpyvUgFPX1VbpzEIbpiFc=", "properties": {"ref": "77a264aa7e484134af1cab1675b9f285", "@spider": "tesco_cze_dpa", "addr:full": "28. října 14, Mikulov, 69201", "addr:city": "Mikulov", "addr:postcode": "69201", "phones": {"Store": ["+420-702 007 876"]}, "email": {"Customer Service": []}, "website": "https://itesco.cz/prodejny/", "operatingHours": {"Store": "Mo 07:00-21:00; Tu 07:00-21:00; We 07:00-21:00; Th 07:00-21:00; Fr 07:00-21:00; Sa 07:00-21:00; Su 07:00-21:00"}, "chain_id": "44", "chain_name": "Tesco"}, "geometry": {"type": "Point", "coordinates": [16.6275, 48.8035]}},
{"type": "Feature", "id": "WhRBsECQpH79B4XZhH_6owBF3NY=", "properties": {"ref": "251e7c630e124249b91ee49626054d8f", "@spider": "tesco_cze_dpa", "addr:full": "Domoradická 299, Český Krumlov, 38101", "addr:city": "Český Krumlov", "addr:postcode": "38101", "phones": {"Store": ["+420-380 349 111"]}, "email": {"Customer Service": []}, "website": "https://itesco.cz/prodejny/", "operatingHours": {"Store": "Mo 07:00-22:00; Tu 07:00-22:00; We 07:00-22:00; Th 07:00-22:00; Fr 07:00-22:00; Sa 07:00-22:00; Su 07:00-22:00"}, "chain_id": "44", "chain_name": "Tesco"}, "geometry": {"type": "Point", "coordinates": [14.3355, 48.8237]}},
{"type": "Feature", "id": "Mjo2u-Ig6AMCU1lKjKZUm8IUkF0=", "properties": {"ref": "0d476201024647dabc3afcd430358c0b", "@spider": "tesco_cze_dpa", "addr:full": "Lidická 3341/137, Břeclav, 69002", "addr:city": "Břeclav", "addr:postcode": "69002", "phones": {"Store": ["+420-519 300 317"]}, "email": {"Customer Service": []}, "website": "https://itesco.cz/prodejny/", "operatingHours": {"Store": "Mo 06:00-22:00; Tu 06:00-22:00; We 06:00-22:00; Th 06:00-22:00; Fr 06:00-22:00; Sa 06:00-22:00; Su 06:00-22:00"}, "chain_id": "44", "chain_name": "Tesco"}, "geometry": {"type": "Point", "coordinates": [16.9018, 48.78]}},
{"type": "Feature", "id": "R3UIRCRh_3zsLkicO8CoklhxKvI=", "properties": {"ref": "19cf1aa685b042e69477fbe1966a55bf", "@spider": "tesco_cze_dpa", "addr:full": "Krajinská 16, České Budějovice, 37001", "addr:city": "České Budějovice", "addr:postcode": "37001", "phones": {"Store": ["+420-725 040 834"]}, "email": {"Customer Service": []}, "website": "https://itesco.cz/prodejny/", "operatingHours": {"Store": "Mo 07:00-22:00; Tu 07:00-22:00; We 07:00-22:00; Th 07:00-22:00; Fr 07:00-22:00; Sa 07:00-22:00; Su 07:00-22:00"}, "chain_id": "44", "chain_name": "Tesco"}, "geometry": {"type": "Point", "coordinates": [14.4738, 48.9763]}},
{"type": "Feature", "id": "1Fk0YFNiqfWMNE29jhrsOz2XFfg=", "properties": {"ref": "a90e2175ced243ab88b183e163205a25", "@spider": "tesco_cze_dpa", "addr:full": "Sportovní 1610, Pohořelice, 69123", "addr:city": "Pohořelice", "addr:postcode": "69123", "phones": {"Store": ["+420-602 140 223"]}, "email": {"Customer Service": []}, "website": "https://itesco.cz/prodejny/", "operatingHours": {"Store": "Mo 07:00-21:00; Tu 07:00-21:00; We 07:00-21:00; Th 07:00-21:00; Fr 07:00-21:00; Sa 07:00-21:00; Su 07:00-21:00"}, "chain_id": "44", "chain_name": "Tesco"}, "geometry": {"type": "Point", "coordinates": [16.5187, 48.9803]}},
{"type": "Feature", "id": "MOWRbxAIuZbr6TnfhIjTHaMbuT0=", "properties": {"ref": "56c61c442fae4b4aaae2e586c35e97ff", "@spider": "tesco_cze_dpa", "addr:full": "J. Boreckého 1590, České Budějovice, 37002", "addr:city": "České Budějovice", "addr:postcode": "37002", "phones": {"Store": ["+420-385 104 338"]}, "email": {"Customer Service": []}, "website": "https://itesco.cz/prodejny/", "operatingHours": {"Store": "Mo 06:00-22:00; Tu 06:00-22:00; We 06:00-22:00; Th 06:00-22:00; Fr 06:00-22:00; Sa 06:00-22:00; Su 06:00-22:00"}, "chain_id": "44", "chain_name": "Tesco"}, "geometry": {"type": "Point", "coordinates": [14.4595, 48.9866]}},
{"type": "Feature", "id": "-OvCfJWBig9FdLH4u0B_rnrCWvI=", "properties": {"ref": "81d9aa9a6ef04f23a2aa22ad5f5cff60", "@spider": "tesco_cze_dpa", "addr:full": "Oslavanská 1548, Ivančice, 66491", "addr:city": "Ivančice", "addr:postcode": "66491", "phones": {"Store": ["+420-546 121 111"]}, "email": {"Customer Service": []}, "website": "https://itesco.cz/prodejny/", "operatingHours": {"Store": "Mo 06:00-22:00; Tu 06:00-22:00; We 06:00-22:00; Th 06:00-22:00; Fr 06:00-22:00; Sa 06:00-22:00; Su 06:00-22:00"}, "chain_id": "44", "chain_name": "Tesco"}, "geometry": {"type": "Point", "coordinates": [16.3654, 49.1029]}},
{"type": "Feature", "id": "9p8PZv7NvHKcY1smg-4JfRLIsXU=", "properties": {"ref": "063244117cfc4da6ba392960f21b5f6d", "@spider": "tesco_cze_dpa", "addr:full": "Myslibořská 299, Telč, 58856", "addr:city": "Telč", "addr:postcode": "58856", "phones": {"Store": ["+420-725 806 628"]}, "email": {"Customer Service": []}, "website": "https://itesco.cz/prodejny/", "operatingHours": {"Store": "Mo 07:00-20:00; Tu 07:00-20:00; We 07:00-20:00; Th 07:00-20:00; Fr 07:00-20:00; Sa 07:00-20:00; Su 07:00-20:00"}, "chain_id": "44", "chain_name": "Tesco"}, "geometry": {"type": "Point", "coordinates": [15.4653, 49.1855]}},
{"type": "Feature", "id": "BvEpyzGtzpDcedYThuDaWCn8pzo=", "properties": {"ref": "13eea1f06ac84d4d88b94d2fd8eb90dd", "@spider": "tesco_cze_dpa", "addr:full": "Masarykova 1000, Rajhrad, 66461", "addr:city": "Rajhrad", "addr:postcode": "66461", "phones": {"Store": ["+420-725 424 988"]}, "email": {"Customer Service": []}, "website": "https://itesco.cz/prodejny/", "operatingHours": {"Store": "Mo 07:00-21:00; Tu 07:00-21:00; We 07:00-21:00; Th 07:00-21:00; Fr 07:00-21:00; Sa 07:00-21:00; Su 07:00-21:00"}, "chain_id": "44", "chain_name": "Tesco"}, "geometry": {"type": "Point", "coordinates": [16.6037, 49.0895]}},
{"type": "Feature", "id": "WHc6E8gC3DKACWylg-jXpWnZGW0=", "properties": {"ref": "47268009623f45fb86737f4d13fd0c74", "@spider": "tesco_cze_dpa", "addr:full": "Budějovická 650, Veselí nad Lužnicí, 38901", "addr:city": "Veselí nad Lužnicí", "addr:postcode": "38901", "phones": {"Store": ["+420-602 284 237"]}, "email": {"Customer Service": []}, "website": "https://itesco.cz/prodejny/", "operatingHours": {"Store": "Mo 07:00-20:00; Tu 07:00-20:00; We 07:00-20:00; Th 07:00-20:00; Fr 07:00-20:00; Sa 07:00-20:00; Su 07:00-20:00"}, "chain_id": "44", "chain_name": "Tesco"}, "geometry": {"type": "Point", "coordinates": [14.6924, 49.1804]}},
{"type": "Feature", "id": "_xNpsB2xtqL1hmRi7gQAiny9S4s=", "properties": {"ref": "329600960a2a4a2484920a1ac0269c3a", "@spider": "tesco_cze_dpa", "addr:full": "Vídeňská 100, Brno, 61900", "addr:city": "Brno", "addr:postcode": "61900", "phones": {"Store": ["+420-547 133 111"]}, "email": {"Customer Service": []}, "website": "https://itesco.cz/prodejny/", "operatingHours": {"Store": "Mo 07:00-22:00; Tu 07:00-22:00; We 07:00-22:00; Th 07:00-22:00; Fr 07:00-22:00; Sa 07:00-22:00; Su 07:00-22:00"}, "chain_id": "44", "chain_name": "Tesco"}, "geometry": {"type": "Point", "coordinates": [16.5982, 49.1567]}},
{"type": "Feature", "id": "zMOlrhcGuxhS8rMfOzeo_-BzQXA=", "properties": {"ref": "65c00ae142af48dc885f323b2252b8d1", "@spider": "tesco_cze_dpa", "addr:full": "Skandinávská 2, Brno, 61901", "addr:city": "Brno", "addr:postcode": "61901", "phones": {"Store": ["+420-543 519 111"]}, "email": {"Customer Service": []}, "website": "https://itesco.cz/prodejny/", "operatingHours": {"Store": "Mo 06:00-22:00; Tu 06:00-22:00; We 06:00-22:00; Th 06:00-22:00; Fr 06:00-22:00; Sa 06:00-22:00; Su 06:00-22:00"}, "chain_id": "44", "chain_name": "Tesco"}, "geometry": {"type": "Point", "coordinates": [16.6279, 49.1574]}},
{"type": "Feature", "id": "jeq_aCsE6308ARzofPGWss0BGWo=", "properties": {"ref": "315e44c997c946b384fca3d740267d5e", "@spider": "tesco_cze_dpa", "addr:full": "Netroufalky 770/14, Brno, 62500", "addr:city": "Brno", "addr:postcode": "62500", "phones": {"Store": ["+420-547 105 111"]}, "email": {"Customer Service": []}, "website": "https://itesco.cz/prodejny/", "operatingHours": {"Store": "Mo 07:00-22:00; Tu 07:00-22:00; We 07:00-22:00; Th 07:00-22:00; Fr 07:00-22:00; Sa 07:00-22:00; Su 07:00-22:00"}, "chain_id": "44", "chain_name": "Tesco"}, "geometry": {"type": "Point", "coordinates": [16.566, 49.1771]}},
{"type": "Feature", "id": "o1mHTPLK1UiK3HNe0moZ5q6lbcY=", "properties": {"ref": "51f7fdf1ea744d6196afa5b3d93bf1d8", "@spider": "tesco_cze_dpa", "addr:full": "Dornych 4, Brno, 65800", "addr:city": "Brno", "addr:postcode": "65800", "phones": {"Store": ["+420-541 122 243"]}, "email": {"Customer Service": []}, "website": "https://itesco.cz/prodejny/", "operatingHours": {"Store": "Mo 08:00-20:00; Tu 06:00-21:00; We 06:00-21:00; Th 06:00-21:00; Fr 06:00-21:00; Sa 06:00-21:00; Su 06:00-21:00"}, "chain_id": "44", "chain_name": "Tesco"}, "geometry": {"type": "Point", "coordinates": [16.6129, 49.1895]}},
{"type": "Feature", "id": "QdEUtee2Udvt_ubQ5_nEaLRqwV0=", "properties": {"ref": "41cab46863984d3197609503870bb386", "@spider": "tesco_cze_dpa", "addr:full": "Dr. Hajného 1274, Vodňany, 38901", "addr:city": "Vodňany", "addr:postcode": "38901", "phones": {"Store": ["+420-602 144 758"]}, "email": {"Customer Service": []}, "website": "https://itesco.cz/prodejny/", "operatingHours": {"Store": "Mo 07:00-20:00; Tu 07:00-20:00; We 07:00-20:00; Th 07:00-20:00; Fr 07:00-20:00; Sa 07:00-20:00; Su 07:00-20:00"}, "chain_id": "44", "chain_name": "Tesco"}, "geometry": {"type": "Point", "coordinates": [14.1823, 49.1484]}},
{"type": "Feature", "id": "pIOgf_6RyCYkDVwhmlQ0WE1Wep8=", "properties": {"ref": "cef40efcc7584367aba59071f4dce0cd", "@spider": "tesco_cze_dpa", "addr:full": "Divadelní 1, Brno, 60200", "addr:city": "Brno", "addr:postcode": "60200", "phones": {"Store": ["+420-725 424 987"]}, "email": {"Customer Service": []}, "website": "https://itesco.cz/prodejny/", "operatingHours": {"Store": "Mo 06:00-21:00; Tu 06:00-21:00; We 06:00-21:00; Th 06:00-21:00; Fr 06:00-21:00; Sa 06:00-21:00; Su 06:00-21:00"}, "chain_id": "44", "chain_name": "Tesco"}, "geometry": {"type": "Point", "coordinates": [16.614, 49.1951]}},
{"type": "Feature", "id": "F220dZdvLCxNSrreobodEzxKKWc=", "properties": {"ref": "c71661d42cc44c71912571cfaec74c6d", "@spider": "tesco_cze_dpa", "addr:full": "Bělohorská 161, Brno, 63600", "addr:city": "Brno", "addr:postcode": "63600", "phones": {"Store": ["+420-602 473 862"]}, "email": {"Customer Service": []}, "website": "https://itesco.cz/prodejny/", "operatingHours": {"Store": "Mo 07:00-21:00; Tu 07:00-21:00; We 07:00-21:00; Th 07:00-21:00; Fr 07:00-21:00; Sa 07:00-21:00; Su 07:00-21:00"}, "chain_id": "44", "chain_name": "Tesco"}, "geometry": {"type": "Point", "coordinates": [16.6615, 49.1898]}},
{"type": "Feature", "id": "JFReDZJMJmJkHBNVfNml0OEbJuY=", "properties": {"ref": "91fa9414f809489286518f17b065e711", "@spider": "tesco_cze_dpa", "addr:full": "Obchodní 879, Soběslav, 39201", "addr:city": "Soběslav", "addr:postcode": "39201", "phones": {"Store": ["+420-725 767 635"]}, "email": {"Customer Service": []}, "website": "https://itesco.cz/prodejny/", "operatingHours": {"Store": "Mo 07:00-20:00; Tu 07:00-20:00; We 07:00-20:00; Th 07:00-20:00; Fr 07:00-20:00; Sa 07:00-20:00; Su 07:00-20:00"}, "chain_id": "44", "chain_name": "Tesco"}, "geometry": {"type": "Point", "coordinates": [14.7135, 49.2635]}},
{"type": "Feature", "id": "Ar0iTNx-U7HqrPjeurT7euwjYkc=", "properties": {"ref": "11fac55f84564a9eb33c064ad139f5ae", "@spider": "tesco_cze_dpa", "addr:full": "Veselská 946, Uherský Ostroh, 68724", "addr:city": "Uherský Ostroh", "addr:postcode": "68724", "phones": {"Store": [""]}, "email": {"Customer Service": []}, "website": "https://itesco.cz/prodejny/", "operatingHours": {"Store": "Mo 07:00-20:00; Tu 07:00-20:00; We 07:00-20:00; Th 07:00-20:00; Fr 07:00-20:00; Sa 07:00-20:00; Su 07:00-20:00"}, "chain_id": "44", "chain_name": "Tesco"}, "geometry": {"type": "Point", "coordinates": [17.402209, 48.983113]}},
{"type": "Feature", "id": "H23PB0_Czb_MwJnfv7Hc_ct8gF8=", "properties": {"ref": "b46783f3a33f45728570d943f1362b8a", "@spider": "tesco_cze_dpa", "addr:full": "Cimburkova 4, Brno, 61200", "addr:city": "Brno", "addr:postcode": "61200", "phones": {"Store": ["+420 725 058 083"]}, "email": {"Customer Service": []}, "website": "https://itesco.cz/prodejny/", "operatingHours": {"Store": "Mo 06:00-24:00; Tu 06:00-24:00; We 06:00-24:00; Th 06:00-24:00; Fr 06:00-24:00; Sa 06:00-24:00; Su 06:00-24:00"}, "chain_id": "44", "chain_name": "Tesco"}, "geometry": {"type": "Point", "coordinates": [16.6078, 49.2174]}},
{"type": "Feature", "id": "p0k3NtN7f1Un9fLZ5RIiLG_ydUY=", "properties": {"ref": "6150d7c29ff9428290a5fcf89fe34300", "@spider": "tesco_cze_dpa", "addr:full": "Sušická 617, Vimperk, 37501", "addr:city": "Vimperk", "addr:postcode": "37501", "phones": {"Store": ["+420-602 168 484"]}, "email": {"Customer Service": []}, "website": "https://itesco.cz/prodejny/", "operatingHours": {"Store": "Mo 07:00-20:00; Tu 07:00-20:00; We 07:00-20:00; Th 07:00-20:00; Fr 07:00-20:00; Sa 07:00-20:00; Su 07:00-20:00"}, "chain_id": "44", "chain_name": "Tesco"}, "geometry": {"type": "Point", "coordinates": [13.7785, 49.0589]}},
{"type": "Feature", "id": "HWjhHsg4slrhLCEJy2qbB6bw644=", "properties": {"ref": "4c425e7bfa0744779ad3930c455b3199", "@spider": "tesco_cze_dpa", "addr:full": "U vodojemu 992, Bechyně, 39165", "addr:city": "Bechyně", "addr:postcode": "39165", "phones": {"Store": ["+420-602 144 833"]}, "email": {"Customer Service": []}, "website": "https://itesco.cz/prodejny/", "operatingHours": {"Store": "Mo 07:00-21:00; Tu 07:00-21:00; We 07:00-21:00; Th 07:00-21:00; Fr 07:00-21:00; Sa 07:00-21:00; Su 07:00-21:00"}, "chain_id": "44", "chain_name": "Tesco"}, "geometry": {"type": "Point", "coordinates": [14.4759, 49.3029]}},
{"type": "Feature", "id": "jXAnZrOxYMATKY9dGLFqmu6kZ0s=", "properties": {"ref": "41658c1a66644baeb15f756d343399d2", "@spider": "tesco_cze_dpa", "addr:full": "Brněnská 74, Jihlava, 58601", "addr:city": "Jihlava", "addr:postcode": "58601", "phones": {"Store": ["+420-567 110 530"]}, "email": {"Customer Service": []}, "website": "https://itesco.cz/prodejny/", "operatingHours": {"Store": "Mo 06:00-22:00; Tu 06:00-22:00; We 06:00-22:00; Th 06:00-22:00; Fr 06:00-22:00; Sa 06:00-22:00; Su 06:00-22:00"}, "chain_id": "44", "chain_name": "Tesco"}, "geometry": {"type": "Point", "coordinates": [15.6091, 49.3967]}},
{"type": "Feature", "id": "ohEGVNnSpGFln4GRi2RW0Vaaq_o=", "properties": {"ref": "39852b99844d4402bf6fe351da8ae148", "@spider": "tesco_cze_dpa", "addr:full": "Maršála Malinovského 1304, Uherské Hradiště, 68601", "addr:city": "Uherské Hradiště", "addr:postcode": "68601", "phones": {"Store": ["+420-572 422 111"]}, "email": {"Customer Service": []}, "website": "https://itesco.cz/prodejny/", "operatingHours": {"Store": "Mo 06:00-22:00; Tu 06:00-22:00; We 06:00-22:00; Th 06:00-22:00; Fr 06:00-22:00; Sa 06:00-22:00; Su 06:00-22:00"}, "chain_id": "44", "chain_name": "Tesco"}, "geometry": {"type": "Point", "coordinates": [17.4677, 49.0613]}},
{"type": "Feature", "id": "nzqQXUBIh7VWQjUSxZa_6SUztjw=", "properties": {"ref": "c794624008ba4783acc55a193986e567", "@spider": "tesco_cze_dpa", "addr:full": "Mlýnská 1927, Tišnov, 66601", "addr:city": "Tišnov", "addr:postcode": "66601", "phones": {"Store": ["+420-606 021 593"]}, "email": {"Customer Service": []}, "website": "https://itesco.cz/prodejny/", "operatingHours": {"Store": "Mo 07:00-21:00; Tu 07:00-21:00; We 07:00-21:00; Th 07:00-21:00; Fr 07:00-21:00; Sa 07:00-21:00; Su 07:00-21:00"}, "chain_id": "44", "chain_name": "Tesco"}, "geometry": {"type": "Point", "coordinates": [16.4214, 49.3484]}},
{"type": "Feature", "id": "OXU9irZXgDwxymi8OtT0hZeeqQ4=", "properties": {"ref": "2587194f36304da1917b62353c681230", "@spider": "tesco_cze_dpa", "addr:full": "Rybářská 2481, Uherský Brod, 68801", "addr:city": "Uherský Brod", "addr:postcode": "68801", "phones": {"Store": ["+420-572 621 111"]}, "email": {"Customer Service": []}, "website": "https://itesco.cz/prodejny/", "operatingHours": {"Store": "Mo 07:00-22:00; Tu 07:00-22:00; We 07:00-22:00; Th 07:00-22:00; Fr 07:00-22:00; Sa 07:00-22:00; Su 07:00-22:00"}, "chain_id": "44", "chain_name": "Tesco"}, "geometry": {"type": "Point", "coordinates": [17.656, 49.0229]}},
{"type": "Feature", "id": "TbeiGbrD8XTm67Ss798p_cfE1_A=", "properties": {"ref": "b395fb7ee1794b26869efcf5da552399", "@spider": "tesco_cze_dpa", "addr:full": "Nádražní 2590, Písek, 39719", "addr:city": "Písek", "addr:postcode": "39719", "phones": {"Store": ["+420-382 561 111"]}, "email": {"Customer Service": []}, "website": "https://itesco.cz/prodejny/", "operatingHours": {"Store": "Mo 06:00-22:00; Tu 06:00-22:00; We 06:00-22:00; Th 06:00-22:00; Fr 06:00-22:00; Sa 06:00-22:00; Su 06:00-22:00"}, "chain_id": "44", "chain_name": "Tesco"}, "geometry": {"type": "Point", "coordinates": [14.1447, 49.2967]}},
{"type": "Feature", "id": "mA7S4WqYw6OuUSYOrQ5l06Uo9-k=", "properties": {"ref": "2a826ca527264de6a159cb3d8164376b", "@spider": "tesco_cze_dpa", "addr:full": "Soběslavská 3038, Tábor, 39005", "addr:city": "Tábor", "addr:postcode": "39005", "phones": {"Store": ["+420-727 948 185"]}, "email": {"Customer Service": []}, "website": "https://itesco.cz/prodejny/", "operatingHours": {"Store": "Mo 06:00-22:00; Tu 06:00-22:00; We 06:00-22:00; Th 06:00-22:00; Fr 06:00-22:00; Sa 06:00-22:00; Su 06:00-22:00"}, "chain_id": "44", "chain_name": "Tesco"}, "geometry": {"type": "Point", "coordinates": [14.6854, 49.3972]}},
{"type": "Feature", "id": "HMVG4-e3moYAMF4N3GEDCks5I28=", "properties": {"ref": "836ddac503ee4fbabb1e1dcf943d12f2", "@spider": "tesco_cze_dpa", "addr:full": "Brněnská 514/13C, Vyškov, 68201", "addr:city": "Vyškov", "addr:postcode": "68201", "phones": {"Store": ["+420-720 053 274   "]}, "email": {"Customer Service": []}, "website": "https://itesco.cz/prodejny/", "operatingHours": {"Store": "Mo 07:00-22:00; Tu 07:00-22:00; We 07:00-22:00; Th 07:00-22:00; Fr 07:00-22:00; Sa 07:00-22:00; Su 07:00-22:00"}, "chain_id": "44", "chain_name": "Tesco"}, "geometry": {"type": "Point", "coordinates": [16.9923, 49.2728]}},
{"type": "Feature", "id": "y1IqOvq9ejHR56z9kzx9QHXG-7o=", "properties": {"ref": "1596b8c418e6442abbbb3a071cbf0f47", "@spider": "tesco_cze_dpa", "addr:full": "Hrádecká 1310, Sušice, 34201", "addr:city": "Sušice", "addr:postcode": "34201", "phones": {"Store": ["+420-376 337 111"]}, "email": {"Customer Service": []}, "website": "https://itesco.cz/prodejny/", "operatingHours": {"Store": "Mo 07:00-22:00; Tu 07:00-22:00; We 07:00-22:00; Th 07:00-22:00; Fr 07:00-22:00; Sa 07:00-22:00; Su 07:00-22:00"}, "chain_id": "44", "chain_name": "Tesco"}, "geometry": {"type": "Point", "coordinates": [13.5213, 49.2411]}},
{"type": "Feature", "id": "dhMOeXC4P3t_X142E9fDXWideWQ=", "properties": {"ref": "25d30e2d6e52429e9b355f884a5382d5", "@spider": "tesco_cze_dpa", "addr:full": "Hrádecká 2611, Slavičín, 76321", "addr:city": "Slavičín", "addr:postcode": "76321", "phones": {"Store": ["+420-725 772 749"]}, "email": {"Customer Service": []}, "website": "https://itesco.cz/prodejny/", "operatingHours": {"Store": "Mo 07:00-20:00; Tu 07:00-20:00; We 07:00-20:00; Th 07:00-20:00; Fr 07:00-20:00; Sa 07:00-20:00; Su 07:00-20:00"}, "chain_id": "44", "chain_name": "Tesco"}, "geometry": {"type": "Point", "coordinates": [17.8874, 49.08]}},
{"type": "Feature", "id": "izWW3dLBV3FrX2hgSrxKz6jTbNM=", "properties": {"ref": "f3f8cc8c569a4175a8e19b7459946559", "@spider": "tesco_cze_dpa", "addr:full": "Velehradská 3254/105, Kroměříž, 76701", "addr:city": "Kroměříž", "addr:postcode": "76701", "phones": {"Store": ["+420-573 309 111"]}, "email": {"Customer Service": []}, "website": "https://itesco.cz/prodejny/", "operatingHours": {"Store": "Mo 06:00-22:00; Tu 06:00-22:00; We 06:00-22:00; Th 06:00-22:00; Fr 06:00-22:00; Sa 06:00-22:00; Su 06:00-22:00"}, "chain_id": "44", "chain_name": "Tesco"}, "geometry": {"type": "Point", "coordinates": [17.389, 49.2848]}},
{"type": "Feature", "id": "nc1XR7gEq57MKfdcDqRc6_UI9tg=", "properties": {"ref": "00761918047c40229af64208a8d5c82c", "@spider": "tesco_cze_dpa", "addr:full": "Chrudichromská 2454/3, Boskovice, 68001", "addr:city": "Boskovice", "addr:postcode": "68001", "phones": {"Store": ["+420-516 484 111"]}, "email": {"Customer Service": []}, "website": "https://itesco.cz/prodejny/", "operatingHours": {"Store": "Mo 06:00-22:00; Tu 06:00-22:00; We 06:00-22:00; Th 06:00-22:00; Fr 06:00-22:00; Sa 06:00-22:00; Su 06:00-22:00"}, "chain_id": "44", "chain_name": "Tesco"}, "geometry": {"type": "Point", "coordinates": [16.6485, 49.4924]}},
{"type": "Feature", "id": "fOHoPlsoSLDly54iTpH8JpsTKq8=", "properties": {"ref": "2ce4841f4e9c4580b94d114f34aab8a8", "@spider": "tesco_cze_dpa", "addr:full": "Kvítková 4352, Zlín, 76001", "addr:city": "Zlín", "addr:postcode": "76001", "phones": {"Store": ["+420-725 337 147"]}, "email": {"Customer Service": []}, "website": "https://itesco.cz/prodejny/", "operatingHours": {"Store": "Mo 08:00-20:00; Tu 07:00-21:00; We 07:00-21:00; Th 07:00-21:00; Fr 07:00-21:00; Sa 07:00-21:00; Su 08:00-20:00"}, "chain_id": "44", "chain_name": "Tesco"}, "geometry": {"type": "Point", "coordinates": [17.6698, 49.2267]}},
{"type": "Feature", "id": "nRDrlpYKTXIFi0L_pxmpFNwkhzc=", "properties": {"ref": "0ca3e7b7a4da4c1d87690111c5b1352c", "@spider": "tesco_cze_dpa", "addr:full": "Palackého 520, Holešov, 76901", "addr:city": "Holešov", "addr:postcode": "76901", "phones": {"Store": ["+420-573 525 695"]}, "email": {"Customer Service": []}, "website": "https://itesco.cz/prodejny/", "operatingHours": {"Store": "Mo 07:00-22:00; Tu 07:00-22:00; We 07:00-22:00; Th 07:00-22:00; Fr 07:00-22:00; Sa 07:00-22:00; Su 07:00-22:00"}, "chain_id": "44", "chain_name": "Tesco"}, "geometry": {"type": "Point", "coordinates": [17.5546, 49.3261]}},
{"type": "Feature", "id": "rvVylPWu-ZmsWV8njjKhr1jQrcA=", "properties": {"ref": "295bbee7464d421d952958cbced72f50", "@spider": "tesco_cze_dpa", "addr:full": "Konečná 25, Prostějov, 79601", "addr:city": "Prostějov", "addr:postcode": "79601", "phones": {"Store": ["+420-582 400 234"]}, "email": {"Customer Service": []}, "website": "https://itesco.cz/prodejny/", "operatingHours": {"Store": "Mo 06:00-22:00; Tu 06:00-22:00; We 06:00-22:00; Th 06:00-22:00; Fr 06:00-22:00; Sa 06:00-22:00; Su 06:00-22:00"}, "chain_id": "44", "chain_name": "Tesco"}, "geometry": {"type": "Point", "coordinates": [17.1287, 49.4834]}},
{"type": "Feature", "id": "vX3hemAWr6p9NOrbnMdbc6cCiqM=", "properties": {"ref": "1b1807cd63954168a0bd4bb0ad386b7f", "@spider": "tesco_cze_dpa", "addr:full": "Havlíčkova 1842, Chotěboř, 58301", "addr:city": "Chotěboř", "addr:postcode": "58301", "phones": {"Store": ["+420-569 773 695"]}, "email": {"Customer Service": []}, "website": "https://itesco.cz/prodejny/", "operatingHours": {"Store": "Mo 07:00-22:00; Tu 07:00-22:00; We 07:00-22:00; Th 07:00-22:00; Fr 07:00-22:00; Sa 07:00-22:00; Su 07:00-22:00"}, "chain_id": "44", "chain_name": "Tesco"}, "geometry": {"type": "Point", "coordinates": [15.6626, 49.7116]}},
{"type": "Feature", "id": "e3IOFjh4RSmIIh9GnIlRZ6eJ4WY=", "properties": {"ref": "ccfff5d61243465a81ed69c485c65a21", "@spider": "tesco_cze_dpa", "addr:full": "Okružní 1884, Vlašim, 25801", "addr:city": "Vlašim", "addr:postcode": "25801", "phones": {"Store": ["+420-317 757 111"]}, "email": {"Customer Service": []}, "website": "https://itesco.cz/prodejny/", "operatingHours": {"Store": "Mo 07:00-22:00; Tu 07:00-22:00; We 07:00-22:00; Th 07:00-22:00; Fr 07:00-22:00; Sa 07:00-22:00; Su 07:00-22:00"}, "chain_id": "44", "chain_name": "Tesco"}, "geometry": {"type": "Point", "coordinates": [14.9056, 49.7002]}},
{"type": "Feature", "id": "PGuJDUNecOjmD8DVC7IuPcZD_mw=", "properties": {"ref": "b85c2e2900b54794a3f033178f2fc430", "@spider": "tesco_cze_dpa", "addr:full": "Kojetínská 3133/10, Přerov, 75002", "addr:city": "Přerov", "addr:postcode": "75002", "phones": {"Store": ["+420-581 251 111"]}, "email": {"Customer Service": []}, "website": "https://itesco.cz/prodejny/", "operatingHours": {"Store": "Mo 06:00-22:00; Tu 06:00-22:00; We 06:00-22:00; Th 06:00-22:00; Fr 06:00-22:00; Sa 06:00-22:00; Su 06:00-22:00"}, "chain_id": "44", "chain_name": "Tesco"}, "geometry": {"type": "Point", "coordinates": [17.4439, 49.4503]}},
{"type": "Feature", "id": "xpuAAUb742atzWbOUkf5l6QyAJ0=", "properties": {"ref": "46262b3f3207400ebc4b9f9c20c1e356", "@spider": "tesco_cze_dpa", "addr:full": "17. listopadu 3170/41, Přerov, 75002", "addr:city": "Přerov", "addr:postcode": "75002", "phones": {"Store": ["+420-602 429 243"]}, "email": {"Customer Service": []}, "website": "https://itesco.cz/prodejny/", "operatingHours": {"Store": "Mo 07:00-20:00; Tu 07:00-20:00; We 07:00-20:00; Th 07:00-20:00; Fr 07:00-20:00; Sa 07:00-20:00; Su 07:00-20:00"}, "chain_id": "44", "chain_name": "Tesco"}, "geometry": {"type": "Point", "coordinates": [17.4583, 49.4524]}},
{"type": "Feature", "id": "7DJ-uGSSpBWeaPnlfpMNlvxIhzk=", "properties": {"ref": "8583e5f888784cb3bca9cc49a1ffe990", "@spider": "tesco_cze_dpa", "addr:full": "1. máje 1043, Zruč nad Sázavou, 28522", "addr:city": "Zruč nad Sázavou", "addr:postcode": "28522", "phones": {"Store": ["+420-724 531 851"]}, "email": {"Customer Service": []}, "website": "https://itesco.cz/prodejny/", "operatingHours": {"Store": "Mo 07:00-20:00; Tu 07:00-20:00; We 07:00-20:00; Th 07:00-20:00; Fr 07:00-20:00; Sa 07:00-20:00; Su 07:00-20:00"}, "chain_id": "44", "chain_name": "Tesco"}, "geometry": {"type": "Point", "coordinates": [15.0984, 49.7464]}},
{"type": "Feature", "id": "j0wMbOgB8lukqQ-jPQHHNw1BnEc=", "properties": {"ref": "b47df1e40f43485cabe7002f1b4bd41f", "@spider": "tesco_cze_dpa", "addr:full": "Hegerova 1120, Polička, 57201", "addr:city": "Polička", "addr:postcode": "57201", "phones": {"Store": ["+420-725 519 322"]}, "email": {"Customer Service": []}, "website": "https://itesco.cz/prodejny/", "operatingHours": {"Store": "Mo 07:00-20:00; Tu 07:00-20:00; We 07:00-20:00; Th 07:00-20:00; Fr 07:00-20:00; Sa 07:00-20:00; Su 07:00-20:00"}, "chain_id": "44", "chain_name": "Tesco"}, "geometry": {"type": "Point", "coordinates": [16.2781, 49.7195]}},
{"type": "Feature", "id": "qd9rAhisj9kWIp37fTVPQn4_zLI=", "properties": {"ref": "3f9f0a7d62494e4fb6122f9020388fb5", "@spider": "tesco_cze_dpa", "addr:full": "Domažlická 909, Klatovy, 33901", "addr:city": "Klatovy", "addr:postcode": "33901", "phones": {"Store": ["+420-376 351 111"]}, "email": {"Customer Service": []}, "website": "https://itesco.cz/prodejny/", "operatingHours": {"Store": "Mo 06:00-22:00; Tu 06:00-22:00; We 06:00-22:00; Th 06:00-22:00; Fr 06:00-22:00; Sa 06:00-22:00; Su 06:00-22:00"}, "chain_id": "44", "chain_name": "Tesco"}, "geometry": {"type": "Point", "coordinates": [13.2855, 49.3946]}},
{"type": "Feature", "id": "mfb7k-8Eh63djDzxTBwK5x1gNmc=", "properties": {"ref": "745000358d8f4bf48a33a2351dbb5d44", "@spider": "tesco_cze_dpa", "addr:full": "Kafkova 1223/8, Olomouc, 77900", "addr:city": "Olomouc", "addr:postcode": "77900", "phones": {"Store": ["+420-585 499 111"]}, "email": {"Customer Service": []}, "website": "https://itesco.cz/prodejny/", "operatingHours": {"Store": "Mo 06:00-22:00; Tu 06:00-22:00; We 06:00-22:00; Th 06:00-22:00; Fr 06:00-22:00; Sa 06:00-22:00; Su 06:00-22:00"}, "chain_id": "44", "chain_name": "Tesco"}, "geometry": {"type": "Point", "coordinates": [17.229, 49.5748]}},
{"type": "Feature", "id": "lSaabXOqmft2dbpAYxmnZYgQCMw=", "properties": {"ref": "e26fc37ffac6456ba95b227d2037c895", "@spider": "tesco_cze_dpa", "addr:full": "Žežická 598, Příbram, 26101", "addr:city": "Příbram", "addr:postcode": "26101", "phones": {"Store": ["+420-318 495 111"]}, "email": {"Customer Service": []}, "website": "https://itesco.cz/prodejny/", "operatingHours": {"Store": "Mo 06:00-22:00; Tu 06:00-22:00; We 06:00-22:00; Th 06:00-22:00; Fr 06:00-22:00; Sa 06:00-22:00; Su 06:00-22:00"}, "chain_id": "44", "chain_name": "Tesco"}, "geometry": {"type": "Point", "coordinates": [13.9888, 49.6711]}},
{"type": "Feature", "id": "-Ww_LhlApNxRgMkXKa4pRGSwYfE=", "properties": {"ref": "d3927145b3884488b68a4e0b9b2494fd", "@spider": "tesco_cze_dpa", "addr:full": "Nádražní 747, Kdyně, 34506", "addr:city": "Kdyně", "addr:postcode": "34506", "phones": {"Store": ["+420-725 337 144"]}, "email": {"Customer Service": []}, "website": "https://itesco.cz/prodejny/", "operatingHours": {"Store": "Mo 07:00-20:00; Tu 07:00-20:00; We 07:00-20:00; Th 07:00-20:00; Fr 07:00-20:00; Sa 07:00-20:00; Su 07:00-20:00"}, "chain_id": "44", "chain_name": "Tesco"}, "geometry": {"type": "Point", "coordinates": [13.0348, 49.389]}},
{"type": "Feature", "id": "657MbRsR-B6VzFeeBw0BQhwwZIs=", "properties": {"ref": "afa57ea6b5ed41c6b3fcf0f9bd0aea81", "@spider": "tesco_cze_dpa", "addr:full": "Silnice II/358 , Skuteč, 53973", "addr:city": "Skuteč", "addr:postcode": "53973", "phones": {"Store": ["+420-702 016 287"]}, "email": {"Customer Service": []}, "website": "https://itesco.cz/prodejny/", "operatingHours": {"Store": "Mo 07:00-20:00; Tu 07:00-20:00; We 07:00-20:00; Th 07:00-20:00; Fr 07:00-20:00; Sa 07:00-20:00; Su 07:00-20:00"}, "chain_id": "44", "chain_name": "Tesco"}, "geometry": {"type": "Point", "coordinates": [15.9911, 49.8495]}},
{"type": "Feature", "id": "-joUURwrdFLVJT8LNwfaMXpAGBs=", "properties": {"ref": "f8e615368c32489385acb1b1654120e1", "@spider": "tesco_cze_dpa", "addr:full": "Dukelská 435/13, Litovel, 78401", "addr:city": "Litovel", "addr:postcode": "78401", "phones": {"Store": ["+420-602 166 464"]}, "email": {"Customer Service": []}, "website": "https://itesco.cz/prodejny/", "operatingHours": {"Store": "Mo 07:00-20:00; Tu 07:00-20:00; We 07:00-20:00; Th 07:00-20:00; Fr 07:00-20:00; Sa 07:00-20:00; Su 07:00-20:00"}, "chain_id": "44", "chain_name": "Tesco"}, "geometry": {"type": "Point", "coordinates": [17.074, 49.7057]}},
{"type": "Feature", "id": "MaaGIINY-8BIHxAD-dZUcsahYcA=", "properties": {"ref": "9dd50ecdedf64c2baef04d7e097853da", "@spider": "tesco_cze_dpa", "addr:full": "Nádražní 595, Čerčany, 25722", "addr:city": "Čerčany", "addr:postcode": "25722", "phones": {"Store": ["+420-725 537 109"]}, "email": {"Customer Service": []}, "website": "https://itesco.cz/prodejny/", "operatingHours": {"Store": "Mo 07:00-21:00; Tu 07:00-21:00; We 07:00-21:00; Th 07:00-21:00; Fr 07:00-21:00; Sa 07:00-21:00; Su 07:00-21:00"}, "chain_id": "44", "chain_name": "Tesco"}, "geometry": {"type": "Point", "coordinates": [14.7017, 49.849]}},
{"type": "Feature", "id": "hMz_-g1rYclPaQ60XnlZf0cASus=", "properties": {"ref": "f60b52a0b3264fe8842822a8fba469bb", "@spider": "tesco_cze_dpa", "addr:full": "Sklářská 333, Sázava, 28506", "addr:city": "Sázava", "addr:postcode": "28506", "phones": {"Store": ["+420-725 806 630"]}, "email": {"Customer Service": []}, "website": "https://itesco.cz/prodejny/", "operatingHours": {"Store": "Mo 07:00-20:00; Tu 07:00-20:00; We 07:00-20:00; Th 07:00-20:00; Fr 07:00-20:00; Sa 07:00-20:00; Su 07:00-20:00"}, "chain_id": "44", "chain_name": "Tesco"}, "geometry": {"type": "Point", "coordinates": [14.9039, 49.8757]}},
{"type": "Feature", "id": "Q4xhJYvzDvfDL7cZvRI1yfMu8VQ=", "properties": {"ref": "9a44a88458dc4dd386f70d587a8b08c7", "@spider": "tesco_cze_dpa", "addr:full": "Masarykova 873, Valašské Meziříčí, 75101", "addr:city": "Valašské Meziříčí", "addr:postcode": "75101", "phones": {"Store": ["+420-571 671 111"]}, "email": {"Customer Service": []}, "website": "https://itesco.cz/prodejny/", "operatingHours": {"Store": "Mo 07:00-22:00; Tu 07:00-22:00; We 07:00-22:00; Th 07:00-22:00; Fr 07:00-22:00; Sa 07:00-22:00; Su 07:00-22:00"}, "chain_id": "44", "chain_name": "Tesco"}, "geometry": {"type": "Point", "coordinates": [17.9646, 49.4845]}},
{"type": "Feature", "id": "BUzeyHIyfoYls3zrasMKyFIzMdQ=", "properties": {"ref": "4525b9567e61429aa3f21b226704af5e", "@spider": "tesco_cze_dpa", "addr:full": "Dr. Milady Horákové 10, Chrudim, 53701", "addr:city": "Chrudim", "addr:postcode": "53701", "phones": {"Store": ["+420-469 642 111"]}, "email": {"Customer Service": []}, "website": "https://itesco.cz/prodejny/", "operatingHours": {"Store": "Mo 07:00-22:00; Tu 07:00-22:00; We 07:00-22:00; Th 07:00-22:00; Fr 07:00-22:00; Sa 07:00-22:00; Su 07:00-22:00"}, "chain_id": "44", "chain_name": "Tesco"}, "geometry": {"type": "Point", "coordinates": [15.8025, 49.9373]}},
{"type": "Feature", "id": "gIJM-ntloS0kU5uOSE4rA5-GoJM=", "properties": {"ref": "f57e22962e4a48c29d84c8ed1fa19b8c", "@spider": "tesco_cze_dpa", "addr:full": "Obchodní 2554/1, Šternberk, 78501", "addr:city": "Šternberk", "addr:postcode": "78501", "phones": {"Store": ["+420-585 092 111"]}, "email": {"Customer Service": []}, "website": "https://itesco.cz/prodejny/", "operatingHours": {"Store": "Mo 07:00-22:00; Tu 07:00-22:00; We 07:00-22:00; Th 07:00-22:00; Fr 07:00-22:00; Sa 07:00-22:00; Su 07:00-22:00"}, "chain_id": "44", "chain_name": "Tesco"}, "geometry": {"type": "Point", "coordinates": [17.2905, 49.7206]}},
{"type": "Feature", "id": "TnQnjdDGggj9Pa4KBD6xpDkOj4M=", "properties": {"ref": "af635e25f2ca4bdaa6f79e61f75d7822", "@spider": "tesco_cze_dpa", "addr:full": "Šumperská 527, Uničov, 78391", "addr:city": "Uničov", "addr:postcode": "78391", "phones": {"Store": ["+420-585 005 111"]}, "email": {"Customer Service": []}, "website": "https://itesco.cz/prodejny/", "operatingHours": {"Store": "Mo 07:00-22:00; Tu 07:00-22:00; We 07:00-22:00; Th 07:00-22:00; Fr 07:00-22:00; Sa 07:00-22:00; Su 07:00-22:00"}, "chain_id": "44", "chain_name": "Tesco"}, "geometry": {"type": "Point", "coordinates": [17.122, 49.7757]}},
{"type": "Feature", "id": "9caSlHdAi_SvQy4MTXq2IqXJesI=", "properties": {"ref": "3de873833d0f46fd843156d2e91bf7fb", "@spider": "tesco_cze_dpa", "addr:full": "Hlavní 1114, Zubří, 75654", "addr:city": "Zubří", "addr:postcode": "75654", "phones": {"Store": ["+420-725 040 831"]}, "email": {"Customer Service": []}, "website": "https://itesco.cz/prodejny/", "operatingHours": {"Store": "Mo 07:00-20:00; Tu 07:00-20:00; We 07:00-20:00; Th 07:00-20:00; Fr 07:00-20:00; Sa 07:00-20:00; Su 07:00-20:00"}, "chain_id": "44", "chain_name": "Tesco"}, "geometry": {"type": "Point", "coordinates": [18.0919, 49.464]}},
{"type": "Feature", "id": "vobFZPdG_mkOKyLr7IDJ62M7jag=", "properties": {"ref": "b83cd1cb4ea348b9930fc3564d76200a", "@spider": "tesco_cze_dpa", "addr:full": "Masarykova 802, Kutná Hora, 28401", "addr:city": "Kutná Hora", "addr:postcode": "28401", "phones": {"Store": [""]}, "email": {"Customer Service": []}, "website": "https://itesco.cz/prodejny/", "operatingHours": {"Store": "Mo 07:00-22:00; Tu 07:00-22:00; We 07:00-22:00; Th 07:00-22:00; Fr 07:00-22:00; Sa 07:00-22:00; Su 07:00-22:00"}, "chain_id": "44", "chain_name": "Tesco"}, "geometry": {"type": "Point", "coordinates": [15.276872, 49.953854]}},
{"type": "Feature", "id": "r-5QZEIfVtLdzDRmYpiBvP1rnNg=", "properties": {"ref": "4fa7a6ea0c79424695cdbabe87bff5a7", "@spider": "tesco_cze_dpa", "addr:full": "Dr. E. Beneše 642, Česká Třebová, 56002", "addr:city": "Česká Třebová", "addr:postcode": "56002", "phones": {"Store": ["+420-465 353 111"]}, "email": {"Customer Service": []}, "website": "https://itesco.cz/prodejny/", "operatingHours": {"Store": "Mo 07:00-22:00; Tu 07:00-22:00; We 07:00-22:00; Th 07:00-22:00; Fr 07:00-22:00; Sa 07:00-22:00; Su 07:00-22:00"}, "chain_id": "44", "chain_name": "Tesco"}, "geometry": {"type": "Point", "coordinates": [16.4381, 49.9124]}},
{"type": "Feature", "id": "JvYQbW4jxo7PY4jxc4atzzzK4wE=", "properties": {"ref": "5d574ffba16f4d0e83fc3749bee433bf", "@spider": "tesco_cze_dpa", "addr:full": "Dráby 936, Vysoké Mýto, 56601", "addr:city": "Vysoké Mýto", "addr:postcode": "56601", "phones": {"Store": ["+420-465 356 111"]}, "email": {"Customer Service": []}, "website": "https://itesco.cz/prodejny/", "operatingHours": {"Store": "Mo 07:00-22:00; Tu 07:00-22:00; We 07:00-22:00; Th 07:00-22:00; Fr 07:00-22:00; Sa 07:00-22:00; Su 07:00-22:00"}, "chain_id": "44", "chain_name": "Tesco"}, "geometry": {"type": "Point", "coordinates": [16.166, 49.9438]}},
{"type": "Feature", "id": "B6mBVl1XMyG6iQ7OWj1pXHcBt6M=", "properties": {"ref": "28de1df8c80d465594f977936ad29010", "@spider": "tesco_cze_dpa", "addr:full": "Hlavní 345, Sulice - Želivec, Kamenice, 25168", "addr:city": "Kamenice", "addr:postcode": "25168", "phones": {"Store": ["+420-602 472 240"]}, "email": {"Customer Service": []}, "website": "https://itesco.cz/prodejny/", "operatingHours": {"Store": "Mo 07:00-21:00; Tu 07:00-21:00; We 07:00-21:00; Th 07:00-21:00; Fr 07:00-21:00; Sa 07:00-21:00; Su 07:00-21:00"}, "chain_id": "44", "chain_name": "Tesco"}, "geometry": {"type": "Point", "coordinates": [14.5788, 49.9207]}},
{"type": "Feature", "id": "OImzGYIs7Iu2ntqnog-Qvdr1roM=", "properties": {"ref": "42ce83ec42744a1ba5f9fd08ad67d116", "@spider": "tesco_cze_dpa", "addr:full": "Cihlářská 1516, Ústí nad Orlicí, 56201", "addr:city": "Ústí nad Orlicí", "addr:postcode": "56201", "phones": {"Store": ["+420-465 354 111"]}, "email": {"Customer Service": []}, "website": "https://itesco.cz/prodejny/", "operatingHours": {"Store": "Mo 07:00-22:00; Tu 07:00-22:00; We 07:00-22:00; Th 07:00-22:00; Fr 07:00-22:00; Sa 07:00-22:00; Su 07:00-22:00"}, "chain_id": "44", "chain_name": "Tesco"}, "geometry": {"type": "Point", "coordinates": [16.4029, 49.9777]}},
{"type": "Feature", "id": "fN2M7SDTR9TC85xRHBE0eYoUENg=", "properties": {"ref": "94a620b9885748b0bb796c264b5b8dd8", "@spider": "tesco_cze_dpa", "addr:full": "T.G.Masaryka 1950, Pardubice, 531", "addr:city": "Pardubice", "addr:postcode": "531", "phones": {"Store": [""]}, "email": {"Customer Service": []}, "website": "https://itesco.cz/prodejny/", "operatingHours": {"Store": "Mo 07:00-21:00; Tu 07:00-21:00; We 07:00-21:00; Th 07:00-21:00; Fr 07:00-21:00; Sa 07:00-21:00; Su 07:00-21:00"}, "chain_id": "44", "chain_name": "Tesco"}, "geometry": {"type": "Point", "coordinates": [15.761774, 50.029157]}},
{"type": "Feature", "id": "6wb07ndFqaXmsl7W_4Hnib3WmQI=", "properties": {"ref": "aad3599e1fcf413e8572e0154ca9e6d3", "@spider": "tesco_cze_dpa", "addr:full": "Rokycanská 1385/130, Plzeň, 31216", "addr:city": "Plzeň", "addr:postcode": "31216", "phones": {"Store": ["+420-377 816 111"]}, "email": {"Customer Service": []}, "website": "https://itesco.cz/prodejny/", "operatingHours": {"Store": "Mo 06:00-22:00; Tu 06:00-22:00; We 06:00-22:00; Th 06:00-22:00; Fr 06:00-22:00; Sa 06:00-22:00; Su 06:00-22:00"}, "chain_id": "44", "chain_name": "Tesco"}, "geometry": {"type": "Point", "coordinates": [13.4384, 49.7457]}},
{"type": "Feature", "id": "hosXjPHXtjCX0YqwArugap6_X2A=", "properties": {"ref": "8217e19a403a4f798c3df2d5c97ef9aa", "@spider": "tesco_cze_dpa", "addr:full": "Pražská 516, Dolní Břežany, 25241", "addr:city": "Dolní Břežany", "addr:postcode": "25241", "phones": {"Store": ["+420-725 839 812"]}, "email": {"Customer Service": []}, "website": "https://itesco.cz/prodejny/", "operatingHours": {"Store": "Mo 07:00-21:00; Tu 07:00-21:00; We 07:00-21:00; Th 07:00-21:00; Fr 07:00-21:00; Sa 07:00-21:00; Su 07:00-21:00"}, "chain_id": "44", "chain_name": "Tesco"}, "geometry": {"type": "Point", "coordinates": [14.4591, 49.9653]}},
{"type": "Feature", "id": "T_xP4VlqReNuL8IoTQGYdW_TyPY=", "properties": {"ref": "5ff3ca7281e14dfdbe366b6b8124d10a", "@spider": "tesco_cze_dpa", "addr:full": "V Kasárnách 1019, Kolín, 28002", "addr:city": "Kolín", "addr:postcode": "28002", "phones": {"Store": ["+420-321 617 518"]}, "email": {"Customer Service": []}, "website": "https://itesco.cz/prodejny/", "operatingHours": {"Store": "Mo 06:00-22:00; Tu 06:00-22:00; We 06:00-22:00; Th 06:00-22:00; Fr 06:00-22:00; Sa 06:00-22:00; Su 06:00-22:00"}, "chain_id": "44", "chain_name": "Tesco"}, "geometry": {"type": "Point", "coordinates": [15.19, 50.0325]}},
{"type": "Feature", "id": "rmpRz8F_-7O2hor-rJDeBhraCYA=", "properties": {"ref": "4eaa6a67f5844785a7e20a60214d942e", "@spider": "tesco_cze_dpa", "addr:full": "Sportovní 1699, Přelouč, 53501", "addr:city": "Přelouč", "addr:postcode": "53501", "phones": {"Store": ["+420-466 744 111"]}, "email": {"Customer Service": []}, "website": "https://itesco.cz/prodejny/", "operatingHours": {"Store": "Mo 07:00-22:00; Tu 07:00-22:00; We 07:00-22:00; Th 07:00-22:00; Fr 07:00-22:00; Sa 07:00-22:00; Su 07:00-22:00"}, "chain_id": "44", "chain_name": "Tesco"}, "geometry": {"type": "Point", "coordinates": [15.5663, 50.0411]}},
{"type": "Feature", "id": "VyCR0B6rOOylkHfTBIZ2HxtQqGc=", "properties": {"ref": "ba448f3efa264a2ca66cc7fa5c1dcce7", "@spider": "tesco_cze_dpa", "addr:full": "Táborská 2024, Černošice, 25228", "addr:city": "Černošice", "addr:postcode": "25228", "phones": {"Store": ["+420-606 762 237"]}, "email": {"Customer Service": []}, "website": "https://itesco.cz/prodejny/", "operatingHours": {"Store": "Mo 07:00-21:00; Tu 07:00-21:00; We 07:00-21:00; Th 07:00-21:00; Fr 07:00-21:00; Sa 07:00-21:00; Su 07:00-21:00"}, "chain_id": "44", "chain_name": "Tesco"}, "geometry": {"type": "Point", "coordinates": [14.3157, 49.9502]}},
{"type": "Feature", "id": "wyoSY05WaaRdGaF2byNhbWc0seo=", "properties": {"ref": "7f59854215924464a9cc1a70fb1efcdb", "@spider": "tesco_cze_dpa", "addr:full": "Dukelská 672, Šenov u Nového Jičína, 74242", "addr:city": "Šenov u Nového Jičína", "addr:postcode": "74242", "phones": {"Store": ["+420-556 415 111"]}, "email": {"Customer Service": []}, "website": "https://itesco.cz/prodejny/", "operatingHours": {"Store": "Mo 06:00-22:00; Tu 06:00-22:00; We 06:00-22:00; Th 06:00-22:00; Fr 06:00-22:00; Sa 06:00-22:00; Su 06:00-22:00"}, "chain_id": "44", "chain_name": "Tesco"}, "geometry": {"type": "Point", "coordinates": [18.0065, 49.6015]}},
{"type": "Feature", "id": "roQ1_8oHXGmX_6f_Y-FesEOVyKQ=", "properties": {"ref": "c7c4f850c5f443ec8fefb5f9113299c2", "@spider": "tesco_cze_dpa", "addr:full": "U Letiště 2/1074, Plzeň, 30100", "addr:city": "Plzeň", "addr:postcode": "30100", "phones": {"Store": ["+420-377 610 111"]}, "email": {"Customer Service": []}, "website": "https://itesco.cz/prodejny/", "operatingHours": {"Store": "Mo 06:00-22:00; Tu 06:00-22:00; We 06:00-22:00; Th 06:00-22:00; Fr 06:00-22:00; Sa 06:00-22:00; Su 06:00-22:00"}, "chain_id": "44", "chain_name": "Tesco"}, "geometry": {"type": "Point", "coordinates": [13.3441, 49.7286]}},
{"type": "Feature", "id": "U7jbj0fzUK_muu21D9UAT6_ofOw=", "properties": {"ref": "77e9114970eb4f2c94156af18a5f804f", "@spider": "tesco_cze_dpa", "addr:full": "Černokostelecká 2270/22, Říčany, 25101", "addr:city": "Říčany", "addr:postcode": "25101", "phones": {"Store": ["+420-323 679 111"]}, "email": {"Customer Service": []}, "website": "https://itesco.cz/prodejny/", "operatingHours": {"Store": "Mo 07:00-22:00; Tu 07:00-22:00; We 07:00-22:00; Th 07:00-22:00; Fr 07:00-22:00; Sa 07:00-22:00; Su 07:00-22:00"}, "chain_id": "44", "chain_name": "Tesco"}, "geometry": {"type": "Point", "coordinates": [14.6587, 50.0027]}},
{"type": "Feature", "id": "tkGl6S1_DQ4h3Pfy4ISrS66Qa34=", "properties": {"ref": "1eaa96f8044c44e1a0067c0457e64ea8", "@spider": "tesco_cze_dpa", "addr:full": "Mohylová 55, Plzeň, 31264", "addr:city": "Plzeň", "addr:postcode": "31264", "phones": {"Store": ["+420-724 759 617"]}, "email": {"Customer Service": []}, "website": "https://itesco.cz/prodejny/", "operatingHours": {"Store": "Mo 07:00-20:00; Tu 07:00-20:00; We 07:00-20:00; Th 07:00-20:00; Fr 07:00-20:00; Sa 07:00-20:00; Su 07:00-20:00"}, "chain_id": "44", "chain_name": "Tesco"}, "geometry": {"type": "Point", "coordinates": [13.4184, 49.7547]}},
{"type": "Feature", "id": "bAYORPGN91wa3YqKIZfgZenIrhk=", "properties": {"ref": "8dd1753f89ed48a0b762a3af5e0a9a7b", "@spider": "tesco_cze_dpa", "addr:full": "Velenická 72/2, Praha-Kunratice, 14800", "addr:city": "Praha-Kunratice", "addr:postcode": "14800", "phones": {"Store": ["+420-727 889 987"]}, "email": {"Customer Service": []}, "website": "https://itesco.cz/prodejny/", "operatingHours": {"Store": "Mo 06:00-21:00; Tu 06:00-21:00; We 06:00-21:00; Th 06:00-21:00; Fr 06:00-21:00; Sa 06:00-21:00; Su 06:00-21:00"}, "chain_id": "44", "chain_name": "Tesco"}, "geometry": {"type": "Point", "coordinates": [14.486943, 50.013617]}},
{"type": "Feature", "id": "BE62gz-_-nGQbbBR-Z5cyPlLVQ4=", "properties": {"ref": "113457c607784c469ad9b2bdd833c28a", "@spider": "tesco_cze_dpa", "addr:full": "Mendelova 665/13, Praha 4, 14900", "addr:city": "Praha 4", "addr:postcode": "14900", "phones": {"Store": ["+420-725 730 087"]}, "email": {"Customer Service": []}, "website": "https://itesco.cz/prodejny/", "operatingHours": {"Store": "Mo 07:00-21:00; Tu 07:00-21:00; We 07:00-21:00; Th 07:00-21:00; Fr 07:00-21:00; Sa 07:00-21:00; Su 07:00-21:00"}, "chain_id": "44", "chain_name": "Tesco"}, "geometry": {"type": "Point", "coordinates": [14.5325, 50.033]}},
{"type": "Feature", "id": "cGGf1NuujdJmylvazmDB6dwL9N4=", "properties": {"ref": "852121fbf3304043b0dc0831f9d25c3b", "@spider": "tesco_cze_dpa", "addr:full": "Nádražní 228/2, Kopřivnice, 74221", "addr:city": "Kopřivnice", "addr:postcode": "74221", "phones": {"Store": ["+420-556 886 111"]}, "email": {"Customer Service": []}, "website": "https://itesco.cz/prodejny/", "operatingHours": {"Store": "Mo 06:00-22:00; Tu 06:00-22:00; We 06:00-22:00; Th 06:00-22:00; Fr 06:00-22:00; Sa 06:00-22:00; Su 06:00-22:00"}, "chain_id": "44", "chain_name": "Tesco"}, "geometry": {"type": "Point", "coordinates": [18.1481, 49.6049]}},
{"type": "Feature", "id": "AOw-Dw1gDiQ3YYJIBBznM1xVt6U=", "properties": {"ref": "9ffc01542d2145cc916ff496ddbb2bea", "@spider": "tesco_cze_dpa", "addr:full": "Brandlova 1640, Praha 4, 14400", "addr:city": "Praha 4", "addr:postcode": "14400", "phones": {"Store": ["+420-602 166 620"]}, "email": {"Customer Service": []}, "website": "https://itesco.cz/prodejny/", "operatingHours": {"Store": "Mo 07:00-21:00; Tu 07:00-21:00; We 07:00-21:00; Th 07:00-21:00; Fr 07:00-21:00; Sa 07:00-21:00; Su 07:00-21:00"}, "chain_id": "44", "chain_name": "Tesco"}, "geometry": {"type": "Point", "coordinates": [14.5142, 50.0322]}},
{"type": "Feature", "id": "PJ1VFOizuCgs10ewq_m8SksmoPA=", "properties": {"ref": "1cc512bfa76846ea961fe896b0cf1b82", "@spider": "tesco_cze_dpa", "addr:full": "Hráského 2231/25 Praha, Praha, 14800", "addr:city": "Praha", "addr:postcode": "14800", "phones": {"Store": ["+420 724 529 802"]}, "email": {"Customer Service": []}, "website": "https://itesco.cz/prodejny/", "operatingHours": {"Store": "Mo 07:00-21:00; Tu 07:00-21:00; We 07:00-21:00; Th 07:00-21:00; Fr 07:00-21:00; Sa 07:00-21:00; Su 07:00-21:00"}, "chain_id": "44", "chain_name": "Tesco"}, "geometry": {"type": "Point", "coordinates": [14.488257, 50.029124]}},
{"type": "Feature", "id": "OCsw3Yi3RCl60UMiaFfcrLbgqYU=", "properties": {"ref": "230fb09be9ab4013b2ea89109dbce303", "@spider": "tesco_cze_dpa", "addr:full": "Novodvorská 994, Praha 4, 14000", "addr:city": "Praha 4", "addr:postcode": "14000", "phones": {"Store": ["+420-725 337 086"]}, "email": {"Customer Service": []}, "website": "https://itesco.cz/prodejny/", "operatingHours": {"Store": "Mo 06:00-22:00; Tu 06:00-22:00; We 06:00-22:00; Th 06:00-22:00; Fr 06:00-22:00; Sa 06:00-22:00; Su 06:00-22:00"}, "chain_id": "44", "chain_name": "Tesco"}, "geometry": {"type": "Point", "coordinates": [14.4322, 50.0271]}},
{"type": "Feature", "id": "qjlbKha2uIpp5dQA6bNd5KCCLO0=", "properties": {"ref": "49e6cc78e1b64ef29372a315eb5606a0", "@spider": "tesco_cze_dpa", "addr:full": "Chvalovická 483/3, Pečky, 28911", "addr:city": "Pečky", "addr:postcode": "28911", "phones": {"Store": ["+420-725 042 074"]}, "email": {"Customer Service": []}, "website": "https://itesco.cz/prodejny/", "operatingHours": {"Store": "Mo 07:00-21:00; Tu 07:00-21:00; We 07:00-21:00; Th 07:00-21:00; Fr 07:00-21:00; Sa 07:00-21:00; Su 07:00-21:00"}, "chain_id": "44", "chain_name": "Tesco"}, "geometry": {"type": "Point", "coordinates": [15.0293, 50.0919]}},
{"type": "Feature", "id": "BFQKdBA8sotIXtvQg-uQAGZtjus=", "properties": {"ref": "b35a060e84484de69c2f2cd7219567a9", "@spider": "tesco_cze_dpa", "addr:full": "Husovo nám. 299, Loděnice, 26712", "addr:city": "Loděnice", "addr:postcode": "26712", "phones": {"Store": [""]}, "email": {"Customer Service": []}, "website": "https://itesco.cz/prodejny/", "operatingHours": {"Store": "Mo 07:00-21:00; Tu 07:00-21:00; We 07:00-21:00; Th 07:00-21:00; Fr 07:00-21:00; Sa 07:00-21:00; Su 07:00-21:00"}, "chain_id": "44", "chain_name": "Tesco"}, "geometry": {"type": "Point", "coordinates": [14.158206, 49.995462]}},
{"type": "Feature", "id": "19BMNX3UsCDy5ACDGapwIJuOc-M=", "properties": {"ref": "674c1d4a9c9c42ac8ca8b343d0bcbbc7", "@spider": "tesco_cze_dpa", "addr:full": "Roztylské nám. 2772/44, Praha 4, 14100", "addr:city": "Praha 4", "addr:postcode": "14100", "phones": {"Store": ["+420-725 049 971"]}, "email": {"Customer Service": []}, "website": "https://itesco.cz/prodejny/", "operatingHours": {"Store": "Mo 07:00-21:00; Tu 07:00-21:00; We 07:00-21:00; Th 07:00-21:00; Fr 07:00-21:00; Sa 07:00-21:00; Su 07:00-21:00"}, "chain_id": "44", "chain_name": "Tesco"}, "geometry": {"type": "Point", "coordinates": [14.4754, 50.047]}},
{"type": "Feature", "id": "MC54iUKHxXPJ05KmXLmS9O0htzs=", "properties": {"ref": "8975b2e059a2466698e7827783a47199", "@spider": "tesco_cze_dpa", "addr:full": "Starodubečská 400/16, Praha 10, 10700", "addr:city": "Praha 10", "addr:postcode": "10700", "phones": {"Store": ["+420-724 076 722"]}, "email": {"Customer Service": []}, "website": "https://itesco.cz/prodejny/", "operatingHours": {"Store": "Mo 07:00-21:00; Tu 07:00-21:00; We 07:00-21:00; Th 07:00-21:00; Fr 07:00-21:00; Sa 07:00-21:00; Su 07:00-21:00"}, "chain_id": "44", "chain_name": "Tesco"}, "geometry": {"type": "Point", "coordinates": [14.5891, 50.0616]}},
{"type": "Feature", "id": "4Ve1_GKv4zXV8n3LI5uaUZAd6lE=", "properties": {"ref": "7827d0937fa748da87031e817f163943", "@spider": "tesco_cze_dpa", "addr:full": "Jabloňová 15, Praha 10, 10600", "addr:city": "Praha 10", "addr:postcode": "10600", "phones": {"Store": ["+420-601 365 065"]}, "email": {"Customer Service": []}, "website": "https://itesco.cz/prodejny/", "operatingHours": {"Store": "Mo 07:00-21:00; Tu 07:00-21:00; We 07:00-21:00; Th 07:00-21:00; Fr 07:00-21:00; Sa 07:00-21:00; Su 07:00-21:00"}, "chain_id": "44", "chain_name": "Tesco"}, "geometry": {"type": "Point", "coordinates": [14.4975, 50.0567]}},
{"type": "Feature", "id": "RP0J73gcKgI7bb3OvcV7cqG-iCg=", "properties": {"ref": "1ca27dfa56c644c9ba19a9a9a24d011a", "@spider": "tesco_cze_dpa", "addr:full": "nám. Hrdinů 1634/3, Praha 4, 14000", "addr:city": "Praha 4", "addr:postcode": "14000", "phones": {"Store": ["+420-602 137 689"]}, "email": {"Customer Service": []}, "website": "https://itesco.cz/prodejny/", "operatingHours": {"Store": "Mo 07:00-23:00; Tu 06:00-23:00; We 06:00-23:00; Th 06:00-23:00; Fr 06:00-23:00; Sa 06:00-23:00; Su 07:00-23:00"}, "chain_id": "44", "chain_name": "Tesco"}, "geometry": {"type": "Point", "coordinates": [14.4341, 50.0563]}},
{"type": "Feature", "id": "OXyvvaX1k88hQem45KsrM23DLh8=", "properties": {"ref": "2bd1fefd62694e298d5c9093ade07bf4", "@spider": "tesco_cze_dpa", "addr:full": "Nuselská 51, Praha 4, 14000", "addr:city": "Praha 4", "addr:postcode": "14000", "phones": {"Store": ["+420-725 058 216"]}, "email": {"Customer Service": []}, "website": "https://itesco.cz/prodejny/", "operatingHours": {"Store": "Mo 07:00-22:00; Tu 07:00-22:00; We 07:00-22:00; Th 07:00-22:00; Fr 07:00-22:00; Sa 07:00-22:00; Su 07:00-22:00"}, "chain_id": "44", "chain_name": "Tesco"}, "geometry": {"type": "Point", "coordinates": [14.4474, 50.0612]}},
{"type": "Feature", "id": "SNVZ4mhvmGEug6xIk_Pu34D6PpM=", "properties": {"ref": "cca2354f4e9848d2972e9aa6319f54ba", "@spider": "tesco_cze_dpa", "addr:full": "Přetlucká 3295/50, Praha 10, 10097", "addr:city": "Praha 10", "addr:postcode": "10097", "phones": {"Store": ["+420-274 025 111"]}, "email": {"Customer Service": []}, "website": "https://itesco.cz/prodejny/", "operatingHours": {"Store": "Mo 06:00-22:00; Tu 06:00-22:00; We 06:00-22:00; Th 06:00-22:00; Fr 06:00-22:00; Sa 06:00-22:00; Su 06:00-22:00"}, "chain_id": "44", "chain_name": "Tesco"}, "geometry": {"type": "Point", "coordinates": [14.5099, 50.0703]}},
{"type": "Feature", "id": "BvnvvHthzcxHl0LJ_oWRBxyxH0Q=", "properties": {"ref": "d170f3c6b73145e8a0e0bd9d543c8d32", "@spider": "tesco_cze_dpa", "addr:full": "Mukařovského 2, Praha 5, 15500", "addr:city": "Praha 5", "addr:postcode": "15500", "phones": {"Store": ["+420-602 144 796"]}, "email": {"Customer Service": []}, "website": "https://itesco.cz/prodejny/", "operatingHours": {"Store": "Mo 07:00-21:00; Tu 07:00-21:00; We 07:00-21:00; Th 07:00-21:00; Fr 07:00-21:00; Sa 07:00-21:00; Su 07:00-21:00"}, "chain_id": "44", "chain_name": "Tesco"}, "geometry": {"type": "Point", "coordinates": [14.3224, 50.0453]}},
{"type": "Feature", "id": "847OYRlUJLpxGPI9ROLLR4NS9oI=", "properties": {"ref": "2636cfbf834a4b6ab5ec7d45881da261", "@spider": "tesco_cze_dpa", "addr:full": "Táborská 619, Praha 4, 14000", "addr:city": "Praha 4", "addr:postcode": "14000", "phones": {"Store": ["+420-602 470 183"]}, "email": {"Customer Service": []}, "website": "https://itesco.cz/prodejny/", "operatingHours": {"Store": "Mo 07:00-21:00; Tu 07:00-21:00; We 07:00-21:00; Th 07:00-21:00; Fr 07:00-21:00; Sa 07:00-21:00; Su 07:00-21:00"}, "chain_id": "44", "chain_name": "Tesco"}, "geometry": {"type": "Point", "coordinates": [14.4421, 50.0628]}},
{"type": "Feature", "id": "AmzGhVg7trrbbFXKJLH_9CX99PI=", "properties": {"ref": "5d1240f91d514ec38c73b0e837f3073d", "@spider": "tesco_cze_dpa", "addr:full": "Moskevská 466/62, Praha 10, 10000", "addr:city": "Praha 10", "addr:postcode": "10000", "phones": {"Store": ["+420-725 058 174"]}, "email": {"Customer Service": []}, "website": "https://itesco.cz/prodejny/", "operatingHours": {"Store": "Mo 07:00-21:00; Tu 06:00-21:00; We 06:00-21:00; Th 06:00-21:00; Fr 06:00-21:00; Sa 06:00-21:00; Su 07:00-21:00"}, "chain_id": "44", "chain_name": "Tesco"}, "geometry": {"type": "Point", "coordinates": [14.4603, 50.067]}},
{"type": "Feature", "id": "nmK_PJ93UoOoSoHM0BDvH4Uke0E=", "properties": {"ref": "e87a319e084449e285f2bd01fcc1ccfe", "@spider": "tesco_cze_dpa", "addr:full": "U Slávie 1527/3, Praha 10, 10000", "addr:city": "Praha 10", "addr:postcode": "10000", "phones": {"Store": ["+420-272 073 404"]}, "email": {"Customer Service": []}, "website": "https://itesco.cz/prodejny/", "operatingHours": {"Store": "Mo 06:00-24:00; Tu 06:00-24:00; We 06:00-24:00; Th 06:00-24:00; Fr 06:00-24:00; Sa 06:00-24:00; Su 06:00-24:00"}, "chain_id": "44", "chain_name": "Tesco"}, "geometry": {"type": "Point", "coordinates": [14.4685, 50.0683]}},
{"type": "Feature", "id": "feN1UK_TEP_-6MmQj3rWCc1qH3I=", "properties": {"ref": "644b46a5372a4bc0a12cdfbe8f9915b7", "@spider": "tesco_cze_dpa", "addr:full": "Bělocerkevská 1305/34, Praha 10, 10000", "addr:city": "Praha 10", "addr:postcode": "10000", "phones": {"Store": ["+420-725 839 813"]}, "email": {"Customer Service": []}, "website": "https://itesco.cz/prodejny/", "operatingHours": {"Store": "Mo 07:00-21:00; Tu 07:00-21:00; We 07:00-21:00; Th 07:00-21:00; Fr 07:00-21:00; Sa 07:00-21:00; Su 07:00-21:00"}, "chain_id": "44", "chain_name": "Tesco"}, "geometry": {"type": "Point", "coordinates": [14.471, 50.0725]}},
{"type": "Feature", "id": "GH8dgG2opNJIy726C7m_NPrqhJ8=", "properties": {"ref": "9e549b84a4b74267bf1751bf03a8eb93", "@spider": "tesco_cze_dpa", "addr:full": "Finská 600/2, Praha 10, 10100", "addr:city": "Praha 10", "addr:postcode": "10100", "phones": {"Store": ["+420-724 740 595"]}, "email": {"Customer Service": []}, "website": "https://itesco.cz/prodejny/", "operatingHours": {"Store": "Mo 07:00-22:00; Tu 07:00-22:00; We 07:00-22:00; Th 07:00-22:00; Fr 07:00-22:00; Sa 07:00-22:00; Su 07:00-22:00"}, "chain_id": "44", "chain_name": "Tesco"}, "geometry": {"type": "Point", "coordinates": [14.4567, 50.0713]}},
{"type": "Feature", "id": "NiBVm_48c8pAxY_6iCtmTDlTgKY=", "properties": {"ref": "6e66eba12a6f471ea289d1c25a86c6ec", "@spider": "tesco_cze_dpa", "addr:full": "Skandinávská 144/25, Praha 5, 15505", "addr:city": "Praha 5", "addr:postcode": "15505", "phones": {"Store": ["+420-251 173 286, 725 917 798"]}, "email": {"Customer Service": []}, "website": "https://itesco.cz/prodejny/", "operatingHours": {"Store": "Mo 06:00-22:00; Tu 06:00-22:00; We 06:00-22:00; Th 06:00-22:00; Fr 06:00-22:00; Sa 06:00-22:00; Su 06:00-22:00"}, "chain_id": "44", "chain_name": "Tesco"}, "geometry": {"type": "Point", "coordinates": [14.2961, 50.0498]}},
{"type": "Feature", "id": "33ir25IkPSovcRwgtLg1MMywztE=", "properties": {"ref": "b3994007d824448ab16cc6c1b8ee609d", "@spider": "tesco_cze_dpa", "addr:full": "Svobodova 1961/1, Praha 2, 12800", "addr:city": "Praha 2", "addr:postcode": "12800", "phones": {"Store": ["+420-725 518 894"]}, "email": {"Customer Service": []}, "website": "https://itesco.cz/prodejny/", "operatingHours": {"Store": "Mo 07:00-21:00; Tu 07:00-21:00; We 07:00-21:00; Th 07:00-21:00; Fr 07:00-21:00; Sa 07:00-21:00; Su 07:00-21:00"}, "chain_id": "44", "chain_name": "Tesco"}, "geometry": {"type": "Point", "coordinates": [14.4173, 50.068]}},
{"type": "Feature", "id": "Xhgrfe9SwsCYg_uiWITISw0lal4=", "properties": {"ref": "0ae42228fa6b4812ab6f6392599e2b53", "@spider": "tesco_cze_dpa", "addr:full": "Bílkova 270, Poděbrady, 29001", "addr:city": "Poděbrady", "addr:postcode": "29001", "phones": {"Store": ["+420-325 622 111"]}, "email": {"Customer Service": []}, "website": "https://itesco.cz/prodejny/", "operatingHours": {"Store": "Mo 07:00-22:00; Tu 07:00-22:00; We 07:00-22:00; Th 07:00-22:00; Fr 07:00-22:00; Sa 07:00-22:00; Su 07:00-22:00"}, "chain_id": "44", "chain_name": "Tesco"}, "geometry": {"type": "Point", "coordinates": [15.0989, 50.1337]}},
{"type": "Feature", "id": "aeTK3HT8Drgu197gUM9Rrl152po=", "properties": {"ref": "4171a92af5134cc2bcbf940c8093d8c4", "@spider": "tesco_cze_dpa", "addr:full": "Radlická 1/b, Praha 5, 15000", "addr:city": "Praha 5", "addr:postcode": "15000", "phones": {"Store": ["+420-257 284 371"]}, "email": {"Customer Service": []}, "website": "https://itesco.cz/prodejny/", "operatingHours": {"Store": "Mo 06:00-24:00; Tu 06:00-24:00; We 06:00-24:00; Th 06:00-24:00; Fr 06:00-24:00; Sa 06:00-24:00; Su 06:00-24:00"}, "chain_id": "44", "chain_name": "Tesco"}, "geometry": {"type": "Point", "coordinates": [14.4025, 50.0721]}},
{"type": "Feature", "id": "cp1FDXynXwD-9JRoYEuQ07exbZA=", "properties": {"ref": "afc585d2002f4d369fa4fe1a6aae45ea", "@spider": "tesco_cze_dpa", "addr:full": "Vocelova 11, Praha 2, 12000", "addr:city": "Praha 2", "addr:postcode": "12000", "phones": {"Store": ["+420-606 762 235"]}, "email": {"Customer Service": []}, "website": "https://itesco.cz/prodejny/", "operatingHours": {"Store": "Mo 07:00-23:00; Tu 06:00-23:00; We 06:00-23:00; Th 06:00-23:00; Fr 06:00-23:00; Sa 06:00-23:00; Su 07:00-23:00"}, "chain_id": "44", "chain_name": "Tesco"}, "geometry": {"type": "Point", "coordinates": [14.4318, 50.0762]}},
{"type": "Feature", "id": "Ddzmv0CLKkYrQblc_op5OK6sZqc=", "properties": {"ref": "526d0117dd4f4e5bab210f12d3ebb5e5", "@spider": "tesco_cze_dpa", "addr:full": "Arbesovo nám. 275/8, Praha 5, 15000", "addr:city": "Praha 5", "addr:postcode": "15000", "phones": {"Store": ["+420-725 049 957"]}, "email": {"Customer Service": []}, "website": "https://itesco.cz/prodejny/", "operatingHours": {"Store": "Mo 07:00-21:00; Tu 07:00-22:00; We 07:00-22:00; Th 07:00-22:00; Fr 07:00-22:00; Sa 07:00-22:00; Su 07:00-21:00"}, "chain_id": "44", "chain_name": "Tesco"}, "geometry": {"type": "Point", "coordinates": [14.4044, 50.0769]}},
{"type": "Feature", "id": "IndwqrTdAEG0iM7KaNeRWFvTuqI=", "properties": {"ref": "59747ff71f1640a791a21d7cf278fa35", "@spider": "tesco_cze_dpa", "addr:full": "Sjednocení 889, Studénka, 74213", "addr:city": "Studénka", "addr:postcode": "74213", "phones": {"Store": ["+420-606 621 757"]}, "email": {"Customer Service": []}, "website": "https://itesco.cz/prodejny/", "operatingHours": {"Store": "Mo 07:00-20:00; Tu 07:00-20:00; We 07:00-20:00; Th 07:00-20:00; Fr 07:00-20:00; Sa 07:00-20:00; Su 07:00-20:00"}, "chain_id": "44", "chain_name": "Tesco"}, "geometry": {"type": "Point", "coordinates": [18.0543, 49.7125]}},
{"type": "Feature", "id": "U1Z6GFUxRQD6nValgsG-h-ak3LU=", "properties": {"ref": "b7faffe659f34a7bb83159a21c55097d", "@spider": "tesco_cze_dpa", "addr:full": "Prokopova 2859, Praha 3, 13000", "addr:city": "Praha 3", "addr:postcode": "13000", "phones": {"Store": ["+420-606 656 897"]}, "email": {"Customer Service": []}, "website": "https://itesco.cz/prodejny/", "operatingHours": {"Store": "Mo 07:00-21:00; Tu 07:00-21:00; We 07:00-21:00; Th 07:00-21:00; Fr 07:00-21:00; Sa 07:00-21:00; Su 07:00-21:00"}, "chain_id": "44", "chain_name": "Tesco"}, "geometry": {"type": "Point", "coordinates": [14.4539, 50.0856]}},
{"type": "Feature", "id": "J6X6NJ4BfbQO9KTzaBtHXUuT_xo=", "properties": {"ref": "870fb8cd2c2c4b538099b2a6c57e6fa2", "@spider": "tesco_cze_dpa", "addr:full": "Hartigova 1685/110, Praha 3, 13000", "addr:city": "Praha 3", "addr:postcode": "13000", "phones": {"Store": ["+420-724 520 217"]}, "email": {"Customer Service": []}, "website": "https://itesco.cz/prodejny/", "operatingHours": {"Store": "Mo 07:00-21:00; Tu 07:00-21:00; We 07:00-21:00; Th 07:00-21:00; Fr 07:00-21:00; Sa 07:00-21:00; Su 07:00-21:00"}, "chain_id": "44", "chain_name": "Tesco"}, "geometry": {"type": "Point", "coordinates": [14.4673, 50.0901]}},
{"type": "Feature", "id": "kFDVwU9kSluDCfMqTFqUUdO5MDw=", "properties": {"ref": "f32c448f319648f59a8b0547120814ac", "@spider": "tesco_cze_dpa", "addr:full": "Sokolovská 968/189, Praha 9, 19000", "addr:city": "Praha 9", "addr:postcode": "19000", "phones": {"Store": ["+420-702 020 442"]}, "email": {"Customer Service": []}, "website": "https://itesco.cz/prodejny/", "operatingHours": {"Store": "Mo 07:00-21:00; Tu 07:00-21:00; We 07:00-21:00; Th 07:00-21:00; Fr 07:00-21:00; Sa 07:00-21:00; Su 07:00-21:00"}, "chain_id": "44", "chain_name": "Tesco"}, "geometry": {"type": "Point", "coordinates": [14.4883, 50.1069]}},
{"type": "Feature", "id": "9Su5JwsiKFIUE01Bd4mGU-dDE1w=", "properties": {"ref": "b3b5755e5d70483fbf7ea44225c69d31", "@spider": "tesco_cze_dpa", "addr:full": "Milady Horákové 116/109, Praha 6, 16000", "addr:city": "Praha 6", "addr:postcode": "16000", "phones": {"Store": ["+420-725 786 428"]}, "email": {"Customer Service": []}, "website": "https://itesco.cz/prodejny/", "operatingHours": {"Store": "Mo 07:00-23:00; Tu 06:00-23:00; We 06:00-23:00; Th 06:00-23:00; Fr 06:00-23:00; Sa 06:00-23:00; Su 07:00-23:00"}, "chain_id": "44", "chain_name": "Tesco"}, "geometry": {"type": "Point", "coordinates": [14.4056, 50.0972]}},
{"type": "Feature", "id": "07-GKcAmfXtok-OJ9coZ0FDMm14=", "properties": {"ref": "ab1a36e8737040d5b05ca28ce7d24883", "@spider": "tesco_cze_dpa", "addr:full": "Sportovců 14, Hostivice, 25301", "addr:city": "Hostivice", "addr:postcode": "25301", "phones": {"Store": [""]}, "email": {"Customer Service": []}, "website": "https://itesco.cz/prodejny/", "operatingHours": {"Store": "Mo 07:00-22:00; Tu 07:00-22:00; We 07:00-22:00; Th 07:00-22:00; Fr 07:00-22:00; Sa 07:00-22:00; Su 07:00-22:00"}, "chain_id": "44", "chain_name": "Tesco"}, "geometry": {"type": "Point", "coordinates": [14.2397, 50.0823]}},
{"type": "Feature", "id": "4XaWMv0Ug0ftxEF2utixNO2zMD0=", "properties": {"ref": "892cff2f5741400480fd97c700769700", "@spider": "tesco_cze_dpa", "addr:full": "Na Pískách 1815/29a, Praha 6, 16000", "addr:city": "Praha 6", "addr:postcode": "16000", "phones": {"Store": ["+420-725 937 595"]}, "email": {"Customer Service": []}, "website": "https://itesco.cz/prodejny/", "operatingHours": {"Store": "Mo 07:00-21:00; Tu 07:00-21:00; We 07:00-21:00; Th 07:00-21:00; Fr 07:00-21:00; Sa 07:00-21:00; Su 07:00-21:00"}, "chain_id": "44", "chain_name": "Tesco"}, "geometry": {"type": "Point", "coordinates": [14.3726, 50.1042]}},
{"type": "Feature", "id": "V5jy5x_dbSKyRAeOIYJ_yqSM9DQ=", "properties": {"ref": "3bb3e055ba7c4c48a1daddc27096ca17", "@spider": "tesco_cze_dpa", "addr:full": "Toušeňská 2042, Čelákovice, 25088", "addr:city": "Čelákovice", "addr:postcode": "25088", "phones": {"Store": [""]}, "email": {"Customer Service": []}, "website": "https://itesco.cz/prodejny/", "operatingHours": {"Store": "Mo 07:00-22:00; Tu 07:00-22:00; We 07:00-22:00; Th 07:00-22:00; Fr 07:00-22:00; Sa 07:00-22:00; Su 07:00-22:00"}, "chain_id": "44", "chain_name": "Tesco"}, "geometry": {"type": "Point", "coordinates": [14.7439, 50.1556]}},
{"type": "Feature", "id": "1kcLJtceyRPwdrqy7T-zFebKluo=", "properties": {"ref": "2914580a9aa74206a4bfe3049c274536", "@spider": "tesco_cze_dpa", "addr:full": "Štemberkova 1698, Rychnov nad Kněžnou, 51601", "addr:city": "Rychnov nad Kněžnou", "addr:postcode": "51601", "phones": {"Store": ["+420-494 330 111"]}, "email": {"Customer Service": []}, "website": "https://itesco.cz/prodejny/", "operatingHours": {"Store": "Mo 07:00-22:00; Tu 07:00-22:00; We 07:00-22:00; Th 07:00-22:00; Fr 07:00-22:00; Sa 07:00-22:00; Su 07:00-22:00"}, "chain_id": "44", "chain_name": "Tesco"}, "geometry": {"type": "Point", "coordinates": [16.2763, 50.1554]}},
{"type": "Feature", "id": "VdeJokRf9FXK6U3CeQlGNdXvu1I=", "properties": {"ref": "e76f8e1018f749788d497ee95b05ef15", "@spider": "tesco_cze_dpa", "addr:full": "Rašínova třída 1669, Hradec Králové, 50002", "addr:city": "Hradec Králové", "addr:postcode": "50002", "phones": {"Store": ["+420-495 015 242"]}, "email": {"Customer Service": []}, "website": "https://itesco.cz/prodejny/", "operatingHours": {"Store": "Mo 06:00-22:00; Tu 06:00-22:00; We 06:00-22:00; Th 06:00-22:00; Fr 06:00-22:00; Sa 06:00-22:00; Su 06:00-22:00"}, "chain_id": "44", "chain_name": "Tesco"}, "geometry": {"type": "Point", "coordinates": [15.8036, 50.1898]}},
{"type": "Feature", "id": "xVqpipSVS0hVYi-_19WKtIjSpNU=", "properties": {"ref": "e8777e05d0324b4397cea82351851310", "@spider": "tesco_cze_dpa", "addr:full": "Veselská 663, Praha 9, 19900", "addr:city": "Praha 9", "addr:postcode": "19900", "phones": {"Store": ["+420-727 974 247"]}, "email": {"Customer Service": []}, "website": "https://itesco.cz/prodejny/", "operatingHours": {"Store": "Mo 06:00-24:00; Tu 06:00-24:00; We 06:00-24:00; Th 06:00-24:00; Fr 06:00-24:00; Sa 06:00-24:00; Su 06:00-24:00"}, "chain_id": "44", "chain_name": "Tesco"}, "geometry": {"type": "Point", "coordinates": [14.4998, 50.1353]}},
{"type": "Feature", "id": "ElfxNYE_vGTMoxqHlw8MSRmOMyY=", "properties": {"ref": "2c26dd815dae4d1fa2f73fbc5853c5d1", "@spider": "tesco_cze_dpa", "addr:full": "Brněnská 1825, Hradec Králové, 50009", "addr:city": "Hradec Králové", "addr:postcode": "50009", "phones": {"Store": ["+420-495 082 111"]}, "email": {"Customer Service": []}, "website": "https://itesco.cz/prodejny/", "operatingHours": {"Store": "Mo 06:00-22:00; Tu 06:00-22:00; We 06:00-22:00; Th 06:00-22:00; Fr 06:00-22:00; Sa 06:00-22:00; Su 06:00-22:00"}, "chain_id": "44", "chain_name": "Tesco"}, "geometry": {"type": "Point", "coordinates": [15.847, 50.197]}},
{"type": "Feature", "id": "VV5RqddZlIfaqGQYogwyLWOpdE0=", "properties": {"ref": "d89755d39ffb4971b1ae942993b77c52", "@spider": "tesco_cze_dpa", "addr:full": "Cukrovarská 786/69, Praha 9, 19600", "addr:city": "Praha 9", "addr:postcode": "19600", "phones": {"Store": ["+420-602 493 171"]}, "email": {"Customer Service": []}, "website": "https://itesco.cz/prodejny/", "operatingHours": {"Store": "Mo 07:00-21:00; Tu 07:00-21:00; We 07:00-21:00; Th 07:00-21:00; Fr 07:00-21:00; Sa 07:00-21:00; Su 07:00-21:00"}, "chain_id": "44", "chain_name": "Tesco"}, "geometry": {"type": "Point", "coordinates": [14.5302, 50.1513]}},
{"type": "Feature", "id": "bIkqCUQDx_NDkq0ov17-1C1pZo4=", "properties": {"ref": "b92bd61cb1724affb488c9deffed0007", "@spider": "tesco_cze_dpa", "addr:full": "Příborská 2270, Frýdek-Místek, 73802", "addr:city": "Frýdek-Místek", "addr:postcode": "73802", "phones": {"Store": ["+420-558 402 440"]}, "email": {"Customer Service": []}, "website": "https://itesco.cz/prodejny/", "operatingHours": {"Store": "Mo 06:00-22:00; Tu 06:00-22:00; We 06:00-22:00; Th 06:00-22:00; Fr 06:00-22:00; Sa 06:00-22:00; Su 06:00-22:00"}, "chain_id": "44", "chain_name": "Tesco"}, "geometry": {"type": "Point", "coordinates": [18.3301, 49.6716]}},
{"type": "Feature", "id": "XKnsIqUwit-ykh44M9hasNExK1w=", "properties": {"ref": "fcf3bd172dcd4df1a5e545d6354a1767", "@spider": "tesco_cze_dpa", "addr:full": "Zápy 275, Brandýs nad Labem-Stará Boleslav, 25001", "addr:city": "Brandýs nad Labem-Stará Boleslav", "addr:postcode": "25001", "phones": {"Store": [""]}, "email": {"Customer Service": []}, "website": "https://itesco.cz/prodejny/", "operatingHours": {"Store": "Mo 07:00-22:00; Tu 07:00-22:00; We 07:00-22:00; Th 07:00-22:00; Fr 07:00-22:00; Sa 07:00-22:00; Su 07:00-22:00"}, "chain_id": "44", "chain_name": "Tesco"}, "geometry": {"type": "Point", "coordinates": [14.671, 50.1762]}},
{"type": "Feature", "id": "YhKFD3GR-vg-6sC07fQQoNB70t8=", "properties": {"ref": "94c446b47add40fea7128972b6eac731", "@spider": "tesco_cze_dpa", "addr:full": "Dukelská třída 1713/7, Hradec Králové, 500", "addr:city": "Hradec Králové", "addr:postcode": "500", "phones": {"Store": ["+420-607 214 576"]}, "email": {"Customer Service": []}, "website": "https://itesco.cz/prodejny/", "operatingHours": {"Store": "Mo 08:00-20:00; Tu 07:00-20:00; We 07:00-20:00; Th 07:00-20:00; Fr 07:00-20:00; Sa 07:00-20:00; Su 07:00-20:00"}, "chain_id": "44", "chain_name": "Tesco"}, "geometry": {"type": "Point", "coordinates": [15.818807, 50.213164]}},
{"type": "Feature", "id": "kWwE2nfWXgQk1MyjVj-GZY_Lx9c=", "properties": {"ref": "bef3eab13fac4886a43ea112a78bfbfc", "@spider": "tesco_cze_dpa", "addr:full": "Obchodní 2155, 289 22 Lysá nad Labem, Lysá nad Labem, 28922", "addr:city": "Lysá nad Labem", "addr:postcode": "28922", "phones": {"Store": [""]}, "email": {"Customer Service": []}, "website": "https://itesco.cz/prodejny/", "operatingHours": {"Store": "Mo 07:00-22:00; Tu 07:00-22:00; We 07:00-22:00; Th 07:00-22:00; Fr 07:00-22:00; Sa 07:00-22:00; Su 07:00-22:00"}, "chain_id": "44", "chain_name": "Tesco"}, "geometry": {"type": "Point", "coordinates": [14.849235, 50.197912]}},
{"type": "Feature", "id": "J2NOZ7UZI8AObDoCYBXikD8eIVw=", "properties": {"ref": "06a345096ff24e06808b7e92e3d85208", "@spider": "tesco_cze_dpa", "addr:full": "Slezská 3505, Frýdek-Místek, 73801", "addr:city": "Frýdek-Místek", "addr:postcode": "73801", "phones": {"Store": ["+420-602 144 892"]}, "email": {"Customer Service": []}, "website": "https://itesco.cz/prodejny/", "operatingHours": {"Store": "Mo 07:00-20:00; Tu 07:00-20:00; We 07:00-20:00; Th 07:00-20:00; Fr 07:00-20:00; Sa 07:00-20:00; Su 07:00-20:00"}, "chain_id": "44", "chain_name": "Tesco"}, "geometry": {"type": "Point", "coordinates": [18.3613, 49.6778]}},
{"type": "Feature", "id": "DtCS-CJtUHYg2f5GoBLn3yMt_Lw=", "properties": {"ref": "e85d4f8a033043dda9d127431f1a83b8", "@spider": "tesco_cze_dpa", "addr:full": "Lidická 2250, Roztoky, 25263", "addr:city": "Roztoky", "addr:postcode": "25263", "phones": {"Store": ["+420-602 430 552"]}, "email": {"Customer Service": []}, "website": "https://itesco.cz/prodejny/", "operatingHours": {"Store": "Mo 07:00-21:00; Tu 07:00-21:00; We 07:00-21:00; Th 07:00-21:00; Fr 07:00-21:00; Sa 07:00-21:00; Su 07:00-21:00"}, "chain_id": "44", "chain_name": "Tesco"}, "geometry": {"type": "Point", "coordinates": [14.3782, 50.1605]}},
{"type": "Feature", "id": "tcivIwYZowRBJYgj1-8y_tUMfY8=", "properties": {"ref": "90b96c742cd04eabaf2d9061829b1a7b", "@spider": "tesco_cze_dpa", "addr:full": "Americká 2777, Kladno, 27201", "addr:city": "Kladno", "addr:postcode": "27201", "phones": {"Store": ["+420-312 833 529"]}, "email": {"Customer Service": []}, "website": "https://itesco.cz/prodejny/", "operatingHours": {"Store": "Mo 06:00-22:00; Tu 06:00-22:00; We 06:00-22:00; Th 06:00-22:00; Fr 06:00-22:00; Sa 06:00-22:00; Su 06:00-22:00"}, "chain_id": "44", "chain_name": "Tesco"}, "geometry": {"type": "Point", "coordinates": [14.1187, 50.1265]}},
{"type": "Feature", "id": "QX6jL1OwIW7NOtQ0PTSagXApgqA=", "properties": {"ref": "740cd3de07924697b312a6c6dca39576", "@spider": "tesco_cze_dpa", "addr:full": "Armádní 192, Milovice, 28923", "addr:city": "Milovice", "addr:postcode": "28923", "phones": {"Store": ["+420-724 532 258"]}, "email": {"Customer Service": []}, "website": "https://itesco.cz/prodejny/", "operatingHours": {"Store": "Mo 07:00-21:00; Tu 07:00-21:00; We 07:00-21:00; Th 07:00-21:00; Fr 07:00-21:00; Sa 07:00-21:00; Su 07:00-21:00"}, "chain_id": "44", "chain_name": "Tesco"}, "geometry": {"type": "Point", "coordinates": [14.8792, 50.2274]}},
{"type": "Feature", "id": "m0E7L9e9hJTzPTW-S30Qwl9ggaI=", "properties": {"ref": "bb92451c38d94b6783220a7b1bc33bc8", "@spider": "tesco_cze_dpa", "addr:full": "Mělnická 395, Líbeznice, 25065", "addr:city": "Líbeznice", "addr:postcode": "25065", "phones": {"Store": ["+420-601 592 795"]}, "email": {"Customer Service": []}, "website": "https://itesco.cz/prodejny/", "operatingHours": {"Store": "Mo 07:00-21:00; Tu 07:00-21:00; We 07:00-21:00; Th 07:00-21:00; Fr 07:00-21:00; Sa 07:00-21:00; Su 07:00-21:00"}, "chain_id": "44", "chain_name": "Tesco"}, "geometry": {"type": "Point", "coordinates": [14.4936, 50.1932]}},
{"type": "Feature", "id": "WdCkGL2S9jrL-b0OS1N9TbEd58A=", "properties": {"ref": "a3abf8aa130f4f9880d486656132bb03", "@spider": "tesco_cze_dpa", "addr:full": "nám. Jana Masaryka 2735, Kladno, 27204", "addr:city": "Kladno", "addr:postcode": "27204", "phones": {"Store": ["+420-725 755 665"]}, "email": {"Customer Service": []}, "website": "https://itesco.cz/prodejny/", "operatingHours": {"Store": "Mo 07:00-21:00; Tu 07:00-21:00; We 07:00-21:00; Th 07:00-21:00; Fr 07:00-21:00; Sa 07:00-21:00; Su 07:00-21:00"}, "chain_id": "44", "chain_name": "Tesco"}, "geometry": {"type": "Point", "coordinates": [14.0726, 50.1396]}},
{"type": "Feature", "id": "rjRotQUKgxeONoD1BwbcfTyn8bc=", "properties": {"ref": "4a646fd73bfe47a8b323593b297f71b7", "@spider": "tesco_cze_dpa", "addr:full": "Prodloužená 807, Ostrava, 72000", "addr:city": "Ostrava", "addr:postcode": "72000", "phones": {"Store": ["+420-595 707 333"]}, "email": {"Customer Service": []}, "website": "https://itesco.cz/prodejny/", "operatingHours": {"Store": "Mo 06:00-22:00; Tu 06:00-22:00; We 06:00-22:00; Th 06:00-22:00; Fr 06:00-22:00; Sa 06:00-22:00; Su 06:00-22:00"}, "chain_id": "44", "chain_name": "Tesco"}, "geometry": {"type": "Point", "coordinates": [18.2649, 49.774]}},
{"type": "Feature", "id": "3ZsoTD8xn7nO7BR4de5GjxCggwI=", "properties": {"ref": "ce564dba8dce48c39373acc0baeea6fc", "@spider": "tesco_cze_dpa", "addr:full": "Osvobození 540, Stochov, 27303", "addr:city": "Stochov", "addr:postcode": "27303", "phones": {"Store": ["+420-606 069 261"]}, "email": {"Customer Service": []}, "website": "https://itesco.cz/prodejny/", "operatingHours": {"Store": "Mo 07:00-21:00; Tu 07:00-21:00; We 07:00-21:00; Th 07:00-21:00; Fr 07:00-21:00; Sa 07:00-21:00; Su 07:00-21:00"}, "chain_id": "44", "chain_name": "Tesco"}, "geometry": {"type": "Point", "coordinates": [13.9664, 50.1443]}},
{"type": "Feature", "id": "D-cnP-ZFGlCtkXGsama8tGkbyjE=", "properties": {"ref": "ac3c9c8c34004fdea6ac0990d28dd939", "@spider": "tesco_cze_dpa", "addr:full": "Pražská 398, Odolena Voda, 25070", "addr:city": "Odolena Voda", "addr:postcode": "25070", "phones": {"Store": [""]}, "email": {"Customer Service": []}, "website": "https://itesco.cz/prodejny/", "operatingHours": {"Store": "Mo 07:00-21:00; Tu 07:00-21:00; We 07:00-21:00; Th 07:00-21:00; Fr 07:00-21:00; Sa 07:00-21:00; Su 07:00-21:00"}, "chain_id": "44", "chain_name": "Tesco"}, "geometry": {"type": "Point", "coordinates": [14.416266, 50.224076]}},
{"type": "Feature", "id": "FZRU_aOtHc3UUeaBrTC1QTf1IO4=", "properties": {"ref": "f4b1d547f80046f1b7fbefd9d0b4aa75", "@spider": "tesco_cze_dpa", "addr:full": "Sjízdná 5554/2, Ostrava, 72200", "addr:city": "Ostrava", "addr:postcode": "72200", "phones": {"Store": ["+420-596 651 948"]}, "email": {"Customer Service": []}, "website": "https://itesco.cz/prodejny/", "operatingHours": {"Store": "Mo 06:00-22:00; Tu 06:00-22:00; We 06:00-22:00; Th 06:00-22:00; Fr 06:00-22:00; Sa 06:00-22:00; Su 06:00-22:00"}, "chain_id": "44", "chain_name": "Tesco"}, "geometry": {"type": "Point", "coordinates": [18.2003, 49.8277]}},
{"type": "Feature", "id": "dzPHBiObSkLXr8i43eluDDFSquY=", "properties": {"ref": "c8b976e92dd14dc488a4792abbd01838", "@spider": "tesco_cze_dpa", "addr:full": "Luženská 2725, Rakovník, 26901", "addr:city": "Rakovník", "addr:postcode": "26901", "phones": {"Store": ["+420-313 254 111"]}, "email": {"Customer Service": []}, "website": "https://itesco.cz/prodejny/", "operatingHours": {"Store": "Mo 07:00-22:00; Tu 07:00-22:00; We 07:00-22:00; Th 07:00-22:00; Fr 07:00-22:00; Sa 07:00-22:00; Su 07:00-22:00"}, "chain_id": "44", "chain_name": "Tesco"}, "geometry": {"type": "Point", "coordinates": [13.7346, 50.1104]}},
{"type": "Feature", "id": "RCYyp9alYiqp1ACHuw6GDsRiGko=", "properties": {"ref": "d66998f2b29e4c939063f2373a1bc3df", "@spider": "tesco_cze_dpa", "addr:full": "Těšínská 2914/44, Opava, 74601", "addr:city": "Opava", "addr:postcode": "74601", "phones": {"Store": ["+420-553 633 530"]}, "email": {"Customer Service": []}, "website": "https://itesco.cz/prodejny/", "operatingHours": {"Store": "Mo 06:00-22:00; Tu 06:00-22:00; We 06:00-22:00; Th 06:00-22:00; Fr 06:00-22:00; Sa 06:00-22:00; Su 06:00-22:00"}, "chain_id": "44", "chain_name": "Tesco"}, "geometry": {"type": "Point", "coordinates": [17.9176, 49.9326]}},
{"type": "Feature", "id": "-GB9prN2ie-kAjGFd2n1CLjI_hw=", "properties": {"ref": "5e4481649e7b453b9aeb540e2afc73d6", "@spider": "tesco_cze_dpa", "addr:full": "Pod Alžbětinkami 196, Jablunkov, 73991", "addr:city": "Jablunkov", "addr:postcode": "73991", "phones": {"Store": ["+420-606 069 513"]}, "email": {"Customer Service": []}, "website": "https://itesco.cz/prodejny/", "operatingHours": {"Store": "Mo 06:00-19:00; Tu 06:00-19:00; We 06:00-19:00; Th 06:00-19:00; Fr 06:00-19:00; Sa 06:00-19:00; Su 06:00-19:00"}, "chain_id": "44", "chain_name": "Tesco"}, "geometry": {"type": "Point", "coordinates": [18.767, 49.5792]}},
{"type": "Feature", "id": "mFigHnLOFS7JPYY6Ewh4NB_4iuA=", "properties": {"ref": "bc1ebf38fd7a4a11bf0c4348fd2d1397", "@spider": "tesco_cze_dpa", "addr:full": "Na výsluní 1368, Neratovice, 27711", "addr:city": "Neratovice", "addr:postcode": "27711", "phones": {"Store": ["+420-724 531 675"]}, "email": {"Customer Service": []}, "website": "https://itesco.cz/prodejny/", "operatingHours": {"Store": "Mo 07:00-20:00; Tu 07:00-20:00; We 07:00-20:00; Th 07:00-20:00; Fr 07:00-20:00; Sa 07:00-20:00; Su 07:00-20:00"}, "chain_id": "44", "chain_name": "Tesco"}, "geometry": {"type": "Point", "coordinates": [14.512, 50.2527]}},
{"type": "Feature", "id": "52chqhUaLg84nP1OqUSrf1svxwI=", "properties": {"ref": "e1bcd293b99a4d90be7cef2bd3037129", "@spider": "tesco_cze_dpa", "addr:full": "Novinářská 3178/6a, Ostrava, 70202", "addr:city": "Ostrava", "addr:postcode": "70202", "phones": {"Store": ["+420-596 666 371"]}, "email": {"Customer Service": []}, "website": "https://itesco.cz/prodejny/", "operatingHours": {"Store": "Mo 06:00-22:00; Tu 06:00-22:00; We 06:00-22:00; Th 06:00-22:00; Fr 06:00-22:00; Sa 06:00-22:00; Su 06:00-22:00"}, "chain_id": "44", "chain_name": "Tesco"}, "geometry": {"type": "Point", "coordinates": [18.2633, 49.8325]}},
{"type": "Feature", "id": "dJKSprZsh3PvQikAvSf4TTx8BKA=", "properties": {"ref": "7df084809070462080a27eb8a44e3db2", "@spider": "tesco_cze_dpa", "addr:full": "Bystřice nad Olší 1181, Bystřice, 73995", "addr:city": "Bystřice", "addr:postcode": "73995", "phones": {"Store": ["+420-725 908 419"]}, "email": {"Customer Service": []}, "website": "https://itesco.cz/prodejny/", "operatingHours": {"Store": "Mo 06:00-20:00; Tu 06:00-20:00; We 06:00-20:00; Th 06:00-20:00; Fr 06:00-20:00; Sa 06:00-20:00; Su 06:00-20:00"}, "chain_id": "44", "chain_name": "Tesco"}, "geometry": {"type": "Point", "coordinates": [18.7197, 49.637]}},
{"type": "Feature", "id": "tHZpb87jkJwERJjS78r_kFJbl_0=", "properties": {"ref": "98e1ddb485c4466a928f3c7e5b33305f", "@spider": "tesco_cze_dpa", "addr:full": "Sokolovská , Tachov, 34701", "addr:city": "Tachov", "addr:postcode": "34701", "phones": {"Store": ["+420-374 719 111"]}, "email": {"Customer Service": []}, "website": "https://itesco.cz/prodejny/", "operatingHours": {"Store": "Mo 07:00-22:00; Tu 07:00-22:00; We 07:00-22:00; Th 07:00-22:00; Fr 07:00-22:00; Sa 07:00-22:00; Su 07:00-22:00"}, "chain_id": "44", "chain_name": "Tesco"}, "geometry": {"type": "Point", "coordinates": [12.6394, 49.8031]}},
{"type": "Feature", "id": "DfoYt5fACMDek8cWoNWn9YpDKO4=", "properties": {"ref": "15ea025cd3064803b765655b5d697b63", "@spider": "tesco_cze_dpa", "addr:full": "Veltruská 815, Kralupy nad Vltavou, 27801", "addr:city": "Kralupy nad Vltavou", "addr:postcode": "27801", "phones": {"Store": ["+420-315 735 111"]}, "email": {"Customer Service": []}, "website": "https://itesco.cz/prodejny/", "operatingHours": {"Store": "Mo 07:00-22:00; Tu 07:00-22:00; We 07:00-22:00; Th 07:00-22:00; Fr 07:00-22:00; Sa 07:00-22:00; Su 07:00-22:00"}, "chain_id": "44", "chain_name": "Tesco"}, "geometry": {"type": "Point", "coordinates": [14.3184, 50.2531]}},
{"type": "Feature", "id": "SkW4-sfGmPsuYdjyj1tD4WDXiVo=", "properties": {"ref": "21495b3242214eca84c0caf1086140a6", "@spider": "tesco_cze_dpa", "addr:full": "Frýdecká 77, Třinec, 73936", "addr:city": "Třinec", "addr:postcode": "73936", "phones": {"Store": ["+420-558 305 111"]}, "email": {"Customer Service": []}, "website": "https://itesco.cz/prodejny/", "operatingHours": {"Store": "Mo 06:00-22:00; Tu 06:00-22:00; We 06:00-22:00; Th 06:00-22:00; Fr 06:00-22:00; Sa 06:00-22:00; Su 06:00-22:00"}, "chain_id": "44", "chain_name": "Tesco"}, "geometry": {"type": "Point", "coordinates": [18.6624, 49.6764]}},
{"type": "Feature", "id": "KA0CKvuOwp8u5z5MIZLXdUGXVH0=", "properties": {"ref": "2217d4a3df6c4ef08c0aaf1d611f3946", "@spider": "tesco_cze_dpa", "addr:full": "Železničářů 8/1303, Havířov, 73601", "addr:city": "Havířov", "addr:postcode": "73601", "phones": {"Store": ["+420-596 802 961, +420-606 029 583"]}, "email": {"Customer Service": []}, "website": "https://itesco.cz/prodejny/", "operatingHours": {"Store": "Mo 06:00-22:00; Tu 06:00-22:00; We 06:00-22:00; Th 06:00-22:00; Fr 06:00-22:00; Sa 06:00-22:00; Su 06:00-22:00"}, "chain_id": "44", "chain_name": "Tesco"}, "geometry": {"type": "Point", "coordinates": [18.4189, 49.791]}},
{"type": "Feature", "id": "zq2X6IEMxayrc3LbqpoU025HUXg=", "properties": {"ref": "99ab1a4dc7bd414187e18f76ce44574c", "@spider": "tesco_cze_dpa", "addr:full": "Plzeňská 916, Planá, 34815", "addr:city": "Planá", "addr:postcode": "34815", "phones": {"Store": ["+420-602 569 142"]}, "email": {"Customer Service": []}, "website": "https://itesco.cz/prodejny/", "operatingHours": {"Store": "Mo 07:00-20:00; Tu 07:00-20:00; We 07:00-20:00; Th 07:00-20:00; Fr 07:00-20:00; Sa 07:00-20:00; Su 07:00-20:00"}, "chain_id": "44", "chain_name": "Tesco"}, "geometry": {"type": "Point", "coordinates": [12.736, 49.8635]}},
{"type": "Feature", "id": "3igrMQGfkl_MqTYYbjgB0b_MWaM=", "properties": {"ref": "92f92bd3ed8f4fe0bb7a3c68ff818fb8", "@spider": "tesco_cze_dpa", "addr:full": "Husova 69, Jaroměř, 55101", "addr:city": "Jaroměř", "addr:postcode": "55101", "phones": {"Store": ["+420-495 014 111"]}, "email": {"Customer Service": []}, "website": "https://itesco.cz/prodejny/", "operatingHours": {"Store": "Mo 07:00-22:00; Tu 07:00-22:00; We 07:00-22:00; Th 07:00-22:00; Fr 07:00-22:00; Sa 07:00-22:00; Su 07:00-22:00"}, "chain_id": "44", "chain_name": "Tesco"}, "geometry": {"type": "Point", "coordinates": [15.9137, 50.3556]}},
{"type": "Feature", "id": "MMHq3Pf1do16ikLLcsrU0n5MDG0=", "properties": {"ref": "bdab144c90d84cd4845c21dc24294af6", "@spider": "tesco_cze_dpa", "addr:full": "Jablunkovská 2041, Český Těšín, 73701", "addr:city": "Český Těšín", "addr:postcode": "73701", "phones": {"Store": ["+420-558 775 111"]}, "email": {"Customer Service": []}, "website": "https://itesco.cz/prodejny/", "operatingHours": {"Store": "Mo 06:00-22:00; Tu 06:00-22:00; We 06:00-22:00; Th 06:00-22:00; Fr 06:00-22:00; Sa 06:00-22:00; Su 06:00-22:00"}, "chain_id": "44", "chain_name": "Tesco"}, "geometry": {"type": "Point", "coordinates": [18.6204, 49.7393]}},
{"type": "Feature", "id": "Mihuj9zuGOEG7ryrMOaw4wrmtWs=", "properties": {"ref": "eeb6cee485b541be94f2b2579d5a6ffc", "@spider": "tesco_cze_dpa", "addr:full": "Veslařská 3430, Mělník, 27601", "addr:city": "Mělník", "addr:postcode": "27601", "phones": {"Store": ["+420-724 529 949"]}, "email": {"Customer Service": []}, "website": "https://itesco.cz/prodejny/", "operatingHours": {"Store": "Mo 07:00-20:00; Tu 07:00-20:00; We 07:00-20:00; Th 07:00-20:00; Fr 07:00-20:00; Sa 07:00-20:00; Su 07:00-20:00"}, "chain_id": "44", "chain_name": "Tesco"}, "geometry": {"type": "Point", "coordinates": [14.4907, 50.3461]}},
{"type": "Feature", "id": "E_Qrq3xeSX6mvx2XK8QxQAL48x0=", "properties": {"ref": "02799a5356ed4f598abf3d387348ab66", "@spider": "tesco_cze_dpa", "addr:full": "Vodárenská 3653, Mělník, 27601", "addr:city": "Mělník", "addr:postcode": "27601", "phones": {"Store": ["+420-315 649 111"]}, "email": {"Customer Service": []}, "website": "https://itesco.cz/prodejny/", "operatingHours": {"Store": "Mo 07:00-22:00; Tu 07:00-22:00; We 07:00-22:00; Th 07:00-22:00; Fr 07:00-22:00; Sa 07:00-22:00; Su 07:00-22:00"}, "chain_id": "44", "chain_name": "Tesco"}, "geometry": {"type": "Point", "coordinates": [14.4834, 50.3543]}},
{"type": "Feature", "id": "fMq_BSQFm9i3yEdsCQKay6N4sUY=", "properties": {"ref": "796295cda72c4329bbe918b887f8e3cb", "@spider": "tesco_cze_dpa", "addr:full": "Alešova 3083, Dvůr Králové nad Labem, 54417", "addr:city": "Dvůr Králové nad Labem", "addr:postcode": "54417", "phones": {"Store": ["+420-499 302 111"]}, "email": {"Customer Service": []}, "website": "https://itesco.cz/prodejny/", "operatingHours": {"Store": "Mo 07:00-22:00; Tu 07:00-22:00; We 07:00-22:00; Th 07:00-22:00; Fr 07:00-22:00; Sa 07:00-22:00; Su 07:00-22:00"}, "chain_id": "44", "chain_name": "Tesco"}, "geometry": {"type": "Point", "coordinates": [15.8104, 50.4255]}},
{"type": "Feature", "id": "-youq_kycOSl78cFYEc_S5yzPTs=", "properties": {"ref": "c774762d09db4f92a4dc780bbbb88ccc", "@spider": "tesco_cze_dpa", "addr:full": "třída 17. listopadu 883/2a, Karviná, 73401", "addr:city": "Karviná", "addr:postcode": "73401", "phones": {"Store": ["+420-595 393 529, 595 393 530"]}, "email": {"Customer Service": []}, "website": "https://itesco.cz/prodejny/", "operatingHours": {"Store": "Mo 06:00-22:00; Tu 06:00-22:00; We 06:00-22:00; Th 06:00-22:00; Fr 06:00-22:00; Sa 06:00-22:00; Su 06:00-22:00"}, "chain_id": "44", "chain_name": "Tesco"}, "geometry": {"type": "Point", "coordinates": [18.5538, 49.8458]}},
{"type": "Feature", "id": "-mzSOvFfZrypNQCNC2dqu6seAdk=", "properties": {"ref": "4be39ad63ec444d19ba1e2552ea3b58a", "@spider": "tesco_cze_dpa", "addr:full": "Hradecká 1141, Jičín, 50601", "addr:city": "Jičín", "addr:postcode": "50601", "phones": {"Store": ["+420-493 508 111"]}, "email": {"Customer Service": []}, "website": "https://itesco.cz/prodejny/", "operatingHours": {"Store": "Mo 06:30-22:00; Tu 06:30-22:00; We 06:30-22:00; Th 06:30-22:00; Fr 06:30-22:00; Sa 06:30-22:00; Su 06:30-22:00"}, "chain_id": "44", "chain_name": "Tesco"}, "geometry": {"type": "Point", "coordinates": [15.3687, 50.4352]}},
{"type": "Feature", "id": "IENu-HmGG_Bs_ZYdIGdEf9s2rXs=", "properties": {"ref": "93d9875cbbdc46cc82f87527fd1f6c7e", "@spider": "tesco_cze_dpa", "addr:full": "Těreškovové 2232, Karviná, 73401", "addr:city": "Karviná", "addr:postcode": "73401", "phones": {"Store": ["+420-725 975 639"]}, "email": {"Customer Service": []}, "website": "https://itesco.cz/prodejny/", "operatingHours": {"Store": "Mo 06:00-13:00; Tu 06:00-20:00; We 06:00-20:00; Th 06:00-20:00; Fr 06:00-20:00; Sa 06:00-20:00; Su 06:00-13:00"}, "chain_id": "44", "chain_name": "Tesco"}, "geometry": {"type": "Point", "coordinates": [18.5567, 49.8573]}},
{"type": "Feature", "id": "6RKnKIXRt5sEcn8I3WKO8DSwCsM=", "properties": {"ref": "40e1e019bac54dc3a9ba420b19023b9b", "@spider": "tesco_cze_dpa", "addr:full": "Chebská 185/23, Mariánské Lázně, 35301", "addr:city": "Mariánské Lázně", "addr:postcode": "35301", "phones": {"Store": ["+420-354 406 111"]}, "email": {"Customer Service": []}, "website": "https://itesco.cz/prodejny/", "operatingHours": {"Store": "Mo 07:00-22:00; Tu 07:00-22:00; We 07:00-22:00; Th 07:00-22:00; Fr 07:00-22:00; Sa 07:00-22:00; Su 07:00-22:00"}, "chain_id": "44", "chain_name": "Tesco"}, "geometry": {"type": "Point", "coordinates": [12.6956, 49.9638]}},
{"type": "Feature", "id": "aI7-ndrnaP-6jTEjraXzCjckkiU=", "properties": {"ref": "90055e24ac554df594beda36d33deb92", "@spider": "tesco_cze_dpa", "addr:full": "Kosmonosy 1255, Mladá Boleslav, 29301", "addr:city": "Mladá Boleslav", "addr:postcode": "29301", "phones": {"Store": ["+420-326 707 111"]}, "email": {"Customer Service": []}, "website": "https://itesco.cz/prodejny/", "operatingHours": {"Store": "Mo 06:00-22:00; Tu 06:00-22:00; We 06:00-22:00; Th 06:00-22:00; Fr 06:00-22:00; Sa 06:00-22:00; Su 06:00-22:00"}, "chain_id": "44", "chain_name": "Tesco"}, "geometry": {"type": "Point", "coordinates": [14.9161, 50.4343]}},
{"type": "Feature", "id": "nNsxXtoCULFu-p06TMfY11e0DCE=", "properties": {"ref": "6afcb0a013584353ab4a9c503bc7446c", "@spider": "tesco_cze_dpa", "addr:full": "Neklanova 2693, Roudnice nad Labem, 41301", "addr:city": "Roudnice nad Labem", "addr:postcode": "41301", "phones": {"Store": ["+420-724 529 863"]}, "email": {"Customer Service": []}, "website": "https://itesco.cz/prodejny/", "operatingHours": {"Store": "Mo 07:00-20:00; Tu 07:00-20:00; We 07:00-20:00; Th 07:00-20:00; Fr 07:00-20:00; Sa 07:00-20:00; Su 07:00-20:00"}, "chain_id": "44", "chain_name": "Tesco"}, "geometry": {"type": "Point", "coordinates": [14.2397, 50.4246]}},
{"type": "Feature", "id": "gcyKePtJecRRY6q61jGJtY8zqMI=", "properties": {"ref": "f7f82f3dc60f4d829dabb7ea23b20c65", "@spider": "tesco_cze_dpa", "addr:full": "Obchodní 663, Štětí, 41108", "addr:city": "Štětí", "addr:postcode": "41108", "phones": {"Store": ["+420-724 530 244"]}, "email": {"Customer Service": []}, "website": "https://itesco.cz/prodejny/", "operatingHours": {"Store": "Mo 07:00-20:00; Tu 07:00-20:00; We 07:00-20:00; Th 07:00-20:00; Fr 07:00-20:00; Sa 07:00-20:00; Su 07:00-20:00"}, "chain_id": "44", "chain_name": "Tesco"}, "geometry": {"type": "Point", "coordinates": [14.3741, 50.4534]}},
{"type": "Feature", "id": "UBHKigs63HwyvnvUpMS7fzVqVxQ=", "properties": {"ref": "f26ee8efe87c40339bd75c91ee9f3ddc", "@spider": "tesco_cze_dpa", "addr:full": "Husova 3078, Žatec, 43801", "addr:city": "Žatec", "addr:postcode": "43801", "phones": {"Store": ["+420-415 731 111"]}, "email": {"Customer Service": []}, "website": "https://itesco.cz/prodejny/", "operatingHours": {"Store": "Mo 07:00-22:00; Tu 07:00-22:00; We 07:00-22:00; Th 07:00-22:00; Fr 07:00-22:00; Sa 07:00-22:00; Su 07:00-22:00"}, "chain_id": "44", "chain_name": "Tesco"}, "geometry": {"type": "Point", "coordinates": [13.5331, 50.3149]}},
{"type": "Feature", "id": "qoBUjSmzWym1h5oy7nD30s5enBw=", "properties": {"ref": "58cd180559794a869ea40940c0980fae", "@spider": "tesco_cze_dpa", "addr:full": "Nová 1016, Horní Slavkov, 35731", "addr:city": "Horní Slavkov", "addr:postcode": "35731", "phones": {"Store": ["+420-725 708 022"]}, "email": {"Customer Service": []}, "website": "https://itesco.cz/prodejny/", "operatingHours": {"Store": "Mo 07:00-20:00; Tu 07:00-20:00; We 07:00-20:00; Th 07:00-20:00; Fr 07:00-20:00; Sa 07:00-20:00; Su 07:00-20:00"}, "chain_id": "44", "chain_name": "Tesco"}, "geometry": {"type": "Point", "coordinates": [12.7965, 50.1356]}},
{"type": "Feature", "id": "RKDujx_-IEghwWPbe0SidFzj0Gk=", "properties": {"ref": "93122fe99a744f06a726041264bdb7f9", "@spider": "tesco_cze_dpa", "addr:full": "Obchodní 135, Trutnov, 54101", "addr:city": "Trutnov", "addr:postcode": "54101", "phones": {"Store": ["+420-499 303 315"]}, "email": {"Customer Service": []}, "website": "https://itesco.cz/prodejny/", "operatingHours": {"Store": "Mo 06:00-22:00; Tu 06:00-22:00; We 06:00-22:00; Th 06:00-22:00; Fr 06:00-22:00; Sa 06:00-22:00; Su 06:00-22:00"}, "chain_id": "44", "chain_name": "Tesco"}, "geometry": {"type": "Point", "coordinates": [15.8947, 50.5693]}},
{"type": "Feature", "id": "w4ZWHmlHHWt-tpWeo9zrhCa8iv4=", "properties": {"ref": "bbb5bed0794f4adb83dda182f7c17b6b", "@spider": "tesco_cze_dpa", "addr:full": "Skálová 92, Turnov, 51118", "addr:city": "Turnov", "addr:postcode": "51118", "phones": {"Store": ["+420-724 531 730"]}, "email": {"Customer Service": []}, "website": "https://itesco.cz/prodejny/", "operatingHours": {"Store": "Mo 07:00-21:00; Tu 07:00-21:00; We 07:00-21:00; Th 07:00-21:00; Fr 07:00-21:00; Sa 07:00-21:00; Su 07:00-21:00"}, "chain_id": "44", "chain_name": "Tesco"}, "geometry": {"type": "Point", "coordinates": [15.1578, 50.5878]}},
{"type": "Feature", "id": "4-YEKN2-qrj5AcfvzKQNhh2yrUc=", "properties": {"ref": "f893afeac8564b23932554d2569e22c6", "@spider": "tesco_cze_dpa", "addr:full": "Bořkovská 573, Semily, 51301", "addr:city": "Semily", "addr:postcode": "51301", "phones": {"Store": ["+420-724 532 075"]}, "email": {"Customer Service": []}, "website": "https://itesco.cz/prodejny/", "operatingHours": {"Store": "Mo 07:00-20:00; Tu 07:00-20:00; We 07:00-20:00; Th 07:00-20:00; Fr 07:00-20:00; Sa 07:00-20:00; Su 07:00-20:00"}, "chain_id": "44", "chain_name": "Tesco"}, "geometry": {"type": "Point", "coordinates": [15.3272, 50.5988]}},
{"type": "Feature", "id": "0w6ua37g_sqqA2GYdBszJYJFKkI=", "properties": {"ref": "bfbee603f37444f4a67f0ed4eae65498", "@spider": "tesco_cze_dpa", "addr:full": "Jana Buchara 986, Jilemnice, 51401", "addr:city": "Jilemnice", "addr:postcode": "51401", "phones": {"Store": ["+420-724 395 126"]}, "email": {"Customer Service": []}, "website": "https://itesco.cz/prodejny/", "operatingHours": {"Store": "Mo 07:00-21:00; Tu 07:00-21:00; We 07:00-21:00; Th 07:00-21:00; Fr 07:00-21:00; Sa 07:00-21:00; Su 07:00-21:00"}, "chain_id": "44", "chain_name": "Tesco"}, "geometry": {"type": "Point", "coordinates": [15.5065, 50.6055]}},
{"type": "Feature", "id": "msZBUEwWwooPl4pQmlMgWwsZBbg=", "properties": {"ref": "d26cff37dec4407296582bff74880247", "@spider": "tesco_cze_dpa", "addr:full": "Chebská 370/81A, Karlovy Vary, 36006", "addr:city": "Karlovy Vary", "addr:postcode": "36006", "phones": {"Store": ["+420-353 506 563"]}, "email": {"Customer Service": []}, "website": "https://itesco.cz/prodejny/", "operatingHours": {"Store": "Mo 07:00-21:00; Tu 07:00-21:00; We 07:00-21:00; Th 07:00-21:00; Fr 07:00-21:00; Sa 07:00-21:00; Su 07:00-21:00"}, "chain_id": "44", "chain_name": "Tesco"}, "geometry": {"type": "Point", "coordinates": [12.8231, 50.2253]}},
{"type": "Feature", "id": "bS95WZzA0zzcKtqtt_T5ZCwGcqI=", "properties": {"ref": "c0ce0603b00d4e34a97dc729d76b8aa4", "@spider": "tesco_cze_dpa", "addr:full": "Marie Majerové 2241, Sokolov, 35601", "addr:city": "Sokolov", "addr:postcode": "35601", "phones": {"Store": ["+420-352 351 111"]}, "email": {"Customer Service": []}, "website": "https://itesco.cz/prodejny/", "operatingHours": {"Store": "Mo 07:00-22:00; Tu 07:00-22:00; We 07:00-22:00; Th 07:00-22:00; Fr 07:00-22:00; Sa 07:00-22:00; Su 07:00-22:00"}, "chain_id": "44", "chain_name": "Tesco"}, "geometry": {"type": "Point", "coordinates": [12.6677, 50.1756]}},
{"type": "Feature", "id": "EqIvsxvu13ku8d3vUL0T3Z1ynVU=", "properties": {"ref": "90c2816e8e8c434e8bb5ce3d1e27594c", "@spider": "tesco_cze_dpa", "addr:full": "Třeboňská 2, Karlovy Vary, 36019", "addr:city": "Karlovy Vary", "addr:postcode": "36019", "phones": {"Store": ["+420-724 530 405"]}, "email": {"Customer Service": []}, "website": "https://itesco.cz/prodejny/", "operatingHours": {"Store": "Mo 07:00-21:00; Tu 07:00-21:00; We 07:00-21:00; Th 07:00-21:00; Fr 07:00-21:00; Sa 07:00-21:00; Su 07:00-21:00"}, "chain_id": "44", "chain_name": "Tesco"}, "geometry": {"type": "Point", "coordinates": [12.849, 50.2389]}},
{"type": "Feature", "id": "7Kp5MotmJJLRwlvFulx-hWHKSSc=", "properties": {"ref": "cb49943db013403a8ecd6c656ccc6695", "@spider": "tesco_cze_dpa", "addr:full": "Pražská 2494/15, Cheb, 35002", "addr:city": "Cheb", "addr:postcode": "35002", "phones": {"Store": ["+420-354 441 518"]}, "email": {"Customer Service": []}, "website": "https://itesco.cz/prodejny/", "operatingHours": {"Store": "Mo 06:00-22:00; Tu 06:00-22:00; We 06:00-22:00; Th 06:00-22:00; Fr 06:00-22:00; Sa 06:00-22:00; Su 06:00-22:00"}, "chain_id": "44", "chain_name": "Tesco"}, "geometry": {"type": "Point", "coordinates": [12.3785, 50.0817]}},
{"type": "Feature", "id": "aLdyOl3mJJ4AwDjzrIUIFdF89KE=", "properties": {"ref": "f1071a9b87944203a0796be5976330a8", "@spider": "tesco_cze_dpa", "addr:full": "Tovární 1179, Chodov, 35735", "addr:city": "Chodov", "addr:postcode": "35735", "phones": {"Store": ["+420-724 529 835"]}, "email": {"Customer Service": []}, "website": "https://itesco.cz/prodejny/", "operatingHours": {"Store": "Mo 07:00-20:00; Tu 07:00-20:00; We 07:00-20:00; Th 07:00-20:00; Fr 07:00-20:00; Sa 07:00-20:00; Su 07:00-20:00"}, "chain_id": "44", "chain_name": "Tesco"}, "geometry": {"type": "Point", "coordinates": [12.7429, 50.2385]}},
{"type": "Feature", "id": "iPAxVrTdU05Z43wXLs6Ur18uyqw=", "properties": {"ref": "178c388681194199b0365fd29e1942c5", "@spider": "tesco_cze_dpa", "addr:full": "1. máje 847, Habartov, 35709", "addr:city": "Habartov", "addr:postcode": "35709", "phones": {"Store": ["+420-725 337 146"]}, "email": {"Customer Service": []}, "website": "https://itesco.cz/prodejny/", "operatingHours": {"Store": "Mo 07:00-20:00; Tu 07:00-20:00; We 07:00-20:00; Th 07:00-20:00; Fr 07:00-20:00; Sa 07:00-20:00; Su 07:00-20:00"}, "chain_id": "44", "chain_name": "Tesco"}, "geometry": {"type": "Point", "coordinates": [12.559, 50.1834]}},
{"type": "Feature", "id": "xRjLFC4tDSePP6ZZPCF-wdcqIzk=", "properties": {"ref": "f7b5df76b8644fccb9ec1695a8d00fcb", "@spider": "tesco_cze_dpa", "addr:full": "Jáchymovská , Ostrov, 36301", "addr:city": "Ostrov", "addr:postcode": "36301", "phones": {"Store": ["+420-353 104 111"]}, "email": {"Customer Service": []}, "website": "https://itesco.cz/prodejny/", "operatingHours": {"Store": "Mo 07:00-22:00; Tu 07:00-22:00; We 07:00-22:00; Th 07:00-22:00; Fr 07:00-22:00; Sa 07:00-22:00; Su 07:00-22:00"}, "chain_id": "44", "chain_name": "Tesco"}, "geometry": {"type": "Point", "coordinates": [12.9473, 50.3164]}},
{"type": "Feature", "id": "OYHZcXKa5KIHGZm3aBIxj-umKAM=", "properties": {"ref": "2818e0a592524291b7b3a01307170f95", "@spider": "tesco_cze_dpa", "addr:full": "Chomutovská 210, Klášterec nad Ohří, 43151", "addr:city": "Klášterec nad Ohří", "addr:postcode": "43151", "phones": {"Store": ["+420-474 318 111"]}, "email": {"Customer Service": []}, "website": "https://itesco.cz/prodejny/", "operatingHours": {"Store": "Mo 07:00-22:00; Tu 07:00-22:00; We 07:00-22:00; Th 07:00-22:00; Fr 07:00-22:00; Sa 07:00-22:00; Su 07:00-22:00"}, "chain_id": "44", "chain_name": "Tesco"}, "geometry": {"type": "Point", "coordinates": [13.1767, 50.3866]}},
{"type": "Feature", "id": "rUlgYz_IwSFqJhxQYU_9oY9ylz8=", "properties": {"ref": "e780dccd1d1a44bf965265507095ff03", "@spider": "tesco_cze_dpa", "addr:full": "Husova 661, Mimoň, 47124", "addr:city": "Mimoň", "addr:postcode": "47124", "phones": {"Store": ["+420-724 529 764"]}, "email": {"Customer Service": []}, "website": "https://itesco.cz/prodejny/", "operatingHours": {"Store": "Mo 07:00-20:00; Tu 07:00-20:00; We 07:00-20:00; Th 07:00-20:00; Fr 07:00-20:00; Sa 07:00-20:00; Su 07:00-20:00"}, "chain_id": "44", "chain_name": "Tesco"}, "geometry": {"type": "Point", "coordinates": [14.729, 50.6539]}},
{"type": "Feature", "id": "IhbLvcpucOo3SzHA3KtqFGCUnQU=", "properties": {"ref": "5f2ff9bed43b498794ac8baff7f7e36a", "@spider": "tesco_cze_dpa", "addr:full": "Rudolická 1706, Most, 43401", "addr:city": "Most", "addr:postcode": "43401", "phones": {"Store": ["+420- 476 444 529"]}, "email": {"Customer Service": []}, "website": "https://itesco.cz/prodejny/", "operatingHours": {"Store": "Mo 06:00-22:00; Tu 06:00-22:00; We 06:00-22:00; Th 06:00-22:00; Fr 06:00-22:00; Sa 06:00-22:00; Su 06:00-22:00"}, "chain_id": "44", "chain_name": "Tesco"}, "geometry": {"type": "Point", "coordinates": [13.6514, 50.5111]}},
{"type": "Feature", "id": "LtWr-pmAmUbkLA6LUSn3cp2LAiY=", "properties": {"ref": "6c489ed721f0412d83639340986cc8dd", "@spider": "tesco_cze_dpa", "addr:full": "Dr. Farského 4732, Chomutov, 43001", "addr:city": "Chomutov", "addr:postcode": "43001", "phones": {"Store": ["+420-725 337 109"]}, "email": {"Customer Service": []}, "website": "https://itesco.cz/prodejny/", "operatingHours": {"Store": "Mo 07:00-20:00; Tu 07:00-20:00; We 07:00-20:00; Th 07:00-20:00; Fr 07:00-20:00; Sa 07:00-20:00; Su 07:00-20:00"}, "chain_id": "44", "chain_name": "Tesco"}, "geometry": {"type": "Point", "coordinates": [13.4143, 50.4618]}},
{"type": "Feature", "id": "06yBfhfeyo6i6zVstZE2gitIAZU=", "properties": {"ref": "dc3ca44c144040399e2a1aa5d22058a5", "@spider": "tesco_cze_dpa", "addr:full": "Za Chlumem 822, Bílina, 41801", "addr:city": "Bílina", "addr:postcode": "41801", "phones": {"Store": ["+420-724 529 986"]}, "email": {"Customer Service": []}, "website": "https://itesco.cz/prodejny/", "operatingHours": {"Store": "Mo 07:00-20:00; Tu 07:00-20:00; We 07:00-20:00; Th 07:00-20:00; Fr 07:00-20:00; Sa 07:00-20:00; Su 07:00-20:00"}, "chain_id": "44", "chain_name": "Tesco"}, "geometry": {"type": "Point", "coordinates": [13.7859, 50.5532]}},
{"type": "Feature", "id": "orHzg04j-G8Cs1R0_yhrM2QSmCw=", "properties": {"ref": "d5080e1f0a7b4d9c9c6755de4142c32f", "@spider": "tesco_cze_dpa", "addr:full": "Písečná 5376, Chomutov, 43000", "addr:city": "Chomutov", "addr:postcode": "43000", "phones": {"Store": ["+420-724 529 421"]}, "email": {"Customer Service": []}, "website": "https://itesco.cz/prodejny/", "operatingHours": {"Store": "Mo 07:00-20:00; Tu 07:00-20:00; We 07:00-20:00; Th 07:00-20:00; Fr 07:00-20:00; Sa 07:00-20:00; Su 07:00-20:00"}, "chain_id": "44", "chain_name": "Tesco"}, "geometry": {"type": "Point", "coordinates": [13.4374, 50.4849]}},
{"type": "Feature", "id": "nCD25D3WdN49hunCC-tYTQq3Khk=", "properties": {"ref": "1216061deb90451fba6775e96fc297ee", "@spider": "tesco_cze_dpa", "addr:full": "Vinařická 2152, Jirkov, 43111", "addr:city": "Jirkov", "addr:postcode": "43111", "phones": {"Store": ["+420-474 315 111"]}, "email": {"Customer Service": []}, "website": "https://itesco.cz/prodejny/", "operatingHours": {"Store": "Mo 07:00-22:00; Tu 07:00-22:00; We 07:00-22:00; Th 07:00-22:00; Fr 07:00-22:00; Sa 07:00-22:00; Su 07:00-22:00"}, "chain_id": "44", "chain_name": "Tesco"}, "geometry": {"type": "Point", "coordinates": [13.4444, 50.4997]}},
{"type": "Feature", "id": "oat4w1acoc3iqtzFPNUeNuVD-kE=", "properties": {"ref": "f4603b518e144d78bbd82fc0041d06f4", "@spider": "tesco_cze_dpa", "addr:full": "Hořec 495, Rokytnice nad Jizerou, 51244", "addr:city": "Rokytnice nad Jizerou", "addr:postcode": "51244", "phones": {"Store": ["+420-724 531 765"]}, "email": {"Customer Service": []}, "website": "https://itesco.cz/prodejny/", "operatingHours": {"Store": "Mo 06:00-21:00; Tu 06:00-21:00; We 06:00-21:00; Th 06:00-21:00; Fr 06:00-21:00; Sa 06:00-21:00; Su 06:00-21:00"}, "chain_id": "44", "chain_name": "Tesco"}, "geometry": {"type": "Point", "coordinates": [15.4507, 50.7288]}},
{"type": "Feature", "id": "zXUE8HZKXCbprsS0CqYta7lLUYc=", "properties": {"ref": "9f81bea3f8d04007aa73947677ba3278", "@spider": "tesco_cze_dpa", "addr:full": "U Přehrady 40, Jablonec nad Nisou, 46601", "addr:city": "Jablonec nad Nisou", "addr:postcode": "46601", "phones": {"Store": ["+420-724 531 910"]}, "email": {"Customer Service": []}, "website": "https://itesco.cz/prodejny/", "operatingHours": {"Store": "Mo 07:00-21:00; Tu 07:00-21:00; We 07:00-21:00; Th 07:00-21:00; Fr 07:00-21:00; Sa 07:00-21:00; Su 07:00-21:00"}, "chain_id": "44", "chain_name": "Tesco"}, "geometry": {"type": "Point", "coordinates": [15.182, 50.7337]}},
{"type": "Feature", "id": "jcjJfR5k54ZIaa-uTclRWSLrTgQ=", "properties": {"ref": "48ba2065ec0e4b4b84c84960ea8c302f", "@spider": "tesco_cze_dpa", "addr:full": "Osecká 1317/3, Duchcov, 41901", "addr:city": "Duchcov", "addr:postcode": "41901", "phones": {"Store": ["+420-725 058 218"]}, "email": {"Customer Service": []}, "website": "https://itesco.cz/prodejny/", "operatingHours": {"Store": "Mo 07:00-20:00; Tu 07:00-20:00; We 07:00-20:00; Th 07:00-20:00; Fr 07:00-20:00; Sa 07:00-20:00; Su 07:00-20:00"}, "chain_id": "44", "chain_name": "Tesco"}, "geometry": {"type": "Point", "coordinates": [13.746, 50.6056]}},
{"type": "Feature", "id": "PDHFxiRLEzIfrXI0wLMdxx_L1PY=", "properties": {"ref": "80c434ed95df4803aa930dc9dcf259aa", "@spider": "tesco_cze_dpa", "addr:full": "Olbrachtova 808/2, Liberec, 46015", "addr:city": "Liberec", "addr:postcode": "46015", "phones": {"Store": ["+420-724 532 102"]}, "email": {"Customer Service": []}, "website": "https://itesco.cz/prodejny/", "operatingHours": {"Store": "Mo 07:00-21:00; Tu 07:00-21:00; We 07:00-21:00; Th 07:00-21:00; Fr 07:00-21:00; Sa 07:00-21:00; Su 07:00-21:00"}, "chain_id": "44", "chain_name": "Tesco"}, "geometry": {"type": "Point", "coordinates": [15.0909, 50.7607]}},
{"type": "Feature", "id": "0rmYtZqUnOrfEzxpx-RcGLU_yxc=", "properties": {"ref": "9450067c950f4e61ae3b270ab6375269", "@spider": "tesco_cze_dpa", "addr:full": "Seifertova 574, Ústí nad Labem, 40331", "addr:city": "Ústí nad Labem", "addr:postcode": "40331", "phones": {"Store": ["+420-724 529 412"]}, "email": {"Customer Service": []}, "website": "https://itesco.cz/prodejny/", "operatingHours": {"Store": "Mo 07:00-20:00; Tu 07:00-20:00; We 07:00-20:00; Th 07:00-20:00; Fr 07:00-20:00; Sa 07:00-20:00; Su 07:00-20:00"}, "chain_id": "44", "chain_name": "Tesco"}, "geometry": {"type": "Point", "coordinates": [14.1091, 50.6756]}},
{"type": "Feature", "id": "fnSBhbIqgqg_dpgiTD37tSfZcro=", "properties": {"ref": "32a8512d8f5d4b5084647c30ab1d17b5", "@spider": "tesco_cze_dpa", "addr:full": "Soukenné nám. 669/2a, Liberec, 46001", "addr:city": "Liberec", "addr:postcode": "46001", "phones": {"Store": ["+420-485 231 111"]}, "email": {"Customer Service": []}, "website": "https://itesco.cz/prodejny/", "operatingHours": {"Store": "Mo 07:00-20:30; Tu 06:00-20:30; We 06:00-20:30; Th 06:00-20:30; Fr 06:00-20:30; Sa 06:00-20:30; Su 06:00-20:30"}, "chain_id": "44", "chain_name": "Tesco"}, "geometry": {"type": "Point", "coordinates": [15.0552, 50.7657]}},
{"type": "Feature", "id": "FVNGP81kqY1xsvgmBR4n0jOzTmc=", "properties": {"ref": "aca92de3fa2e4646ad2432315099e503", "@spider": "tesco_cze_dpa", "addr:full": "Podkrušnohorská , Litvínov, 43601", "addr:city": "Litvínov", "addr:postcode": "43601", "phones": {"Store": ["+420-475 251 111"]}, "email": {"Customer Service": []}, "website": "https://itesco.cz/prodejny/", "operatingHours": {"Store": "Mo 07:00-22:00; Tu 07:00-22:00; We 07:00-22:00; Th 07:00-22:00; Fr 07:00-22:00; Sa 07:00-22:00; Su 07:00-22:00"}, "chain_id": "44", "chain_name": "Tesco"}, "geometry": {"type": "Point", "coordinates": [13.6021, 50.6011]}},
{"type": "Feature", "id": "uIHClNR9DZiHsfC0_3LbG5fsLcI=", "properties": {"ref": "0cdfd7df99ec4b7595fa4c05e097f715", "@spider": "tesco_cze_dpa", "addr:full": "Vrchlického 830/41, Liberec, 46014", "addr:city": "Liberec", "addr:postcode": "46014", "phones": {"Store": ["+420-602 144 314"]}, "email": {"Customer Service": []}, "website": "https://itesco.cz/prodejny/", "operatingHours": {"Store": "Mo 07:00-21:00; Tu 07:00-21:00; We 07:00-21:00; Th 07:00-21:00; Fr 07:00-21:00; Sa 07:00-21:00; Su 07:00-21:00"}, "chain_id": "44", "chain_name": "Tesco"}, "geometry": {"type": "Point", "coordinates": [15.0603, 50.7842]}},
{"type": "Feature", "id": "6uf3FbanLrhXsStv_Q5NqLDVXVA=", "properties": {"ref": "bedefc3a45994e908f1c63d457aa794e", "@spider": "tesco_cze_dpa", "addr:full": "Tyršova 684, Osek, 41705", "addr:city": "Osek", "addr:postcode": "41705", "phones": {"Store": ["+420-606 755 831"]}, "email": {"Customer Service": []}, "website": "https://itesco.cz/prodejny/", "operatingHours": {"Store": "Mo 07:00-20:00; Tu 07:00-20:00; We 07:00-20:00; Th 07:00-20:00; Fr 07:00-20:00; Sa 07:00-20:00; Su 07:00-20:00"}, "chain_id": "44", "chain_name": "Tesco"}, "geometry": {"type": "Point", "coordinates": [13.6915, 50.6267]}},
{"type": "Feature", "id": "rbY88rd5KmJ6R5NBguRNxqyBFNA=", "properties": {"ref": "2b3e795462924865a56ce0dd4046b6b9", "@spider": "tesco_cze_dpa", "addr:full": "T. G. Masaryka 830, Nový Bor, 47301", "addr:city": "Nový Bor", "addr:postcode": "47301", "phones": {"Store": ["+420-724 529 652"]}, "email": {"Customer Service": []}, "website": "https://itesco.cz/prodejny/", "operatingHours": {"Store": "Mo 06:30-20:00; Tu 06:30-20:00; We 06:30-20:00; Th 06:30-20:00; Fr 06:30-20:00; Sa 06:30-20:00; Su 06:30-20:00"}, "chain_id": "44", "chain_name": "Tesco"}, "geometry": {"type": "Point", "coordinates": [14.5549, 50.7573]}},
{"type": "Feature", "id": "owLMMSuflBtQxk20Oq8N9UdN1aQ=", "properties": {"ref": "5a879c636280440498349a4f008fc6c7", "@spider": "tesco_cze_dpa", "addr:full": "Děčínská , Benešov nad Ploučnicí, 40722", "addr:city": "Benešov nad Ploučnicí", "addr:postcode": "40722", "phones": {"Store": ["+420-724 529 799"]}, "email": {"Customer Service": []}, "website": "https://itesco.cz/prodejny/", "operatingHours": {"Store": "Mo 07:00-20:00; Tu 07:00-20:00; We 07:00-20:00; Th 07:00-20:00; Fr 07:00-20:00; Sa 07:00-20:00; Su 07:00-20:00"}, "chain_id": "44", "chain_name": "Tesco"}, "geometry": {"type": "Point", "coordinates": [14.2955, 50.7413]}},
{"type": "Feature", "id": "g1f08PCDwzpct8h7aZ6UT_0Ajm0=", "properties": {"ref": "b5fbcfe6f2624ab9a08d4c340c44a44e", "@spider": "tesco_cze_dpa", "addr:full": "Revoluční 354, Krupka, 41742", "addr:city": "Krupka", "addr:postcode": "41742", "phones": {"Store": ["+420-606 748 704"]}, "email": {"Customer Service": []}, "website": "https://itesco.cz/prodejny/", "operatingHours": {"Store": "Mo 07:00-21:00; Tu 07:00-21:00; We 07:00-21:00; Th 07:00-21:00; Fr 07:00-21:00; Sa 07:00-21:00; Su 07:00-21:00"}, "chain_id": "44", "chain_name": "Tesco"}, "geometry": {"type": "Point", "coordinates": [13.8858, 50.6848]}},
{"type": "Feature", "id": "u3jMibaV7pg3hc9H-sAavgZmm8A=", "properties": {"ref": "7abd11bc272f4ec5a86718f842eb1892", "@spider": "tesco_cze_dpa", "addr:full": "Chebská 2934, Aš, 35201", "addr:city": "Aš", "addr:postcode": "35201", "phones": {"Store": ["+420-354 674 111"]}, "email": {"Customer Service": []}, "website": "https://itesco.cz/prodejny/", "operatingHours": {"Store": "Mo 07:00-22:00; Tu 07:00-22:00; We 07:00-22:00; Th 07:00-22:00; Fr 07:00-22:00; Sa 07:00-22:00; Su 07:00-22:00"}, "chain_id": "44", "chain_name": "Tesco"}, "geometry": {"type": "Point", "coordinates": [12.1996, 50.2136]}},
{"type": "Feature", "id": "7zAMypAOCyJ1NUtrRZXsSN8cbiQ=", "properties": {"ref": "3e8a8c128a764a9fbf380f33ea869d89", "@spider": "tesco_cze_dpa", "addr:full": "Ústecká 1905/8, Děčín, 40502", "addr:city": "Děčín", "addr:postcode": "40502", "phones": {"Store": ["+420-607 075 391"]}, "email": {"Customer Service": []}, "website": "https://itesco.cz/prodejny/", "operatingHours": {"Store": "Mo 06:00-22:00; Tu 06:00-22:00; We 06:00-22:00; Th 06:00-22:00; Fr 06:00-22:00; Sa 06:00-22:00; Su 06:00-22:00"}, "chain_id": "44", "chain_name": "Tesco"}, "geometry": {"type": "Point", "coordinates": [14.2063, 50.7706]}},
{"type": "Feature", "id": "-Ps45LxQSC0kXafFWkisGx5ss1E=", "properties": {"ref": "3fd36a936b0a4ec4b25da2d1201d687e", "@spider": "tesco_cze_dpa", "addr:full": "Teplická 761/107, Děčín, 40505", "addr:city": "Děčín", "addr:postcode": "40505", "phones": {"Store": ["+420-724 532 687"]}, "email": {"Customer Service": []}, "website": "https://itesco.cz/prodejny/", "operatingHours": {"Store": "Mo 07:00-20:00; Tu 07:00-20:00; We 07:00-20:00; Th 07:00-20:00; Fr 07:00-20:00; Sa 07:00-20:00; Su 07:00-20:00"}, "chain_id": "44", "chain_name": "Tesco"}, "geometry": {"type": "Point", "coordinates": [14.1482, 50.7812]}},
{"type": "Feature", "id": "0LrfVS9YWAQzIvWU-787v_CNPTo=", "properties": {"ref": "590e5b6814c449c780348b1ed3c1e1dc", "@spider": "tesco_cze_dpa", "addr:full": "Hejnická 113, Frýdlant, 46401", "addr:city": "Frýdlant", "addr:postcode": "46401", "phones": {"Store": ["+420-725 326 973"]}, "email": {"Customer Service": []}, "website": "https://itesco.cz/prodejny/", "operatingHours": {"Store": "Mo 06:00-20:00; Tu 06:00-20:00; We 06:00-20:00; Th 06:00-20:00; Fr 06:00-20:00; Sa 06:00-20:00; Su 06:00-20:00"}, "chain_id": "44", "chain_name": "Tesco"}, "geometry": {"type": "Point", "coordinates": [15.0801, 50.9204]}},
{"type": "Feature", "id": "mlsXEEuLRZhnoEjZP6zIFp30aYM=", "properties": {"ref": "a3583948ccdf43389dbfc97a8e47c19f", "@spider": "tesco_cze_dpa", "addr:full": "Pražská 1677/1, Rumburk, 40801", "addr:city": "Rumburk", "addr:postcode": "40801", "phones": {"Store": ["+420-725 786 509"]}, "email": {"Customer Service": []}, "website": "https://itesco.cz/prodejny/", "operatingHours": {"Store": "Mo 07:00-20:00; Tu 07:00-20:00; We 07:00-20:00; Th 07:00-20:00; Fr 07:00-20:00; Sa 07:00-20:00; Su 07:00-20:00"}, "chain_id": "44", "chain_name": "Tesco"}, "geometry": {"type": "Point", "coordinates": [14.5577, 50.947]}},
{"type": "Feature", "id": "YAHmF-s7TV-3csxcSAAyy4V_DSk=", "properties": {"ref": "412a89dfa3ed451898efb56b86187dee", "@spider": "tesco_cze_dpa", "addr:full": "Zámecká 1110, Šluknov, 40777", "addr:city": "Šluknov", "addr:postcode": "40777", "phones": {"Store": ["+420-724 532 662"]}, "email": {"Customer Service": []}, "website": "https://itesco.cz/prodejny/", "operatingHours": {"Store": "Mo 07:00-20:00; Tu 07:00-20:00; We 07:00-20:00; Th 07:00-20:00; Fr 07:00-20:00; Sa 07:00-20:00; Su 07:00-20:00"}, "chain_id": "44", "chain_name": "Tesco"}, "geometry": {"type": "Point", "coordinates": [14.4542, 51.0051]}}]}